<?xml version="1.0" encoding="UTF-8"?>
<gpx xmlns="http://www.topografix.com/GPX/1/1" xmlns:gpxtpx="http://www.garmin.com/xmlschemas/TrackPointExtension/v1" xmlns:xsi="http://www.w3.org/2001/XMLSchema-instance" xsi:schemaLocation="http://www.topografix.com/GPX/1/1 http://www.topografix.com/GPX/1/1/gpx.xsd" version="1.1" creator="gpx.py -- https://github.com/tkrajina/gpxpy">
  <trk>
    <name>gpx from keep</name>
    <type>Run</type>
    <trkseg>
      <trkpt lat="39.89032136906258" lon="116.3410468724988">
        <ele>59.34083172865212</ele>
        <time>2026-08-24T22:59:33.544000Z</time>
      </trkpt>
      <trkpt lat="39.89031958597951" lon="116.34092513365351">
        <ele>59.24834820814431</ele>
        <time>2026-08-24T22:59:39.544000Z</time>
      </trkpt>
      <trkpt lat="39.890333720508856" lon="116.34084929454671">
        <ele>59.60241314955056</ele>
        <time>2026-08-24T22:59:42.544000Z</time>
      </trkpt>
      <trkpt lat="39.89025383636352" lon="116.3407864395726">
        <ele>59.01583478040993</ele>
        <time>2026-08-24T22:59:48.644000Z</time>
      </trkpt>
      <trkpt lat="39.890242084513645" lon="116.34064773900663">
        <ele>59.782093020156026</ele>
        <time>2026-08-24T22:59:54.644000Z</time>
      </trkpt>
      <trkpt lat="39.89026038508146" lon="116.34047909940192">
        <ele>59.435955019667745</ele>
        <time>2026-08-24T23:00:00.744000Z</time>
      </trkpt>
      <trkpt lat="39.89029545663406" lon="116.34043818303873">
        <ele>59.19550702162087</ele>
        <time>2026-08-24T23:00:03.744000Z</time>
      </trkpt>
      <trkpt lat="39.890499423916985" lon="116.34045112933588">
        <ele>59.110950442031026</ele>
        <time>2026-08-24T23:00:12.744000Z</time>
      </trkpt>
      <trkpt lat="39.890653309663925" lon="116.34051098103046">
        <ele>57.330059023573995</ele>
        <time>2026-08-24T23:00:18.844000Z</time>
      </trkpt>
      <trkpt lat="39.89070917327989" lon="116.34058581298498">
        <ele>58.17823407240212</ele>
        <time>2026-08-24T23:00:21.844000Z</time>
      </trkpt>
      <trkpt lat="39.890723067447844" lon="116.34064468465557">
        <ele>59.227214785292745</ele>
        <time>2026-08-24T23:00:24.844000Z</time>
      </trkpt>
      <trkpt lat="39.89069434457919" lon="116.34105081680762">
        <ele>59.77151867933571</ele>
        <time>2026-08-24T23:00:37.044000Z</time>
      </trkpt>
      <trkpt lat="39.89069667053985" lon="116.3414300055146">
        <ele>59.2694892603904</ele>
        <time>2026-08-24T23:00:49.244000Z</time>
      </trkpt>
      <trkpt lat="39.890690954957435" lon="116.34183414477907">
        <ele>59.59448620863259</ele>
        <time>2026-08-24T23:01:01.144000Z</time>
      </trkpt>
      <trkpt lat="39.89072463252618" lon="116.34201575438723">
        <ele>59.75038525648415</ele>
        <time>2026-08-24T23:01:07.144000Z</time>
      </trkpt>
      <trkpt lat="39.89075052917646" lon="116.34207362818991">
        <ele>59.94855115003884</ele>
        <time>2026-08-24T23:01:10.144000Z</time>
      </trkpt>
      <trkpt lat="39.89086243419693" lon="116.34212450600667">
        <ele>60.31583020277321</ele>
        <time>2026-08-24T23:01:13.144000Z</time>
      </trkpt>
      <trkpt lat="39.89119539056655" lon="116.34214043002807">
        <ele>60.03310772962868</ele>
        <time>2026-08-24T23:01:28.144000Z</time>
      </trkpt>
      <trkpt lat="39.891493426010655" lon="116.34211245164708">
        <ele>60.590625734999776</ele>
        <time>2026-08-24T23:01:40.144000Z</time>
      </trkpt>
      <trkpt lat="39.891791413961506" lon="116.34211141609028">
        <ele>60.8944892603904</ele>
        <time>2026-08-24T23:01:52.144000Z</time>
      </trkpt>
      <trkpt lat="39.8920733604364" lon="116.34213433173063">
        <ele>59.96969220228493</ele>
        <time>2026-08-24T23:02:04.144000Z</time>
      </trkpt>
      <trkpt lat="39.89235738074712" lon="116.3421153360607">
        <ele>60.926197024062276</ele>
        <time>2026-08-24T23:02:16.144000Z</time>
      </trkpt>
      <trkpt lat="39.89264539209567" lon="116.34210132930086">
        <ele>60.68310925550759</ele>
        <time>2026-08-24T23:02:28.244000Z</time>
      </trkpt>
      <trkpt lat="39.89271640466349" lon="116.34209233938827">
        <ele>61.27233502455056</ele>
        <time>2026-08-24T23:02:31.244000Z</time>
      </trkpt>
      <trkpt lat="39.89284754654416" lon="116.34200850083025">
        <ele>61.30404278822243</ele>
        <time>2026-08-24T23:02:37.244000Z</time>
      </trkpt>
      <trkpt lat="39.89317757010923" lon="116.34198650575088">
        <ele>60.7676582057029</ele>
        <time>2026-08-24T23:02:52.244000Z</time>
      </trkpt>
      <trkpt lat="39.89345160332721" lon="116.34196052624367">
        <ele>61.060955019667745</ele>
        <time>2026-08-24T23:03:04.244000Z</time>
      </trkpt>
      <trkpt lat="39.89351860201154" lon="116.34195951989363">
        <ele>61.35424420423806</ele>
        <time>2026-08-24T23:03:07.244000Z</time>
      </trkpt>
      <trkpt lat="39.893478543937796" lon="116.34199345285349">
        <ele>59.89834973402321</ele>
        <time>2026-08-24T23:03:13.244000Z</time>
      </trkpt>
      <trkpt lat="39.8931905977042" lon="116.34197053803472">
        <ele>57.937786074355245</ele>
        <time>2026-08-24T23:03:25.344000Z</time>
      </trkpt>
      <trkpt lat="39.89312560421929" lon="116.34196855049387">
        <ele>57.51766583509743</ele>
        <time>2026-08-24T23:03:28.344000Z</time>
      </trkpt>
      <trkpt lat="39.893062652941836" lon="116.34194261360204">
        <ele>57.18209454603493</ele>
        <time>2026-08-24T23:03:31.344000Z</time>
      </trkpt>
      <trkpt lat="39.89292629346837" lon="116.3422276685814">
        <ele>58.36847302503884</ele>
        <time>2026-08-24T23:03:49.644000Z</time>
      </trkpt>
      <trkpt lat="39.89310551905511" lon="116.34258524595207">
        <ele>59.91949078626931</ele>
        <time>2026-08-24T23:04:01.844000Z</time>
      </trkpt>
      <trkpt lat="39.89320532360461" lon="116.3426112578116">
        <ele>60.63026043958962</ele>
        <time>2026-08-24T23:04:04.944000Z</time>
      </trkpt>
      <trkpt lat="39.89328385914964" lon="116.34264167195892">
        <ele>60.44266125746071</ele>
        <time>2026-08-24T23:04:07.944000Z</time>
      </trkpt>
      <trkpt lat="39.89341919818845" lon="116.34275983748813">
        <ele>61.65810772962868</ele>
        <time>2026-08-24T23:04:14.144000Z</time>
      </trkpt>
      <trkpt lat="39.893424093012406" lon="116.34281971056156">
        <ele>61.52334973402321</ele>
        <time>2026-08-24T23:04:17.144000Z</time>
      </trkpt>
      <trkpt lat="39.89324021166665" lon="116.34275686644015">
        <ele>61.85892102308571</ele>
        <time>2026-08-24T23:04:23.144000Z</time>
      </trkpt>
      <trkpt lat="39.89295722294166" lon="116.34275790012109">
        <ele>61.82721325941384</ele>
        <time>2026-08-24T23:04:35.244000Z</time>
      </trkpt>
      <trkpt lat="39.89290415715983" lon="116.3427968247229">
        <ele>61.73208996839821</ele>
        <time>2026-08-24T23:04:38.244000Z</time>
      </trkpt>
      <trkpt lat="39.89282892290325" lon="116.34293254814223">
        <ele>62.088794680312276</ele>
        <time>2026-08-24T23:04:44.244000Z</time>
      </trkpt>
      <trkpt lat="39.89282725340128" lon="116.3433157425297">
        <ele>62.12050244398415</ele>
        <time>2026-08-24T23:04:56.244000Z</time>
      </trkpt>
      <trkpt lat="39.89284562011501" lon="116.34367897908264">
        <ele>62.696521731093526</ele>
        <time>2026-08-24T23:05:08.244000Z</time>
      </trkpt>
      <trkpt lat="39.892817333740126" lon="116.34384463644967">
        <ele>62.26846692152321</ele>
        <time>2026-08-24T23:05:14.244000Z</time>
      </trkpt>
      <trkpt lat="39.89274929012974" lon="116.34387158879882">
        <ele>62.32131573744118</ele>
        <time>2026-08-24T23:05:17.244000Z</time>
      </trkpt>
      <trkpt lat="39.8924523419179" lon="116.34384967219887">
        <ele>61.470500918105245</ele>
        <time>2026-08-24T23:05:29.244000Z</time>
      </trkpt>
      <trkpt lat="39.892166327428775" lon="116.34386567503896">
        <ele>62.279041262343526</ele>
        <time>2026-08-24T23:05:41.244000Z</time>
      </trkpt>
      <trkpt lat="39.89186731529447" lon="116.34388068161132">
        <ele>61.615825625136495</ele>
        <time>2026-08-24T23:05:53.244000Z</time>
      </trkpt>
      <trkpt lat="39.891663286666656" lon="116.34390266159468">
        <ele>61.932903261855245</ele>
        <time>2026-08-24T23:06:02.244000Z</time>
      </trkpt>
      <trkpt lat="39.891603221969824" lon="116.34394158798365">
        <ele>61.261760683730245</ele>
        <time>2026-08-24T23:06:05.244000Z</time>
      </trkpt>
      <trkpt lat="39.89149265491005" lon="116.34369511681716">
        <ele>41.384436361586836</ele>
        <time>2026-08-24T23:06:50.444000Z</time>
      </trkpt>
      <trkpt lat="39.89120862127534" lon="116.34372209640203">
        <ele>42.54968141773918</ele>
        <time>2026-08-24T23:07:02.644000Z</time>
      </trkpt>
      <trkpt lat="39.89091668512538" lon="116.34369319383909">
        <ele>42.055571310317305</ele>
        <time>2026-08-24T23:07:15.144000Z</time>
      </trkpt>
      <trkpt lat="39.890770690182634" lon="116.34369421021712">
        <ele>42.800696127211836</ele>
        <time>2026-08-24T23:07:21.044000Z</time>
      </trkpt>
      <trkpt lat="39.890474771607714" lon="116.34365532904926">
        <ele>42.610449545180586</ele>
        <time>2026-08-24T23:07:33.144000Z</time>
      </trkpt>
      <trkpt lat="39.89026280404452" lon="116.34364238299946">
        <ele>41.9948031828759</ele>
        <time>2026-08-24T23:07:42.144000Z</time>
      </trkpt>
      <trkpt lat="39.88997743071971" lon="116.34365629817097">
        <ele>41.81512331227043</ele>
        <time>2026-08-24T23:07:54.144000Z</time>
      </trkpt>
      <trkpt lat="39.88969483057548" lon="116.34364245483134">
        <ele>42.03443788746574</ele>
        <time>2026-08-24T23:08:06.144000Z</time>
      </trkpt>
      <trkpt lat="39.8894108143765" lon="116.34365945525808">
        <ele>42.28809236744621</ele>
        <time>2026-08-24T23:08:18.144000Z</time>
      </trkpt>
      <trkpt lat="39.88911685244361" lon="116.34364552166292">
        <ele>42.06614565113762</ele>
        <time>2026-08-24T23:08:30.244000Z</time>
      </trkpt>
      <trkpt lat="39.88879686226016" lon="116.34364855586693">
        <ele>42.264311544692305</ele>
        <time>2026-08-24T23:08:42.244000Z</time>
      </trkpt>
      <trkpt lat="39.88851589455436" lon="116.34363761436612">
        <ele>42.14012788990715</ele>
        <time>2026-08-24T23:08:54.244000Z</time>
      </trkpt>
      <trkpt lat="39.88821291402393" lon="116.3436346589456">
        <ele>41.79398988941887</ele>
        <time>2026-08-24T23:09:09.244000Z</time>
      </trkpt>
      <trkpt lat="39.88803099028341" lon="116.34359576340198">
        <ele>42.09784578541496</ele>
        <time>2026-08-24T23:09:15.244000Z</time>
      </trkpt>
      <trkpt lat="39.887716999894124" lon="116.34359879684187">
        <ele>42.129553549086836</ele>
        <time>2026-08-24T23:09:27.244000Z</time>
      </trkpt>
      <trkpt lat="39.887410998735966" lon="116.34360781673924">
        <ele>42.00273012379387</ele>
        <time>2026-08-24T23:09:39.244000Z</time>
      </trkpt>
      <trkpt lat="39.88713901160982" lon="116.3436078511332">
        <ele>41.73057436207512</ele>
        <time>2026-08-24T23:09:51.244000Z</time>
      </trkpt>
      <trkpt lat="39.88685902314492" lon="116.34360888444996">
        <ele>41.95252107838371</ele>
        <time>2026-08-24T23:10:03.344000Z</time>
      </trkpt>
      <trkpt lat="39.88656403541095" lon="116.34360991966301">
        <ele>41.68829988697746</ele>
        <time>2026-08-24T23:10:15.444000Z</time>
      </trkpt>
      <trkpt lat="39.88623904391833" lon="116.34361395240413">
        <ele>41.7411410735009</ele>
        <time>2026-08-24T23:10:30.644000Z</time>
      </trkpt>
      <trkpt lat="39.885950149490135" lon="116.34361826803506">
        <ele>41.28138612965324</ele>
        <time>2026-08-24T23:10:42.844000Z</time>
      </trkpt>
      <trkpt lat="39.88566204537897" lon="116.3436289940399">
        <ele>41.973662130629805</ele>
        <time>2026-08-24T23:10:55.044000Z</time>
      </trkpt>
      <trkpt lat="39.8853430901121" lon="116.3436120698711">
        <ele>41.64601778248527</ele>
        <time>2026-08-24T23:11:07.144000Z</time>
      </trkpt>
      <trkpt lat="39.88506006546975" lon="116.34363405971669">
        <ele>41.55354189137199</ele>
        <time>2026-08-24T23:11:19.144000Z</time>
      </trkpt>
      <trkpt lat="39.88477608427641" lon="116.34363110188796">
        <ele>41.8679721281884</ele>
        <time>2026-08-24T23:11:31.144000Z</time>
      </trkpt>
      <trkpt lat="39.884501095730165" lon="116.34363213456962">
        <ele>41.720007650649336</ele>
        <time>2026-08-24T23:11:43.144000Z</time>
      </trkpt>
      <trkpt lat="39.88436108163117" lon="116.34364412721817">
        <ele>41.101713888442305</ele>
        <time>2026-08-24T23:11:49.144000Z</time>
      </trkpt>
      <trkpt lat="39.88402312563944" lon="116.34362820335562">
        <ele>42.30658601978996</ele>
        <time>2026-08-24T23:12:04.144000Z</time>
      </trkpt>
      <trkpt lat="39.88374216346251" lon="116.34361426811455">
        <ele>41.783415548598555</ele>
        <time>2026-08-24T23:12:16.144000Z</time>
      </trkpt>
      <trkpt lat="39.883462161344006" lon="116.34362328472203">
        <ele>41.96044801930168</ele>
        <time>2026-08-24T23:12:28.144000Z</time>
      </trkpt>
      <trkpt lat="39.88318019578445" lon="116.34361134543121">
        <ele>41.80455660084465</ele>
        <time>2026-08-24T23:12:40.144000Z</time>
      </trkpt>
      <trkpt lat="39.88289220450388" lon="116.34361437557715">
        <ele>41.56410860279777</ele>
        <time>2026-08-24T23:12:52.144000Z</time>
      </trkpt>
      <trkpt lat="39.88254820901693" lon="116.34362140445049">
        <ele>41.64601778248527</ele>
        <time>2026-08-24T23:13:07.144000Z</time>
      </trkpt>
      <trkpt lat="39.882273211945474" lon="116.3436274266891">
        <ele>40.956389181411055</ele>
        <time>2026-08-24T23:13:19.144000Z</time>
      </trkpt>
      <trkpt lat="39.881992197834975" lon="116.34364342881062">
        <ele>41.42671083668449</ele>
        <time>2026-08-24T23:13:31.144000Z</time>
      </trkpt>
      <trkpt lat="39.881719838030996" lon="116.34364140849662">
        <ele>41.5324008391259</ele>
        <time>2026-08-24T23:13:43.144000Z</time>
      </trkpt>
      <trkpt lat="39.8814232480935" lon="116.34363052788176">
        <ele>40.94581484059074</ele>
        <time>2026-08-24T23:13:55.144000Z</time>
      </trkpt>
      <trkpt lat="39.88114121847968" lon="116.34365551134391">
        <ele>41.59581636646965</ele>
        <time>2026-08-24T23:14:07.144000Z</time>
      </trkpt>
      <trkpt lat="39.88085818721129" lon="116.34368149285854">
        <ele>41.175696127211836</ele>
        <time>2026-08-24T23:14:19.244000Z</time>
      </trkpt>
      <trkpt lat="39.88058516588859" lon="116.34370148564008">
        <ele>41.18626283863762</ele>
        <time>2026-08-24T23:14:31.244000Z</time>
      </trkpt>
      <trkpt lat="39.88029218198264" lon="116.34370052476545">
        <ele>40.892973654067305</ele>
        <time>2026-08-24T23:14:43.244000Z</time>
      </trkpt>
      <trkpt lat="39.88000212860499" lon="116.34373948007567">
        <ele>41.04093813160637</ele>
        <time>2026-08-24T23:14:55.244000Z</time>
      </trkpt>
      <trkpt lat="39.87972310419144" lon="116.34376146946906">
        <ele>41.82569765309074</ele>
        <time>2026-08-24T23:15:07.344000Z</time>
      </trkpt>
      <trkpt lat="39.87944508842014" lon="116.34377846916897">
        <ele>41.76228212574699</ele>
        <time>2026-08-24T23:15:19.344000Z</time>
      </trkpt>
      <trkpt lat="39.87916506584323" lon="116.34379946079042">
        <ele>41.47955965260246</ele>
        <time>2026-08-24T23:15:31.444000Z</time>
      </trkpt>
      <trkpt lat="39.878876047202986" lon="116.34381845772614">
        <ele>40.85069917896965</ele>
        <time>2026-08-24T23:15:43.644000Z</time>
      </trkpt>
      <trkpt lat="39.878583049569905" lon="116.34382548017734">
        <ele>41.49012636402824</ele>
        <time>2026-08-24T23:15:55.844000Z</time>
      </trkpt>
      <trkpt lat="39.87829602568865" lon="116.34384747062033">
        <ele>41.56410860279777</ele>
        <time>2026-08-24T23:16:08.044000Z</time>
      </trkpt>
      <trkpt lat="39.877981968559155" lon="116.34388942283537">
        <ele>41.15455507496574</ele>
        <time>2026-08-24T23:16:20.144000Z</time>
      </trkpt>
      <trkpt lat="39.8776559241936" lon="116.3439243911746">
        <ele>41.63545107105949</ele>
        <time>2026-08-24T23:16:35.144000Z</time>
      </trkpt>
      <trkpt lat="39.87735790788749" lon="116.34394239137767">
        <ele>42.09784578541496</ele>
        <time>2026-08-24T23:16:47.244000Z</time>
      </trkpt>
      <trkpt lat="39.877208913583644" lon="116.34394340813056">
        <ele>41.70943330982902</ele>
        <time>2026-08-24T23:16:53.244000Z</time>
      </trkpt>
      <trkpt lat="39.87714196017629" lon="116.34391846863583">
        <ele>41.54297517994621</ele>
        <time>2026-08-24T23:16:56.244000Z</time>
      </trkpt>
      <trkpt lat="39.876869927041604" lon="116.34394544681852">
        <ele>41.47955965260246</ele>
        <time>2026-08-24T23:17:08.344000Z</time>
      </trkpt>
      <trkpt lat="39.87659790604517" lon="116.34396543958086">
        <ele>41.92082094410637</ele>
        <time>2026-08-24T23:17:20.344000Z</time>
      </trkpt>
      <trkpt lat="39.87630289314452" lon="116.34398144357995">
        <ele>41.45841860035637</ele>
        <time>2026-08-24T23:17:35.544000Z</time>
      </trkpt>
      <trkpt lat="39.87619784308141" lon="116.34401339029034">
        <ele>40.19013094166496</ele>
        <time>2026-08-24T23:17:41.644000Z</time>
      </trkpt>
      <trkpt lat="39.875974053726715" lon="116.34401172475116">
        <ele>41.447851888930586</ele>
        <time>2026-08-24T23:17:50.744000Z</time>
      </trkpt>
      <trkpt lat="39.87567883456693" lon="116.34403341430111">
        <ele>41.447851888930586</ele>
        <time>2026-08-24T23:18:02.944000Z</time>
      </trkpt>
      <trkpt lat="39.875384813068486" lon="116.34405440780148">
        <ele>41.29195284107902</ele>
        <time>2026-08-24T23:18:15.144000Z</time>
      </trkpt>
      <trkpt lat="39.875310764964915" lon="116.34408435479904">
        <ele>41.73057436207512</ele>
        <time>2026-08-24T23:18:18.144000Z</time>
      </trkpt>
      <trkpt lat="39.87501873132466" lon="116.34411233352512">
        <ele>41.63545107105949</ele>
        <time>2026-08-24T23:18:30.144000Z</time>
      </trkpt>
      <trkpt lat="39.87467469862314" lon="116.34414131676309">
        <ele>41.310454122817305</ele>
        <time>2026-08-24T23:18:45.144000Z</time>
      </trkpt>
      <trkpt lat="39.874393674860826" lon="116.34416330659099">
        <ele>40.99866365650871</ele>
        <time>2026-08-24T23:18:57.144000Z</time>
      </trkpt>
      <trkpt lat="39.874122657524616" lon="116.34418130346947">
        <ele>40.87183260182121</ele>
        <time>2026-08-24T23:19:09.244000Z</time>
      </trkpt>
      <trkpt lat="39.87381965391799" lon="116.34419231893003">
        <ele>41.019804708754805</ele>
        <time>2026-08-24T23:19:21.344000Z</time>
      </trkpt>
      <trkpt lat="39.87352262588041" lon="116.34421730457707">
        <ele>41.43727754811027</ele>
        <time>2026-08-24T23:19:33.444000Z</time>
      </trkpt>
      <trkpt lat="39.873246614056235" lon="116.34423230833254">
        <ele>41.76228212574699</ele>
        <time>2026-08-24T23:19:45.544000Z</time>
      </trkpt>
      <trkpt lat="39.87295956488153" lon="116.34426926784367">
        <ele>41.67772554615715</ele>
        <time>2026-08-24T23:19:57.744000Z</time>
      </trkpt>
      <trkpt lat="39.87267553800857" lon="116.34429325396171">
        <ele>41.40557741383293</ele>
        <time>2026-08-24T23:20:09.744000Z</time>
      </trkpt>
      <trkpt lat="39.872383485729074" lon="116.34433221000654">
        <ele>41.85740541676262</ele>
        <time>2026-08-24T23:20:21.944000Z</time>
      </trkpt>
      <trkpt lat="39.872113451320324" lon="116.34436018609749">
        <ele>41.447851888930586</ele>
        <time>2026-08-24T23:20:34.044000Z</time>
      </trkpt>
      <trkpt lat="39.87190140191382" lon="116.34439514037291">
        <ele>41.66979860523918</ele>
        <time>2026-08-24T23:20:43.144000Z</time>
      </trkpt>
      <trkpt lat="39.87178335287653" lon="116.34442708900657">
        <ele>41.09113954762199</ele>
        <time>2026-08-24T23:20:49.144000Z</time>
      </trkpt>
      <trkpt lat="39.87147936333966" lon="116.34443012121564">
        <ele>41.048865072524336</ele>
        <time>2026-08-24T23:21:01.244000Z</time>
      </trkpt>
      <trkpt lat="39.87117632214479" lon="116.34446309118454">
        <ele>41.61695741871574</ele>
        <time>2026-08-24T23:21:13.244000Z</time>
      </trkpt>
      <trkpt lat="39.87089327136189" lon="116.344501048302">
        <ele>40.86126589039543</ele>
        <time>2026-08-24T23:21:25.244000Z</time>
      </trkpt>
      <trkpt lat="39.87062020807434" lon="116.34454598970747">
        <ele>40.430571310317305</ele>
        <time>2026-08-24T23:21:37.244000Z</time>
      </trkpt>
      <trkpt lat="39.8702941510258" lon="116.34458894198951">
        <ele>38.28504823902824</ele>
        <time>2026-08-24T23:21:52.344000Z</time>
      </trkpt>
      <trkpt lat="39.870011100399445" lon="116.34462689920946">
        <ele>42.517973654067305</ele>
        <time>2026-08-24T23:22:04.344000Z</time>
      </trkpt>
      <trkpt lat="39.86972710827202" lon="116.34463092683613">
        <ele>41.75171541432121</ele>
        <time>2026-08-24T23:22:16.344000Z</time>
      </trkpt>
      <trkpt lat="39.869380024994214" lon="116.34468984880378">
        <ele>41.69886659840324</ele>
        <time>2026-08-24T23:22:31.544000Z</time>
      </trkpt>
      <trkpt lat="39.86911098579513" lon="116.34472081878835">
        <ele>42.2035434172509</ele>
        <time>2026-08-24T23:22:43.744000Z</time>
      </trkpt>
      <trkpt lat="39.86883793140221" lon="116.34476077072489">
        <ele>41.384436361586836</ele>
        <time>2026-08-24T23:22:56.044000Z</time>
      </trkpt>
      <trkpt lat="39.86853985950468" lon="116.34481170316553">
        <ele>41.88911318043449</ele>
        <time>2026-08-24T23:23:08.144000Z</time>
      </trkpt>
      <trkpt lat="39.868268841115245" lon="116.34483069822932">
        <ele>41.79398988941887</ele>
        <time>2026-08-24T23:23:20.144000Z</time>
      </trkpt>
      <trkpt lat="39.86813378648534" lon="116.34486664106593">
        <ele>42.79012178639152</ele>
        <time>2026-08-24T23:23:26.144000Z</time>
      </trkpt>
      <trkpt lat="39.86801664530835" lon="116.34495247865124">
        <ele>42.16126131275871</ele>
        <time>2026-08-24T23:23:32.144000Z</time>
      </trkpt>
      <trkpt lat="39.86785616305021" lon="116.34523890867739">
        <ele>42.129553549086836</ele>
        <time>2026-08-24T23:23:44.244000Z</time>
      </trkpt>
      <trkpt lat="39.867812722096545" lon="116.34549838099811">
        <ele>42.528540365493086</ele>
        <time>2026-08-24T23:23:53.244000Z</time>
      </trkpt>
      <trkpt lat="39.86785111519455" lon="116.34585364854445">
        <ele>41.12284731129387</ele>
        <time>2026-08-24T23:24:05.344000Z</time>
      </trkpt>
      <trkpt lat="39.86785596916658" lon="116.34593947258809">
        <ele>41.783415548598555</ele>
        <time>2026-08-24T23:24:08.344000Z</time>
      </trkpt>
      <trkpt lat="39.86787008028567" lon="116.34587360535468">
        <ele>42.42285036305168</ele>
        <time>2026-08-24T23:24:14.344000Z</time>
      </trkpt>
      <trkpt lat="39.86785976559682" lon="116.34547143034982">
        <ele>41.69886659840324</ele>
        <time>2026-08-24T23:24:26.344000Z</time>
      </trkpt>
      <trkpt lat="39.867860896713005" lon="116.34539458799794">
        <ele>41.93138765553215</ele>
        <time>2026-08-24T23:24:29.344000Z</time>
      </trkpt>
      <trkpt lat="39.867926275494206" lon="116.34517103950503">
        <ele>41.70943330982902</ele>
        <time>2026-08-24T23:24:38.544000Z</time>
      </trkpt>
      <trkpt lat="39.868111650599005" lon="116.3449464790025">
        <ele>42.01329683521965</ele>
        <time>2026-08-24T23:24:50.744000Z</time>
      </trkpt>
      <trkpt lat="39.868167714455744" lon="116.34490755226918">
        <ele>41.95252107838371</ele>
        <time>2026-08-24T23:24:53.744000Z</time>
      </trkpt>
      <trkpt lat="39.86842178510837" lon="116.34485862115993">
        <ele>41.79398988941887</ele>
        <time>2026-08-24T23:25:06.044000Z</time>
      </trkpt>
      <trkpt lat="39.86869261477142" lon="116.34482324821555">
        <ele>41.447851888930586</ele>
        <time>2026-08-24T23:25:18.144000Z</time>
      </trkpt>
      <trkpt lat="39.8690178911296" lon="116.3447787108326">
        <ele>40.92468141773918</ele>
        <time>2026-08-24T23:25:33.144000Z</time>
      </trkpt>
      <trkpt lat="39.86930076618139" lon="116.34473778071738">
        <ele>40.98809694508293</ele>
        <time>2026-08-24T23:25:45.144000Z</time>
      </trkpt>
      <trkpt lat="39.86961951640322" lon="116.34468860185281">
        <ele>41.373869650161055</ele>
        <time>2026-08-24T23:26:00.144000Z</time>
      </trkpt>
      <trkpt lat="39.86988698884193" lon="116.34466540862934">
        <ele>41.58524965504387</ele>
        <time>2026-08-24T23:26:12.144000Z</time>
      </trkpt>
      <trkpt lat="39.87022108264042" lon="116.3446308644023">
        <ele>41.64601778248527</ele>
        <time>2026-08-24T23:26:27.144000Z</time>
      </trkpt>
      <trkpt lat="39.87048892059311" lon="116.34458981633937">
        <ele>41.67772554615715</ele>
        <time>2026-08-24T23:26:39.144000Z</time>
      </trkpt>
      <trkpt lat="39.870820201403106" lon="116.34455209460724">
        <ele>41.50069307545402</ele>
        <time>2026-08-24T23:26:54.144000Z</time>
      </trkpt>
      <trkpt lat="39.871155238926825" lon="116.34451199242754">
        <ele>41.175696127211836</ele>
        <time>2026-08-24T23:27:09.144000Z</time>
      </trkpt>
      <trkpt lat="39.8714692640412" lon="116.34448800240634">
        <ele>40.766142599379805</ele>
        <time>2026-08-24T23:27:24.144000Z</time>
      </trkpt>
      <trkpt lat="39.87180034856049" lon="116.34442908271619">
        <ele>40.840124838149336</ele>
        <time>2026-08-24T23:27:39.144000Z</time>
      </trkpt>
      <trkpt lat="39.8720830716193" lon="116.34439328854303">
        <ele>41.21797060230949</ele>
        <time>2026-08-24T23:27:51.144000Z</time>
      </trkpt>
      <trkpt lat="39.87235942665886" lon="116.34436714050007">
        <ele>40.99866365650871</ele>
        <time>2026-08-24T23:28:03.144000Z</time>
      </trkpt>
      <trkpt lat="39.87264046224377" lon="116.34433816508728">
        <ele>41.40557741383293</ele>
        <time>2026-08-24T23:28:15.144000Z</time>
      </trkpt>
      <trkpt lat="39.87291850146592" lon="116.34430719421836">
        <ele>41.12284731129387</ele>
        <time>2026-08-24T23:28:27.144000Z</time>
      </trkpt>
      <trkpt lat="39.873200021451986" lon="116.34426126563116">
        <ele>41.21797060230949</ele>
        <time>2026-08-24T23:28:39.144000Z</time>
      </trkpt>
      <trkpt lat="39.87347362992559" lon="116.34423820900787">
        <ele>41.048865072524336</ele>
        <time>2026-08-24T23:28:51.144000Z</time>
      </trkpt>
      <trkpt lat="39.87374925304333" lon="116.3442298507262">
        <ele>40.966955892836836</ele>
        <time>2026-08-24T23:29:03.144000Z</time>
      </trkpt>
      <trkpt lat="39.87408094784021" lon="116.34420081022401">
        <ele>41.239111654555586</ele>
        <time>2026-08-24T23:29:18.144000Z</time>
      </trkpt>
      <trkpt lat="39.87435192979196" lon="116.34418076598422">
        <ele>41.28138612965324</ele>
        <time>2026-08-24T23:29:30.144000Z</time>
      </trkpt>
      <trkpt lat="39.87467667262735" lon="116.34415628535756">
        <ele>40.54683565357902</ele>
        <time>2026-08-24T23:29:45.144000Z</time>
      </trkpt>
      <trkpt lat="39.87500871628743" lon="116.34412131609133">
        <ele>41.67772554615715</ele>
        <time>2026-08-24T23:30:00.244000Z</time>
      </trkpt>
      <trkpt lat="39.87528674316464" lon="116.34410617710256">
        <ele>41.07000612477043</ele>
        <time>2026-08-24T23:30:12.244000Z</time>
      </trkpt>
      <trkpt lat="39.87559874528641" lon="116.34408731216196">
        <ele>41.19683717945793</ele>
        <time>2026-08-24T23:30:27.344000Z</time>
      </trkpt>
      <trkpt lat="39.875920824137154" lon="116.34403238579212">
        <ele>41.36329530934074</ele>
        <time>2026-08-24T23:30:42.444000Z</time>
      </trkpt>
      <trkpt lat="39.876205806382586" lon="116.34403434560969">
        <ele>40.33809541920402</ele>
        <time>2026-08-24T23:30:57.744000Z</time>
      </trkpt>
      <trkpt lat="39.87633292104034" lon="116.34396447515745">
        <ele>39.331389181411055</ele>
        <time>2026-08-24T23:31:03.844000Z</time>
      </trkpt>
      <trkpt lat="39.87650569978094" lon="116.34408719751622">
        <ele>39.98139070728996</ele>
        <time>2026-08-24T23:31:10.044000Z</time>
      </trkpt>
      <trkpt lat="39.87655077873461" lon="116.3440402895259">
        <ele>40.88240694264152</ele>
        <time>2026-08-24T23:31:13.044000Z</time>
      </trkpt>
      <trkpt lat="39.876690773460396" lon="116.3440392739087">
        <ele>40.72650789478996</ele>
        <time>2026-08-24T23:31:19.144000Z</time>
      </trkpt>
      <trkpt lat="39.87698885537897" lon="116.34398335270808">
        <ele>41.26024507740715</ele>
        <time>2026-08-24T23:31:34.144000Z</time>
      </trkpt>
      <trkpt lat="39.877210923863316" lon="116.3439374203653">
        <ele>41.08057283619621</ele>
        <time>2026-08-24T23:31:43.144000Z</time>
      </trkpt>
      <trkpt lat="39.87726786913106" lon="116.34396735073001">
        <ele>40.80841707447746</ele>
        <time>2026-08-24T23:31:46.144000Z</time>
      </trkpt>
      <trkpt lat="39.877589891147146" lon="116.34394535580827">
        <ele>40.92468141773918</ele>
        <time>2026-08-24T23:32:01.144000Z</time>
      </trkpt>
      <trkpt lat="39.877859891561506" lon="116.34393733832873">
        <ele>41.40557741383293</ele>
        <time>2026-08-24T23:32:13.144000Z</time>
      </trkpt>
      <trkpt lat="39.87819391996594" lon="116.34391135023077">
        <ele>40.80841707447746</ele>
        <time>2026-08-24T23:32:28.144000Z</time>
      </trkpt>
      <trkpt lat="39.8784819489583" lon="116.34388636587903">
        <ele>41.030371420180586</ele>
        <time>2026-08-24T23:32:40.144000Z</time>
      </trkpt>
      <trkpt lat="39.878818987679914" lon="116.34385438992717">
        <ele>41.08057283619621</ele>
        <time>2026-08-24T23:32:55.144000Z</time>
      </trkpt>
      <trkpt lat="39.87914101679783" lon="116.34382840339048">
        <ele>40.430571310317305</ele>
        <time>2026-08-24T23:33:10.144000Z</time>
      </trkpt>
      <trkpt lat="39.87926499855854" lon="116.34383537313067">
        <ele>41.447851888930586</ele>
        <time>2026-08-24T23:33:16.144000Z</time>
      </trkpt>
      <trkpt lat="39.8793330419676" lon="116.34380842079636">
        <ele>41.12284731129387</ele>
        <time>2026-08-24T23:33:19.144000Z</time>
      </trkpt>
      <trkpt lat="39.879603039060115" lon="116.34380239917">
        <ele>41.50069307545402</ele>
        <time>2026-08-24T23:33:31.144000Z</time>
      </trkpt>
      <trkpt lat="39.87987143212231" lon="116.34373898791166">
        <ele>40.956389181411055</ele>
        <time>2026-08-24T23:33:43.144000Z</time>
      </trkpt>
      <trkpt lat="39.880156611256524" lon="116.34373683263392">
        <ele>40.684233419692305</ele>
        <time>2026-08-24T23:33:55.144000Z</time>
      </trkpt>
      <trkpt lat="39.88043610210998" lon="116.34374241895593">
        <ele>41.030371420180586</ele>
        <time>2026-08-24T23:34:07.144000Z</time>
      </trkpt>
      <trkpt lat="39.88071110597519" lon="116.3437324050471">
        <ele>40.97752260426262</ele>
        <time>2026-08-24T23:34:19.144000Z</time>
      </trkpt>
      <trkpt lat="39.88103010077714" lon="116.34372637723447">
        <ele>41.165129415786055</ele>
        <time>2026-08-24T23:34:34.144000Z</time>
      </trkpt>
      <trkpt lat="39.88135710215018" lon="116.34371635675457">
        <ele>41.24967836598137</ele>
        <time>2026-08-24T23:34:49.144000Z</time>
      </trkpt>
      <trkpt lat="39.88163488937593" lon="116.34370438281081">
        <ele>41.18626283863762</ele>
        <time>2026-08-24T23:35:01.244000Z</time>
      </trkpt>
      <trkpt lat="39.88191212020104" lon="116.34369034083434">
        <ele>41.54297517994621</ele>
        <time>2026-08-24T23:35:13.244000Z</time>
      </trkpt>
      <trkpt lat="39.88219390528918" lon="116.34366652873845">
        <ele>41.20740389088371</ele>
        <time>2026-08-24T23:35:25.244000Z</time>
      </trkpt>
      <trkpt lat="39.88252510604309" lon="116.34368128211699">
        <ele>40.11878847340324</ele>
        <time>2026-08-24T23:35:40.344000Z</time>
      </trkpt>
      <trkpt lat="39.882848083459656" lon="116.34368523293479">
        <ele>41.3236606047509</ele>
        <time>2026-08-24T23:35:55.444000Z</time>
      </trkpt>
      <trkpt lat="39.88311907555508" lon="116.34368220493323">
        <ele>40.766142599379805</ele>
        <time>2026-08-24T23:36:07.544000Z</time>
      </trkpt>
      <trkpt lat="39.883451532782104" lon="116.34366667752157">
        <ele>41.511267416274336</ele>
        <time>2026-08-24T23:36:22.944000Z</time>
      </trkpt>
      <trkpt lat="39.883778118347514" lon="116.3436392113658">
        <ele>40.93524812916496</ele>
        <time>2026-08-24T23:36:38.144000Z</time>
      </trkpt>
      <trkpt lat="39.884085061935316" lon="116.34366312245388">
        <ele>40.9141147063134</ele>
        <time>2026-08-24T23:36:50.144000Z</time>
      </trkpt>
      <trkpt lat="39.884373438361784" lon="116.34364435006292">
        <ele>40.85069917896965</ele>
        <time>2026-08-24T23:37:02.144000Z</time>
      </trkpt>
      <trkpt lat="39.88468486924516" lon="116.34364470665909">
        <ele>40.829558126723555</ele>
        <time>2026-08-24T23:37:17.144000Z</time>
      </trkpt>
      <trkpt lat="39.88495977093613" lon="116.34365873637182">
        <ele>41.33158754566887</ele>
        <time>2026-08-24T23:37:29.144000Z</time>
      </trkpt>
      <trkpt lat="39.88523157685304" lon="116.34367098932847">
        <ele>41.048865072524336</ele>
        <time>2026-08-24T23:37:41.144000Z</time>
      </trkpt>
      <trkpt lat="39.88556392016534" lon="116.34364582199613">
        <ele>41.20740389088371</ele>
        <time>2026-08-24T23:37:56.144000Z</time>
      </trkpt>
      <trkpt lat="39.8858989907034" lon="116.34365391188211">
        <ele>41.12284731129387</ele>
        <time>2026-08-24T23:38:11.144000Z</time>
      </trkpt>
      <trkpt lat="39.886168673798075" lon="116.34365601368543">
        <ele>41.13342165211418</ele>
        <time>2026-08-24T23:38:23.144000Z</time>
      </trkpt>
      <trkpt lat="39.886508003878156" lon="116.34364296952448">
        <ele>40.75557588795402</ele>
        <time>2026-08-24T23:38:38.144000Z</time>
      </trkpt>
      <trkpt lat="39.88679697055773" lon="116.34364082547305">
        <ele>40.33809541920402</ele>
        <time>2026-08-24T23:38:50.144000Z</time>
      </trkpt>
      <trkpt lat="39.88714293854247" lon="116.34364976293361">
        <ele>41.720007650649336</ele>
        <time>2026-08-24T23:39:05.144000Z</time>
      </trkpt>
      <trkpt lat="39.88746993868203" lon="116.3436407403731">
        <ele>41.14398836353996</ele>
        <time>2026-08-24T23:39:20.144000Z</time>
      </trkpt>
      <trkpt lat="39.88775092887423" lon="116.34363870901575">
        <ele>41.96044801930168</ele>
        <time>2026-08-24T23:39:32.144000Z</time>
      </trkpt>
      <trkpt lat="39.88802589854837" lon="116.34364865336454">
        <ele>40.99866365650871</ele>
        <time>2026-08-24T23:39:44.144000Z</time>
      </trkpt>
      <trkpt lat="39.88832864011242" lon="116.34365489244286">
        <ele>40.694800131118086</ele>
        <time>2026-08-24T23:39:59.244000Z</time>
      </trkpt>
      <trkpt lat="39.88839990348291" lon="116.34363563321065">
        <ele>41.35272859791496</ele>
        <time>2026-08-24T23:40:02.244000Z</time>
      </trkpt>
      <trkpt lat="39.8887208189963" lon="116.34367550912025">
        <ele>40.71594118336418</ele>
        <time>2026-08-24T23:40:14.244000Z</time>
      </trkpt>
      <trkpt lat="39.889048805328585" lon="116.3436744697286">
        <ele>41.239111654555586</ele>
        <time>2026-08-24T23:40:29.444000Z</time>
      </trkpt>
      <trkpt lat="39.889385773920395" lon="116.34368340832822">
        <ele>41.6592318938134</ele>
        <time>2026-08-24T23:40:44.544000Z</time>
      </trkpt>
      <trkpt lat="39.88966273667546" lon="116.3436973440832">
        <ele>41.47955965260246</ele>
        <time>2026-08-24T23:40:56.744000Z</time>
      </trkpt>
      <trkpt lat="39.88999071614154" lon="116.34370029634273">
        <ele>41.35272859791496</ele>
        <time>2026-08-24T23:41:12.044000Z</time>
      </trkpt>
      <trkpt lat="39.89020770080963" lon="116.34370326263975">
        <ele>41.46898531178215</ele>
        <time>2026-08-24T23:41:21.144000Z</time>
      </trkpt>
      <trkpt lat="39.89048800119411" lon="116.34368630008775">
        <ele>41.33158754566887</ele>
        <time>2026-08-24T23:41:33.144000Z</time>
      </trkpt>
      <trkpt lat="39.89055572730257" lon="116.34367704999889">
        <ele>41.45841860035637</ele>
        <time>2026-08-24T23:41:36.144000Z</time>
      </trkpt>
      <trkpt lat="39.89075061829711" lon="116.34373612512252">
        <ele>42.10842012623527</ele>
        <time>2026-08-24T23:41:45.144000Z</time>
      </trkpt>
      <trkpt lat="39.89103430558161" lon="116.34373187868127">
        <ele>41.7411410735009</ele>
        <time>2026-08-24T23:41:57.144000Z</time>
      </trkpt>
      <trkpt lat="39.8913065645852" lon="116.3437225691691">
        <ele>42.935454122817305</ele>
        <time>2026-08-24T23:42:09.144000Z</time>
      </trkpt>
      <trkpt lat="39.89138059942349" lon="116.3437300579598">
        <ele>43.53260683277824</ele>
        <time>2026-08-24T23:42:12.144000Z</time>
      </trkpt>
      <trkpt lat="39.89138059942349" lon="116.3437300579598">
        <ele>34.32653398717878</ele>
        <time>2026-08-24T23:42:18.044000Z</time>
      </trkpt>
      <trkpt lat="39.89158721925175" lon="116.34394358584414">
        <ele>45.051926893054144</ele>
        <time>2026-08-24T23:43:18.244000Z</time>
      </trkpt>
      <trkpt lat="39.89191314016106" lon="116.34398046760474">
        <ele>45.260667127429144</ele>
        <time>2026-08-24T23:43:33.344000Z</time>
      </trkpt>
      <trkpt lat="39.89206013508939" lon="116.34397945109211">
        <ele>45.815545362292426</ele>
        <time>2026-08-24T23:43:39.444000Z</time>
      </trkpt>
      <trkpt lat="39.89232721961114" lon="116.34392353388188">
        <ele>45.50111512547602</ele>
        <time>2026-08-24T23:43:51.644000Z</time>
      </trkpt>
      <trkpt lat="39.89261023250236" lon="116.34390852931904">
        <ele>45.85781983739008</ele>
        <time>2026-08-24T23:44:03.944000Z</time>
      </trkpt>
      <trkpt lat="39.892843296184026" lon="116.34386558940815">
        <ele>45.596238416491644</ele>
        <time>2026-08-24T23:44:13.144000Z</time>
      </trkpt>
      <trkpt lat="39.892882654834935" lon="116.34365801823617">
        <ele>46.1828244150268</ele>
        <time>2026-08-24T23:44:19.144000Z</time>
      </trkpt>
      <trkpt lat="39.892883837023824" lon="116.34355323741119">
        <ele>46.02692536717524</ele>
        <time>2026-08-24T23:44:22.144000Z</time>
      </trkpt>
      <trkpt lat="39.89287150565479" lon="116.34317004296841">
        <ele>45.50111512547602</ele>
        <time>2026-08-24T23:44:34.144000Z</time>
      </trkpt>
      <trkpt lat="39.89288294487159" lon="116.34291857074457">
        <ele>45.40863160496821</ele>
        <time>2026-08-24T23:44:43.144000Z</time>
      </trkpt>
      <trkpt lat="39.89291507272032" lon="116.34284472232635">
        <ele>44.79034547215571</ele>
        <time>2026-08-24T23:44:46.144000Z</time>
      </trkpt>
      <trkpt lat="39.892964163141464" lon="116.34279182765967">
        <ele>44.56839112645258</ele>
        <time>2026-08-24T23:44:49.144000Z</time>
      </trkpt>
      <trkpt lat="39.893270358071725" lon="116.3427414626362">
        <ele>44.88282136326899</ele>
        <time>2026-08-24T23:45:04.144000Z</time>
      </trkpt>
      <trkpt lat="39.89334647292519" lon="116.34277819259417">
        <ele>44.96737794285883</ele>
        <time>2026-08-24T23:45:07.144000Z</time>
      </trkpt>
      <trkpt lat="39.89340492633345" lon="116.3427820547584">
        <ele>44.861687940417426</ele>
        <time>2026-08-24T23:45:10.144000Z</time>
      </trkpt>
      <trkpt lat="39.893306215630254" lon="116.34275286651649">
        <ele>43.017380994616644</ele>
        <time>2026-08-24T23:45:19.144000Z</time>
      </trkpt>
      <trkpt lat="39.89305321152312" lon="116.34276187955963">
        <ele>41.57998017674555</ele>
        <time>2026-08-24T23:45:31.144000Z</time>
      </trkpt>
      <trkpt lat="39.89331454266622" lon="116.34199846298749">
        <ele>41.21534852391352</ele>
        <time>2026-08-24T23:46:07.644000Z</time>
      </trkpt>
      <trkpt lat="39.89355552806846" lon="116.34200042827734">
        <ele>43.08078889256586</ele>
        <time>2026-08-24T23:46:19.844000Z</time>
      </trkpt>
      <trkpt lat="39.893421463768135" lon="116.3420403604319">
        <ele>42.71351746922602</ele>
        <time>2026-08-24T23:46:26.044000Z</time>
      </trkpt>
      <trkpt lat="39.89309646462631" lon="116.34204838456847">
        <ele>42.473069471179144</ele>
        <time>2026-08-24T23:46:38.144000Z</time>
      </trkpt>
      <trkpt lat="39.892773551716076" lon="116.34200751230584">
        <ele>42.63953523045649</ele>
        <time>2026-08-24T23:46:50.144000Z</time>
      </trkpt>
      <trkpt lat="39.892715614293635" lon="116.34197359172627">
        <ele>42.57611970311274</ele>
        <time>2026-08-24T23:46:53.144000Z</time>
      </trkpt>
      <trkpt lat="39.892689747697034" lon="116.34189875410665">
        <ele>42.27225617772211</ele>
        <time>2026-08-24T23:46:56.144000Z</time>
      </trkpt>
      <trkpt lat="39.892708896758684" lon="116.3418139321373">
        <ele>41.86270264989008</ele>
        <time>2026-08-24T23:46:59.144000Z</time>
      </trkpt>
      <trkpt lat="39.89266511418807" lon="116.34169219690824">
        <ele>42.45192841893305</ele>
        <time>2026-08-24T23:47:05.144000Z</time>
      </trkpt>
      <trkpt lat="39.892367135006616" lon="116.34168824308362">
        <ele>43.00680665379633</ele>
        <time>2026-08-24T23:47:17.244000Z</time>
      </trkpt>
      <trkpt lat="39.89208501558814" lon="116.34176311934635">
        <ele>43.363518995104926</ele>
        <time>2026-08-24T23:47:29.244000Z</time>
      </trkpt>
      <trkpt lat="39.89177602812205" lon="116.34176415628434">
        <ele>42.890549939929144</ele>
        <time>2026-08-24T23:47:41.244000Z</time>
      </trkpt>
      <trkpt lat="39.891503975416995" lon="116.34180111207816">
        <ele>42.3885128915893</ele>
        <time>2026-08-24T23:47:53.244000Z</time>
      </trkpt>
      <trkpt lat="39.89138292279826" lon="116.34183405730136">
        <ele>42.29339722996821</ele>
        <time>2026-08-24T23:47:59.244000Z</time>
      </trkpt>
      <trkpt lat="39.89131195079498" lon="116.3418200960022">
        <ele>42.901116651354926</ele>
        <time>2026-08-24T23:48:02.244000Z</time>
      </trkpt>
      <trkpt lat="39.891032916115606" lon="116.34184707394742">
        <ele>42.91168336278071</ele>
        <time>2026-08-24T23:48:14.344000Z</time>
      </trkpt>
      <trkpt lat="39.89084998461305" lon="116.3418131692688">
        <ele>42.953965467272894</ele>
        <time>2026-08-24T23:48:23.444000Z</time>
      </trkpt>
      <trkpt lat="39.89079897639795" lon="116.34181916297518">
        <ele>42.86940888768305</ele>
        <time>2026-08-24T23:48:26.444000Z</time>
      </trkpt>
      <trkpt lat="39.89075312328393" lon="116.34173734296913">
        <ele>42.17713288670649</ele>
        <time>2026-08-24T23:48:29.444000Z</time>
      </trkpt>
      <trkpt lat="39.89077880132913" lon="116.3413541571243">
        <ele>42.02124146824946</ele>
        <time>2026-08-24T23:48:41.644000Z</time>
      </trkpt>
      <trkpt lat="39.8907785343724" lon="116.34094203927341">
        <ele>41.74908570653071</ele>
        <time>2026-08-24T23:48:56.944000Z</time>
      </trkpt>
      <trkpt lat="39.89073523448894" lon="116.34055088480604">
        <ele>44.253960889636176</ele>
        <time>2026-08-24T23:49:09.144000Z</time>
      </trkpt>
      <trkpt lat="39.89063937098832" lon="116.34047705580419">
        <ele>40.385674756823676</ele>
        <time>2026-08-24T23:49:12.144000Z</time>
      </trkpt>
      <trkpt lat="39.89063937098832" lon="116.34047705580419">
        <ele>41.24347692402376</ele>
        <time>2026-08-24T23:49:14.244000Z</time>
      </trkpt>
      <trkpt lat="39.8904084103074" lon="116.34046111935668">
        <ele>41.964407958135226</ele>
        <time>2026-08-24T23:49:27.344000Z</time>
      </trkpt>
      <trkpt lat="39.89036041968503" lon="116.34045713401333">
        <ele>42.51928619299851</ele>
        <time>2026-08-24T23:49:30.344000Z</time>
      </trkpt>
    </trkseg>
  </trk>
</gpx>