<?xml version="1.0" encoding="UTF-8"?>
<gpx xmlns="http://www.topografix.com/GPX/1/1" xmlns:gpxtpx="http://www.garmin.com/xmlschemas/TrackPointExtension/v1" xmlns:xsi="http://www.w3.org/2001/XMLSchema-instance" xsi:schemaLocation="http://www.topografix.com/GPX/1/1 http://www.topografix.com/GPX/1/1/gpx.xsd" version="1.1" creator="gpx.py -- https://github.com/tkrajina/gpxpy">
  <trk>
    <name>gpx from keep</name>
    <type>Run</type>
    <trkseg>
      <trkpt lat="39.86783318410164" lon="116.46685709174697">
        <ele>35.22500360570848</ele>
        <time>2026-08-23T00:19:09.865000Z</time>
      </trkpt>
      <trkpt lat="39.86783737002267" lon="116.46692633026815">
        <ele>35.047971135005355</ele>
        <time>2026-08-23T00:19:12.965000Z</time>
      </trkpt>
      <trkpt lat="39.867774637877766" lon="116.46702467786355">
        <ele>36.1682943161577</ele>
        <time>2026-08-23T00:19:18.965000Z</time>
      </trkpt>
      <trkpt lat="39.867596693168345" lon="116.46704175913266">
        <ele>35.058537846431136</ele>
        <time>2026-08-23T00:19:24.965000Z</time>
      </trkpt>
      <trkpt lat="39.867511592337" lon="116.46700263455692">
        <ele>35.748174076899886</ele>
        <time>2026-08-23T00:19:27.965000Z</time>
      </trkpt>
      <trkpt lat="39.867488455881286" lon="116.4669514606584">
        <ele>35.34126031957567</ele>
        <time>2026-08-23T00:19:30.965000Z</time>
      </trkpt>
      <trkpt lat="39.86756128002982" lon="116.4665149463231">
        <ele>34.94228113256395</ele>
        <time>2026-08-23T00:19:42.965000Z</time>
      </trkpt>
      <trkpt lat="39.86754552864872" lon="116.4662339820996">
        <ele>34.440244084224105</ele>
        <time>2026-08-23T00:19:52.265000Z</time>
      </trkpt>
      <trkpt lat="39.867476473262315" lon="116.46621191493422">
        <ele>35.00568903051317</ele>
        <time>2026-08-23T00:19:55.365000Z</time>
      </trkpt>
      <trkpt lat="39.86716748957952" lon="116.46621195368658">
        <ele>35.37296808324754</ele>
        <time>2026-08-23T00:20:07.465000Z</time>
      </trkpt>
      <trkpt lat="39.86688251538612" lon="116.46621600321272">
        <ele>34.921140080317855</ele>
        <time>2026-08-23T00:20:19.465000Z</time>
      </trkpt>
      <trkpt lat="39.86680951120303" lon="116.46621300202946">
        <ele>35.193295842036605</ele>
        <time>2026-08-23T00:20:22.465000Z</time>
      </trkpt>
      <trkpt lat="39.86667168220558" lon="116.46627422959213">
        <ele>35.193295842036605</ele>
        <time>2026-08-23T00:20:28.465000Z</time>
      </trkpt>
      <trkpt lat="39.86662990729079" lon="116.4663575211062">
        <ele>34.765248661860824</ele>
        <time>2026-08-23T00:20:31.465000Z</time>
      </trkpt>
      <trkpt lat="39.86665251640221" lon="116.46658530215919">
        <ele>34.376828556880355</ele>
        <time>2026-08-23T00:20:37.465000Z</time>
      </trkpt>
      <trkpt lat="39.86658749814099" lon="116.46694956668964">
        <ele>35.22500360570848</ele>
        <time>2026-08-23T00:20:49.465000Z</time>
      </trkpt>
      <trkpt lat="39.86656021015416" lon="116.46721348254553">
        <ele>35.09024561010301</ele>
        <time>2026-08-23T00:20:58.465000Z</time>
      </trkpt>
      <trkpt lat="39.86656615232422" lon="116.46756269189437">
        <ele>34.60670984350145</ele>
        <time>2026-08-23T00:21:10.465000Z</time>
      </trkpt>
      <trkpt lat="39.86655339445047" lon="116.46765200347308">
        <ele>35.35182703100145</ele>
        <time>2026-08-23T00:21:13.465000Z</time>
      </trkpt>
      <trkpt lat="39.866581900796135" lon="116.46783965186604">
        <ele>35.07967889867723</ele>
        <time>2026-08-23T00:21:19.465000Z</time>
      </trkpt>
      <trkpt lat="39.866559876261505" lon="116.46819890525208">
        <ele>35.38089502416551</ele>
        <time>2026-08-23T00:21:31.465000Z</time>
      </trkpt>
      <trkpt lat="39.8665668610308" lon="116.46856116874025">
        <ele>34.73354089818895</ele>
        <time>2026-08-23T00:21:43.565000Z</time>
      </trkpt>
      <trkpt lat="39.8665588273325" lon="116.46891540921101">
        <ele>34.73354089818895</ele>
        <time>2026-08-23T00:21:55.665000Z</time>
      </trkpt>
      <trkpt lat="39.866559908291784" lon="116.46931079609084">
        <ele>34.56443536840379</ele>
        <time>2026-08-23T00:22:07.665000Z</time>
      </trkpt>
      <trkpt lat="39.86654594077632" lon="116.46968712143476">
        <ele>34.02012384496629</ele>
        <time>2026-08-23T00:22:19.865000Z</time>
      </trkpt>
      <trkpt lat="39.86655768195144" lon="116.46995707147563">
        <ele>34.168088322505355</ele>
        <time>2026-08-23T00:22:28.965000Z</time>
      </trkpt>
      <trkpt lat="39.86654690340279" lon="116.47003735613032">
        <ele>34.522153263911605</ele>
        <time>2026-08-23T00:22:32.065000Z</time>
      </trkpt>
      <trkpt lat="39.86646828888122" lon="116.47017585502579">
        <ele>33.87479913793504</ele>
        <time>2026-08-23T00:22:38.165000Z</time>
      </trkpt>
      <trkpt lat="39.86645128343887" lon="116.4705361314585">
        <ele>33.73740137182176</ele>
        <time>2026-08-23T00:22:50.465000Z</time>
      </trkpt>
      <trkpt lat="39.86645459338364" lon="116.47100981092292">
        <ele>34.47195184789598</ele>
        <time>2026-08-23T00:23:05.565000Z</time>
      </trkpt>
      <trkpt lat="39.86649380795679" lon="116.47144836577255">
        <ele>35.15101373754442</ele>
        <time>2026-08-23T00:23:20.665000Z</time>
      </trkpt>
      <trkpt lat="39.8665247748773" lon="116.47179660341268">
        <ele>34.38740289770067</ele>
        <time>2026-08-23T00:23:32.665000Z</time>
      </trkpt>
      <trkpt lat="39.86652298660867" lon="116.47223115649011">
        <ele>34.429677372798324</ele>
        <time>2026-08-23T00:23:47.965000Z</time>
      </trkpt>
      <trkpt lat="39.86651605302796" lon="116.47261252341131">
        <ele>34.35569513402879</ele>
        <time>2026-08-23T00:24:00.165000Z</time>
      </trkpt>
      <trkpt lat="39.86650108296212" lon="116.47297984384765">
        <ele>35.21442926488817</ele>
        <time>2026-08-23T00:24:12.365000Z</time>
      </trkpt>
      <trkpt lat="39.8664741750596" lon="116.47336824440609">
        <ele>34.429677372798324</ele>
        <time>2026-08-23T00:24:24.465000Z</time>
      </trkpt>
      <trkpt lat="39.86647725393173" lon="116.47375162610514">
        <ele>34.68069208227098</ele>
        <time>2026-08-23T00:24:36.465000Z</time>
      </trkpt>
      <trkpt lat="39.8664762815725" lon="116.47411594222609">
        <ele>34.1258138474077</ele>
        <time>2026-08-23T00:24:48.465000Z</time>
      </trkpt>
      <trkpt lat="39.86647130303566" lon="116.47447725048131">
        <ele>34.41911066137254</ele>
        <time>2026-08-23T00:25:00.465000Z</time>
      </trkpt>
      <trkpt lat="39.86647026091211" lon="116.47483936091513">
        <ele>34.041264897212386</ele>
        <time>2026-08-23T00:25:12.465000Z</time>
      </trkpt>
      <trkpt lat="39.866489416177984" lon="116.47522295472574">
        <ele>33.63435113988817</ele>
        <time>2026-08-23T00:25:24.465000Z</time>
      </trkpt>
      <trkpt lat="39.866481521115766" lon="116.47561136942592">
        <ele>33.9989827927202</ele>
        <time>2026-08-23T00:25:36.465000Z</time>
      </trkpt>
      <trkpt lat="39.86645079422698" lon="116.47570672070955">
        <ele>33.30935419164598</ele>
        <time>2026-08-23T00:25:39.465000Z</time>
      </trkpt>
      <trkpt lat="39.866404031148456" lon="116.47578902657956">
        <ele>33.90650690160692</ele>
        <time>2026-08-23T00:25:42.465000Z</time>
      </trkpt>
      <trkpt lat="39.86642809753225" lon="116.47616338981732">
        <ele>33.92764795385301</ele>
        <time>2026-08-23T00:25:54.465000Z</time>
      </trkpt>
      <trkpt lat="39.86646013681365" lon="116.47652771773073">
        <ele>33.93821466527879</ele>
        <time>2026-08-23T00:26:06.465000Z</time>
      </trkpt>
      <trkpt lat="39.866438154964776" lon="116.47688302150543">
        <ele>34.302846318110824</ele>
        <time>2026-08-23T00:26:18.465000Z</time>
      </trkpt>
      <trkpt lat="39.86643620260807" lon="116.47724836168265">
        <ele>33.79025018773973</ele>
        <time>2026-08-23T00:26:30.465000Z</time>
      </trkpt>
      <trkpt lat="39.866455720258806" lon="116.47742902264154">
        <ele>33.85365808568895</ele>
        <time>2026-08-23T00:26:36.465000Z</time>
      </trkpt>
      <trkpt lat="39.8664327717151" lon="116.47779436860888">
        <ele>34.041264897212386</ele>
        <time>2026-08-23T00:26:48.465000Z</time>
      </trkpt>
      <trkpt lat="39.866444828855016" lon="116.47816171966117">
        <ele>33.9989827927202</ele>
        <time>2026-08-23T00:27:00.465000Z</time>
      </trkpt>
      <trkpt lat="39.866438871306336" lon="116.47852305276969">
        <ele>34.39796960912645</ele>
        <time>2026-08-23T00:27:12.465000Z</time>
      </trkpt>
      <trkpt lat="39.86641893065254" lon="116.47888940808333">
        <ele>34.27113855443895</ele>
        <time>2026-08-23T00:27:24.465000Z</time>
      </trkpt>
      <trkpt lat="39.86643078074881" lon="116.47918349396234">
        <ele>33.676625614985824</ele>
        <time>2026-08-23T00:27:33.465000Z</time>
      </trkpt>
      <trkpt lat="39.86640759884434" lon="116.47946554081543">
        <ele>33.758542424067855</ele>
        <time>2026-08-23T00:27:42.465000Z</time>
      </trkpt>
      <trkpt lat="39.866426136168414" lon="116.47965122640507">
        <ele>33.623784428462386</ele>
        <time>2026-08-23T00:27:48.465000Z</time>
      </trkpt>
      <trkpt lat="39.86640390331338" lon="116.47991520791443">
        <ele>33.39390314184129</ele>
        <time>2026-08-23T00:27:57.465000Z</time>
      </trkpt>
      <trkpt lat="39.86640776030406" lon="116.4802103026252">
        <ele>34.11524713598192</ele>
        <time>2026-08-23T00:28:06.465000Z</time>
      </trkpt>
      <trkpt lat="39.86634749902507" lon="116.48046324977211">
        <ele>33.277646427974105</ele>
        <time>2026-08-23T00:28:15.465000Z</time>
      </trkpt>
      <trkpt lat="39.866345811367" lon="116.48091392616668">
        <ele>33.03719842992723</ele>
        <time>2026-08-23T00:28:30.565000Z</time>
      </trkpt>
      <trkpt lat="39.86633488909001" lon="116.48128330317935">
        <ele>33.412404423579574</ele>
        <time>2026-08-23T00:28:42.565000Z</time>
      </trkpt>
      <trkpt lat="39.86633368035302" lon="116.48155431366763">
        <ele>33.45467889867723</ele>
        <time>2026-08-23T00:28:51.665000Z</time>
      </trkpt>
      <trkpt lat="39.866315948127856" lon="116.48164565659063">
        <ele>33.57093561254442</ele>
        <time>2026-08-23T00:28:54.665000Z</time>
      </trkpt>
      <trkpt lat="39.8662741644622" lon="116.48171893518598">
        <ele>33.560368901118636</ele>
        <time>2026-08-23T00:28:57.765000Z</time>
      </trkpt>
      <trkpt lat="39.86621129395189" lon="116.48176210408614">
        <ele>33.486386662349105</ele>
        <time>2026-08-23T00:29:00.765000Z</time>
      </trkpt>
      <trkpt lat="39.86592807141621" lon="116.48168083599712">
        <ele>33.09797418676317</ele>
        <time>2026-08-23T00:29:12.865000Z</time>
      </trkpt>
      <trkpt lat="39.865622908788644" lon="116.48161964560315">
        <ele>32.85752618871629</ele>
        <time>2026-08-23T00:29:25.165000Z</time>
      </trkpt>
      <trkpt lat="39.865347773941096" lon="116.48156848894774">
        <ele>32.76504266820848</ele>
        <time>2026-08-23T00:29:37.365000Z</time>
      </trkpt>
      <trkpt lat="39.86505765167132" lon="116.4815213491638">
        <ele>32.98434961400926</ele>
        <time>2026-08-23T00:29:49.465000Z</time>
      </trkpt>
      <trkpt lat="39.8647565476249" lon="116.48148023323073">
        <ele>33.079472905024886</ele>
        <time>2026-08-23T00:30:01.365000Z</time>
      </trkpt>
      <trkpt lat="39.86454849137871" lon="116.48145717308239">
        <ele>32.9632161911577</ele>
        <time>2026-08-23T00:30:10.465000Z</time>
      </trkpt>
      <trkpt lat="39.86435032033731" lon="116.48139496577699">
        <ele>32.8363851364702</ele>
        <time>2026-08-23T00:30:19.465000Z</time>
      </trkpt>
      <trkpt lat="39.86405820713712" lon="116.48135083756323">
        <ele>32.659352665767074</ele>
        <time>2026-08-23T00:30:31.465000Z</time>
      </trkpt>
      <trkpt lat="39.863781046311225" lon="116.48129064766277">
        <ele>33.09797418676317</ele>
        <time>2026-08-23T00:30:43.465000Z</time>
      </trkpt>
      <trkpt lat="39.86344096801717" lon="116.48125756662176">
        <ele>32.19959772191942</ele>
        <time>2026-08-23T00:30:58.465000Z</time>
      </trkpt>
      <trkpt lat="39.86316383072682" lon="116.48120540670126">
        <ele>33.29877985082567</ele>
        <time>2026-08-23T00:31:10.465000Z</time>
      </trkpt>
      <trkpt lat="39.86289663440023" lon="116.48113317080458">
        <ele>32.81789148412645</ele>
        <time>2026-08-23T00:31:22.465000Z</time>
      </trkpt>
      <trkpt lat="39.86259451028962" lon="116.4810850290295">
        <ele>33.359555607661605</ele>
        <time>2026-08-23T00:31:34.465000Z</time>
      </trkpt>
      <trkpt lat="39.862315420096635" lon="116.48104892926011">
        <ele>33.10854089818895</ele>
        <time>2026-08-23T00:31:46.465000Z</time>
      </trkpt>
      <trkpt lat="39.86211038443296" lon="116.48103289501819">
        <ele>33.150815373286605</ele>
        <time>2026-08-23T00:31:55.465000Z</time>
      </trkpt>
      <trkpt lat="39.861840244075154" lon="116.48097973063477">
        <ele>33.005490666255355</ele>
        <time>2026-08-23T00:32:07.465000Z</time>
      </trkpt>
      <trkpt lat="39.86156912430081" lon="116.48093359256005">
        <ele>34.07297266088426</ele>
        <time>2026-08-23T00:32:19.465000Z</time>
      </trkpt>
      <trkpt lat="39.861267971119624" lon="116.48087541343226">
        <ele>33.63435113988817</ele>
        <time>2026-08-23T00:32:31.465000Z</time>
      </trkpt>
      <trkpt lat="39.86099381359993" lon="116.48081622724816">
        <ele>32.92094171606004</ele>
        <time>2026-08-23T00:32:43.465000Z</time>
      </trkpt>
      <trkpt lat="39.860722644284685" lon="116.48075302580135">
        <ele>33.18252313695848</ele>
        <time>2026-08-23T00:32:55.465000Z</time>
      </trkpt>
      <trkpt lat="39.86043058140736" lon="116.48072596140037">
        <ele>32.994923954829574</ele>
        <time>2026-08-23T00:33:07.465000Z</time>
      </trkpt>
      <trkpt lat="39.86027769213219" lon="116.48076111112942">
        <ele>32.70162714086473</ele>
        <time>2026-08-23T00:33:13.465000Z</time>
      </trkpt>
      <trkpt lat="39.860212795107486" lon="116.48079524617191">
        <ele>32.76504266820848</ele>
        <time>2026-08-23T00:33:16.465000Z</time>
      </trkpt>
      <trkpt lat="39.85993667876545" lon="116.48075011256223">
        <ele>32.92094171606004</ele>
        <time>2026-08-23T00:33:28.465000Z</time>
      </trkpt>
      <trkpt lat="39.85971755932191" lon="116.48070497187472">
        <ele>32.062199955806136</ele>
        <time>2026-08-23T00:33:37.465000Z</time>
      </trkpt>
      <trkpt lat="39.859661465973794" lon="116.48067185568395">
        <ele>32.56422937475145</ele>
        <time>2026-08-23T00:33:40.465000Z</time>
      </trkpt>
      <trkpt lat="39.85962027539245" lon="116.48060561449486">
        <ele>32.220734959468246</ele>
        <time>2026-08-23T00:33:43.465000Z</time>
      </trkpt>
      <trkpt lat="39.859576223811565" lon="116.48024327365422">
        <ele>32.9632161911577</ele>
        <time>2026-08-23T00:33:55.465000Z</time>
      </trkpt>
      <trkpt lat="39.859525147871715" lon="116.4798719018837">
        <ele>33.161382084712386</ele>
        <time>2026-08-23T00:34:07.465000Z</time>
      </trkpt>
      <trkpt lat="39.85949359336055" lon="116.47968019511475">
        <ele>33.341061955317855</ele>
        <time>2026-08-23T00:34:13.465000Z</time>
      </trkpt>
      <trkpt lat="39.85940460624681" lon="116.47933793860176">
        <ele>33.46524561010301</ele>
        <time>2026-08-23T00:34:25.465000Z</time>
      </trkpt>
      <trkpt lat="39.859353601014796" lon="116.47898965671448">
        <ele>33.19308984838426</ele>
        <time>2026-08-23T00:34:37.465000Z</time>
      </trkpt>
      <trkpt lat="39.859301550947734" lon="116.47862531740219">
        <ele>33.267079716548324</ele>
        <time>2026-08-23T00:34:49.465000Z</time>
      </trkpt>
      <trkpt lat="39.85924033233909" lon="116.47820176293061">
        <ele>33.422971135005355</ele>
        <time>2026-08-23T00:35:04.465000Z</time>
      </trkpt>
      <trkpt lat="39.859213088167415" lon="116.47776917368573">
        <ele>33.560368901118636</ele>
        <time>2026-08-23T00:35:19.465000Z</time>
      </trkpt>
      <trkpt lat="39.85924505934035" lon="116.47741185636974">
        <ele>34.094106083735824</ele>
        <time>2026-08-23T00:35:31.465000Z</time>
      </trkpt>
      <trkpt lat="39.8592768682353" lon="116.47699733132531">
        <ele>33.967282658442855</ele>
        <time>2026-08-23T00:35:46.565000Z</time>
      </trkpt>
      <trkpt lat="39.8592933382063" lon="116.47681265249311">
        <ele>33.29877985082567</ele>
        <time>2026-08-23T00:35:52.565000Z</time>
      </trkpt>
      <trkpt lat="39.85937833408462" lon="116.4764633634273">
        <ele>33.967282658442855</ele>
        <time>2026-08-23T00:36:04.665000Z</time>
      </trkpt>
      <trkpt lat="39.859480133162506" lon="116.47604482147227">
        <ele>34.29227960668504</ele>
        <time>2026-08-23T00:36:19.965000Z</time>
      </trkpt>
      <trkpt lat="39.85956109596902" lon="116.47568248991223">
        <ele>33.161382084712386</ele>
        <time>2026-08-23T00:36:32.165000Z</time>
      </trkpt>
      <trkpt lat="39.85963008420645" lon="116.47532819135894">
        <ele>33.73740137182176</ele>
        <time>2026-08-23T00:36:44.365000Z</time>
      </trkpt>
      <trkpt lat="39.85971199390894" lon="116.47494579139676">
        <ele>33.31992090307176</ele>
        <time>2026-08-23T00:36:56.465000Z</time>
      </trkpt>
      <trkpt lat="39.8597749779368" lon="116.47458848740442">
        <ele>33.11910760961473</ele>
        <time>2026-08-23T00:37:08.465000Z</time>
      </trkpt>
      <trkpt lat="39.85983998937613" lon="116.47424021821686">
        <ele>33.59207666479051</ele>
        <time>2026-08-23T00:37:20.465000Z</time>
      </trkpt>
      <trkpt lat="39.85992498183776" lon="116.47388492346724">
        <ele>33.267079716548324</ele>
        <time>2026-08-23T00:37:32.465000Z</time>
      </trkpt>
      <trkpt lat="39.860014970424814" lon="116.47352762330118">
        <ele>33.11910760961473</ele>
        <time>2026-08-23T00:37:44.465000Z</time>
      </trkpt>
      <trkpt lat="39.860084956585034" lon="116.47316832093149">
        <ele>32.98434961400926</ele>
        <time>2026-08-23T00:37:56.465000Z</time>
      </trkpt>
      <trkpt lat="39.86014495952148" lon="116.47281404041372">
        <ele>33.277646427974105</ele>
        <time>2026-08-23T00:38:08.565000Z</time>
      </trkpt>
      <trkpt lat="39.860227007572576" lon="116.47244790998397">
        <ele>32.733334904536605</ele>
        <time>2026-08-23T00:38:20.565000Z</time>
      </trkpt>
      <trkpt lat="39.86034797007946" lon="116.47210648031617">
        <ele>33.412404423579574</ele>
        <time>2026-08-23T00:38:32.565000Z</time>
      </trkpt>
      <trkpt lat="39.860415987470944" lon="116.47175521734849">
        <ele>33.079472905024886</ele>
        <time>2026-08-23T00:38:44.665000Z</time>
      </trkpt>
      <trkpt lat="39.86041872758984" lon="116.4716618841218">
        <ele>32.733334904536605</ele>
        <time>2026-08-23T00:38:47.765000Z</time>
      </trkpt>
      <trkpt lat="39.86052408570208" lon="116.47143305563357">
        <ele>33.53922784887254</ele>
        <time>2026-08-23T00:38:56.865000Z</time>
      </trkpt>
      <trkpt lat="39.86062679022513" lon="116.47132867126635">
        <ele>33.016057377681136</ele>
        <time>2026-08-23T00:39:03.065000Z</time>
      </trkpt>
      <trkpt lat="39.86068972269854" lon="116.47130558126149">
        <ele>33.959355717524886</ele>
        <time>2026-08-23T00:39:06.165000Z</time>
      </trkpt>
      <trkpt lat="39.86095084767467" lon="116.47135572714629">
        <ele>33.47581232152879</ele>
        <time>2026-08-23T00:39:18.465000Z</time>
      </trkpt>
      <trkpt lat="39.86101683291342" lon="116.47135170460282">
        <ele>33.59207666479051</ele>
        <time>2026-08-23T00:39:21.465000Z</time>
      </trkpt>
      <trkpt lat="39.86109858052321" lon="116.47126237658344">
        <ele>34.55386102758348</ele>
        <time>2026-08-23T00:39:27.465000Z</time>
      </trkpt>
      <trkpt lat="39.861077278264275" lon="116.47115299028404">
        <ele>34.68069208227098</ele>
        <time>2026-08-23T00:39:30.465000Z</time>
      </trkpt>
      <trkpt lat="39.861001084911486" lon="116.47108174659856">
        <ele>33.45467889867723</ele>
        <time>2026-08-23T00:39:33.465000Z</time>
      </trkpt>
      <trkpt lat="39.86085595103892" lon="116.47103058294006">
        <ele>34.041264897212386</ele>
        <time>2026-08-23T00:39:39.465000Z</time>
      </trkpt>
      <trkpt lat="39.86056975270528" lon="116.4709533443534">
        <ele>33.359555607661605</ele>
        <time>2026-08-23T00:39:51.465000Z</time>
      </trkpt>
      <trkpt lat="39.86050369242163" lon="116.47093027068208">
        <ele>33.959355717524886</ele>
        <time>2026-08-23T00:39:54.465000Z</time>
      </trkpt>
      <trkpt lat="39.86046156416275" lon="116.47088310855167">
        <ele>33.77967584691942</ele>
        <time>2026-08-23T00:39:57.465000Z</time>
      </trkpt>
      <trkpt lat="39.86055647705539" lon="116.47049170951247">
        <ele>33.45467889867723</ele>
        <time>2026-08-23T00:40:12.465000Z</time>
      </trkpt>
      <trkpt lat="39.86064327724728" lon="116.4700581661632">
        <ele>33.560368901118636</ele>
        <time>2026-08-23T00:40:27.465000Z</time>
      </trkpt>
      <trkpt lat="39.860689311902725" lon="116.46970792552261">
        <ele>33.71626031957567</ele>
        <time>2026-08-23T00:40:39.465000Z</time>
      </trkpt>
      <trkpt lat="39.86074627413283" lon="116.46933059120092">
        <ele>33.90650690160692</ele>
        <time>2026-08-23T00:40:51.465000Z</time>
      </trkpt>
      <trkpt lat="39.86080526919823" lon="116.46896429869633">
        <ele>33.549802189692855</ele>
        <time>2026-08-23T00:41:03.465000Z</time>
      </trkpt>
      <trkpt lat="39.86088031799597" lon="116.46861707407132">
        <ele>33.52866113744676</ele>
        <time>2026-08-23T00:41:15.465000Z</time>
      </trkpt>
      <trkpt lat="39.86094732059347" lon="116.4682517904243">
        <ele>33.53922784887254</ele>
        <time>2026-08-23T00:41:27.465000Z</time>
      </trkpt>
      <trkpt lat="39.86099306074948" lon="116.46778817088696">
        <ele>33.84309137426317</ele>
        <time>2026-08-23T00:41:42.465000Z</time>
      </trkpt>
      <trkpt lat="39.86104611641446" lon="116.46743995570938">
        <ele>33.758542424067855</ele>
        <time>2026-08-23T00:41:54.465000Z</time>
      </trkpt>
      <trkpt lat="39.8610901481078" lon="116.46708171007883">
        <ele>33.769109135493636</ele>
        <time>2026-08-23T00:42:06.465000Z</time>
      </trkpt>
      <trkpt lat="39.86117920431993" lon="116.4667324932753">
        <ele>33.51809442602098</ele>
        <time>2026-08-23T00:42:18.465000Z</time>
      </trkpt>
      <trkpt lat="39.86125450311657" lon="116.46647258861371">
        <ele>33.52866113744676</ele>
        <time>2026-08-23T00:42:27.465000Z</time>
      </trkpt>
      <trkpt lat="39.861313562899106" lon="116.46612237774522">
        <ele>34.06239832006395</ele>
        <time>2026-08-23T00:42:39.465000Z</time>
      </trkpt>
      <trkpt lat="39.861312313737116" lon="116.46602905776277">
        <ele>33.705693608149886</ele>
        <time>2026-08-23T00:42:42.465000Z</time>
      </trkpt>
      <trkpt lat="39.86133008514244" lon="116.46594376313945">
        <ele>33.94614160619676</ele>
        <time>2026-08-23T00:42:45.465000Z</time>
      </trkpt>
      <trkpt lat="39.86138992932005" lon="116.4658865596685">
        <ele>33.86423242650926</ele>
        <time>2026-08-23T00:42:48.465000Z</time>
      </trkpt>
      <trkpt lat="39.861665021343455" lon="116.46592666268279">
        <ele>34.17866266332567</ele>
        <time>2026-08-23T00:43:00.465000Z</time>
      </trkpt>
      <trkpt lat="39.8619351379041" lon="116.46592629881525">
        <ele>34.701833134517074</ele>
        <time>2026-08-23T00:43:12.465000Z</time>
      </trkpt>
      <trkpt lat="39.86214297656478" lon="116.4659195786779">
        <ele>34.34512079320848</ele>
        <time>2026-08-23T00:43:21.465000Z</time>
      </trkpt>
      <trkpt lat="39.86241706873793" lon="116.46595968185434">
        <ele>35.24613702856004</ele>
        <time>2026-08-23T00:43:33.465000Z</time>
      </trkpt>
      <trkpt lat="39.86268910216681" lon="116.46597770965153">
        <ele>35.17215478979051</ele>
        <time>2026-08-23T00:43:45.465000Z</time>
      </trkpt>
      <trkpt lat="39.8629751295123" lon="116.4659937288222">
        <ele>34.75467432104051</ele>
        <time>2026-08-23T00:43:57.465000Z</time>
      </trkpt>
      <trkpt lat="39.86325409822536" lon="116.46602594508532">
        <ele>35.00568903051317</ele>
        <time>2026-08-23T00:44:09.565000Z</time>
      </trkpt>
      <trkpt lat="39.86353959717677" lon="116.46605399395708">
        <ele>34.83658350072801</ele>
        <time>2026-08-23T00:44:21.565000Z</time>
      </trkpt>
      <trkpt lat="39.8637601392291" lon="116.46608449562972">
        <ele>35.51829279027879</ele>
        <time>2026-08-23T00:44:30.665000Z</time>
      </trkpt>
      <trkpt lat="39.86381680979998" lon="116.4661536062018">
        <ele>35.119313603267074</ele>
        <time>2026-08-23T00:44:33.665000Z</time>
      </trkpt>
      <trkpt lat="39.863810127856844" lon="116.46638396441806">
        <ele>35.15101373754442</ele>
        <time>2026-08-23T00:44:39.665000Z</time>
      </trkpt>
      <trkpt lat="39.86375985138304" lon="116.4666528964888">
        <ele>34.376828556880355</ele>
        <time>2026-08-23T00:44:48.765000Z</time>
      </trkpt>
      <trkpt lat="39.86376660308237" lon="116.46693286143416">
        <ele>34.575002079829574</ele>
        <time>2026-08-23T00:44:58.065000Z</time>
      </trkpt>
      <trkpt lat="39.863743558263536" lon="116.46728708920647">
        <ele>34.48251855932176</ele>
        <time>2026-08-23T00:45:10.365000Z</time>
      </trkpt>
      <trkpt lat="39.86370879091575" lon="116.4677426736612">
        <ele>33.87479913793504</ele>
        <time>2026-08-23T00:45:25.465000Z</time>
      </trkpt>
      <trkpt lat="39.86368281491469" lon="116.4681199895314">
        <ele>33.486386662349105</ele>
        <time>2026-08-23T00:45:37.465000Z</time>
      </trkpt>
      <trkpt lat="39.86364555850215" lon="116.4683929459722">
        <ele>34.585568791255355</ele>
        <time>2026-08-23T00:45:46.465000Z</time>
      </trkpt>
      <trkpt lat="39.863639520765474" lon="116.46874618116749">
        <ele>34.02012384496629</ele>
        <time>2026-08-23T00:45:58.465000Z</time>
      </trkpt>
      <trkpt lat="39.86363751001001" lon="116.46910845058295">
        <ele>34.13638055883348</ele>
        <time>2026-08-23T00:46:10.465000Z</time>
      </trkpt>
      <trkpt lat="39.86361804644237" lon="116.46930413989618">
        <ele>33.57093561254442</ele>
        <time>2026-08-23T00:46:16.465000Z</time>
      </trkpt>
      <trkpt lat="39.86358605782456" lon="116.46967243910966">
        <ele>33.3806966599077</ele>
        <time>2026-08-23T00:46:28.465000Z</time>
      </trkpt>
      <trkpt lat="39.86354728216012" lon="116.47011701163291">
        <ele>33.30935419164598</ele>
        <time>2026-08-23T00:46:43.465000Z</time>
      </trkpt>
      <trkpt lat="39.86352330441069" lon="116.47048732392065">
        <ele>34.22886407934129</ele>
        <time>2026-08-23T00:46:55.465000Z</time>
      </trkpt>
      <trkpt lat="39.86350030141454" lon="116.47084760359445">
        <ele>33.81138361059129</ele>
        <time>2026-08-23T00:47:07.465000Z</time>
      </trkpt>
      <trkpt lat="39.86345106290777" lon="116.47112158263567">
        <ele>34.29227960668504</ele>
        <time>2026-08-23T00:47:16.465000Z</time>
      </trkpt>
      <trkpt lat="39.86340225198924" lon="116.4711888277637">
        <ele>33.80081689916551</ele>
        <time>2026-08-23T00:47:19.465000Z</time>
      </trkpt>
      <trkpt lat="39.86319732430597" lon="116.47121093191576">
        <ele>33.695126896724105</ele>
        <time>2026-08-23T00:47:28.465000Z</time>
      </trkpt>
      <trkpt lat="39.86291520597815" lon="116.47116279595215">
        <ele>34.61727655492723</ele>
        <time>2026-08-23T00:47:40.465000Z</time>
      </trkpt>
      <trkpt lat="39.86264413719743" lon="116.47113272285863">
        <ele>34.05183160863817</ele>
        <time>2026-08-23T00:47:52.465000Z</time>
      </trkpt>
      <trkpt lat="39.862573141050824" lon="116.47113273174372">
        <ele>34.585568791255355</ele>
        <time>2026-08-23T00:47:55.465000Z</time>
      </trkpt>
      <trkpt lat="39.86229515058981" lon="116.47113075939991">
        <ele>34.40853632055223</ele>
        <time>2026-08-23T00:48:07.465000Z</time>
      </trkpt>
      <trkpt lat="39.86200713565969" lon="116.47111975621016">
        <ele>34.041264897212386</ele>
        <time>2026-08-23T00:48:19.465000Z</time>
      </trkpt>
      <trkpt lat="39.86194313914605" lon="116.47111976421907">
        <ele>33.959355717524886</ele>
        <time>2026-08-23T00:48:22.465000Z</time>
      </trkpt>
      <trkpt lat="39.86161117394462" lon="116.4711258271627">
        <ele>33.71626031957567</ele>
        <time>2026-08-23T00:48:37.565000Z</time>
      </trkpt>
      <trkpt lat="39.86133102235178" lon="116.47106564826049">
        <ele>33.613217717036605</ele>
        <time>2026-08-23T00:48:49.565000Z</time>
      </trkpt>
      <trkpt lat="39.86105895659666" lon="116.47103657892265">
        <ele>33.12967432104051</ele>
        <time>2026-08-23T00:49:01.665000Z</time>
      </trkpt>
      <trkpt lat="39.86079083506747" lon="116.4709874378343">
        <ele>34.02012384496629</ele>
        <time>2026-08-23T00:49:13.765000Z</time>
      </trkpt>
      <trkpt lat="39.86050871437515" lon="116.4709382985526">
        <ele>33.74796808324754</ele>
        <time>2026-08-23T00:49:25.765000Z</time>
      </trkpt>
      <trkpt lat="39.860466563887954" lon="116.47088310792597">
        <ele>33.967282658442855</ele>
        <time>2026-08-23T00:49:28.765000Z</time>
      </trkpt>
      <trkpt lat="39.86053248668463" lon="116.4704947231726">
        <ele>33.277646427974105</ele>
        <time>2026-08-23T00:49:43.765000Z</time>
      </trkpt>
      <trkpt lat="39.86062533347962" lon="116.47007823926255">
        <ele>33.005490666255355</ele>
        <time>2026-08-23T00:49:58.865000Z</time>
      </trkpt>
      <trkpt lat="39.86070113770228" lon="116.46964470143268">
        <ele>33.66605890356004</ele>
        <time>2026-08-23T00:50:14.265000Z</time>
      </trkpt>
      <trkpt lat="39.86075710594688" lon="116.46926937484777">
        <ele>32.994923954829574</ele>
        <time>2026-08-23T00:50:26.465000Z</time>
      </trkpt>
      <trkpt lat="39.8608319033979" lon="116.46883082788929">
        <ele>33.10854089818895</ele>
        <time>2026-08-23T00:50:41.565000Z</time>
      </trkpt>
      <trkpt lat="39.860904934122004" lon="116.46847658011596">
        <ele>33.18252313695848</ele>
        <time>2026-08-23T00:50:53.565000Z</time>
      </trkpt>
      <trkpt lat="39.860953927858866" lon="116.46810728601407">
        <ele>32.49288690648973</ele>
        <time>2026-08-23T00:51:05.565000Z</time>
      </trkpt>
      <trkpt lat="39.861014774422124" lon="116.46768280214721">
        <ele>32.733334904536605</ele>
        <time>2026-08-23T00:51:20.665000Z</time>
      </trkpt>
      <trkpt lat="39.861052820849984" lon="116.46733057588455">
        <ele>32.669919377192855</ele>
        <time>2026-08-23T00:51:32.765000Z</time>
      </trkpt>
      <trkpt lat="39.86111489288114" lon="116.46698738100187">
        <ele>32.786183720454574</ele>
        <time>2026-08-23T00:51:44.965000Z</time>
      </trkpt>
      <trkpt lat="39.861216967935015" lon="116.46664518763066">
        <ele>33.73740137182176</ele>
        <time>2026-08-23T00:51:57.265000Z</time>
      </trkpt>
      <trkpt lat="39.861278924236096" lon="116.46625684377555">
        <ele>32.942075138911605</ele>
        <time>2026-08-23T00:52:09.465000Z</time>
      </trkpt>
      <trkpt lat="39.861309471984086" lon="116.4660882611909">
        <ele>32.13618219457567</ele>
        <time>2026-08-23T00:52:15.465000Z</time>
      </trkpt>
      <trkpt lat="39.86131021742706" lon="116.46599293416385">
        <ele>32.91036737523973</ele>
        <time>2026-08-23T00:52:18.465000Z</time>
      </trkpt>
      <trkpt lat="39.86133699911276" lon="116.46591165224531">
        <ele>33.267079716548324</ele>
        <time>2026-08-23T00:52:21.465000Z</time>
      </trkpt>
      <trkpt lat="39.861404928500335" lon="116.46588655778757">
        <ele>33.63435113988817</ele>
        <time>2026-08-23T00:52:24.465000Z</time>
      </trkpt>
      <trkpt lat="39.861608056572955" lon="116.46593871108823">
        <ele>33.02663171850145</ele>
        <time>2026-08-23T00:52:33.465000Z</time>
      </trkpt>
      <trkpt lat="39.86188208446028" lon="116.46595473174696">
        <ele>33.57093561254442</ele>
        <time>2026-08-23T00:52:45.465000Z</time>
      </trkpt>
      <trkpt lat="39.86209398993657" lon="116.46592359857392">
        <ele>33.68455255590379</ele>
        <time>2026-08-23T00:52:54.465000Z</time>
      </trkpt>
      <trkpt lat="39.86236906331434" lon="116.46595667755672">
        <ele>33.496953373774886</ele>
        <time>2026-08-23T00:53:06.465000Z</time>
      </trkpt>
      <trkpt lat="39.86265607450474" lon="116.46596667595749">
        <ele>33.60264337621629</ele>
        <time>2026-08-23T00:53:18.465000Z</time>
      </trkpt>
      <trkpt lat="39.862940128729676" lon="116.46599272977129">
        <ele>34.00955713354051</ele>
        <time>2026-08-23T00:53:30.465000Z</time>
      </trkpt>
      <trkpt lat="39.863215339431584" lon="116.46603324548693">
        <ele>33.642278080806136</ele>
        <time>2026-08-23T00:53:42.465000Z</time>
      </trkpt>
      <trkpt lat="39.863287896533166" lon="116.46604445122617">
        <ele>33.613217717036605</ele>
        <time>2026-08-23T00:53:45.465000Z</time>
      </trkpt>
      <trkpt lat="39.863571452467404" lon="116.46606469536388">
        <ele>33.370122319087386</ele>
        <time>2026-08-23T00:53:57.465000Z</time>
      </trkpt>
      <trkpt lat="39.863723619989045" lon="116.46607456837646">
        <ele>33.758542424067855</ele>
        <time>2026-08-23T00:54:03.465000Z</time>
      </trkpt>
      <trkpt lat="39.86379290049693" lon="116.46610589433409">
        <ele>33.341061955317855</ele>
        <time>2026-08-23T00:54:06.465000Z</time>
      </trkpt>
      <trkpt lat="39.863827047444516" lon="116.4661578506387">
        <ele>33.29877985082567</ele>
        <time>2026-08-23T00:54:09.465000Z</time>
      </trkpt>
      <trkpt lat="39.863780470840275" lon="116.46651140660062">
        <ele>33.613217717036605</ele>
        <time>2026-08-23T00:54:18.465000Z</time>
      </trkpt>
      <trkpt lat="39.86376472728642" lon="116.46660673684103">
        <ele>33.45467889867723</ele>
        <time>2026-08-23T00:54:21.465000Z</time>
      </trkpt>
      <trkpt lat="39.86377249483865" lon="116.4668927221045">
        <ele>33.81138361059129</ele>
        <time>2026-08-23T00:54:30.465000Z</time>
      </trkpt>
      <trkpt lat="39.86372846437501" lon="116.4672519695059">
        <ele>33.33048761449754</ele>
        <time>2026-08-23T00:54:42.465000Z</time>
      </trkpt>
      <trkpt lat="39.86374409989001" lon="116.4674877845624">
        <ele>33.45467889867723</ele>
        <time>2026-08-23T00:54:51.465000Z</time>
      </trkpt>
      <trkpt lat="39.8637020520877" lon="116.46783900930033">
        <ele>32.97378290258348</ele>
        <time>2026-08-23T00:55:03.565000Z</time>
      </trkpt>
      <trkpt lat="39.863671589533986" lon="116.46803670087739">
        <ele>33.005490666255355</ele>
        <time>2026-08-23T00:55:09.465000Z</time>
      </trkpt>
      <trkpt lat="39.863655552504724" lon="116.46839093771494">
        <ele>32.61707819066942</ele>
        <time>2026-08-23T00:55:21.465000Z</time>
      </trkpt>
      <trkpt lat="39.86364752307015" lon="116.46874718367629">
        <ele>33.214230900630355</ele>
        <time>2026-08-23T00:55:33.565000Z</time>
      </trkpt>
      <trkpt lat="39.863640518078654" lon="116.46911146076654">
        <ele>33.02663171850145</ele>
        <time>2026-08-23T00:55:45.565000Z</time>
      </trkpt>
      <trkpt lat="39.8636017182983" lon="116.46954900270225">
        <ele>33.29877985082567</ele>
        <time>2026-08-23T00:56:00.565000Z</time>
      </trkpt>
      <trkpt lat="39.86356370416631" lon="116.46990726940365">
        <ele>33.351628666743636</ele>
        <time>2026-08-23T00:56:12.665000Z</time>
      </trkpt>
      <trkpt lat="39.863525733994585" lon="116.47028059230001">
        <ele>33.02663171850145</ele>
        <time>2026-08-23T00:56:24.665000Z</time>
      </trkpt>
      <trkpt lat="39.863508917890904" lon="116.47070911136872">
        <ele>33.77967584691942</ele>
        <time>2026-08-23T00:56:39.965000Z</time>
      </trkpt>
      <trkpt lat="39.86346793681882" lon="116.47107642004453">
        <ele>33.31992090307176</ele>
        <time>2026-08-23T00:56:52.265000Z</time>
      </trkpt>
      <trkpt lat="39.86343816099085" lon="116.47115670909875">
        <ele>33.02663171850145</ele>
        <time>2026-08-23T00:56:55.265000Z</time>
      </trkpt>
      <trkpt lat="39.863375272930995" lon="116.47119585611803">
        <ele>32.994923954829574</ele>
        <time>2026-08-23T00:56:58.365000Z</time>
      </trkpt>
      <trkpt lat="39.863079219360024" lon="116.47117080396747">
        <ele>33.31992090307176</ele>
        <time>2026-08-23T00:57:10.465000Z</time>
      </trkpt>
      <trkpt lat="39.862808122738365" lon="116.4711306952021">
        <ele>33.370122319087386</ele>
        <time>2026-08-23T00:57:22.465000Z</time>
      </trkpt>
      <trkpt lat="39.862664074908444" lon="116.47111064189676">
        <ele>32.733334904536605</ele>
        <time>2026-08-23T00:57:28.465000Z</time>
      </trkpt>
      <trkpt lat="39.862390114823214" lon="116.47111970828132">
        <ele>33.214230900630355</ele>
        <time>2026-08-23T00:57:40.465000Z</time>
      </trkpt>
      <trkpt lat="39.86210207485161" lon="116.47109967300142">
        <ele>32.50346124731004</ele>
        <time>2026-08-23T00:57:52.465000Z</time>
      </trkpt>
      <trkpt lat="39.86181208786928" lon="116.4710987057263">
        <ele>33.422971135005355</ele>
        <time>2026-08-23T00:58:04.465000Z</time>
      </trkpt>
      <trkpt lat="39.861538097258425" lon="116.47109673288286">
        <ele>33.19308984838426</ele>
        <time>2026-08-23T00:58:16.465000Z</time>
      </trkpt>
      <trkpt lat="39.86120194320737" lon="116.47103455389913">
        <ele>33.12967432104051</ele>
        <time>2026-08-23T00:58:31.465000Z</time>
      </trkpt>
      <trkpt lat="39.86093085796686" lon="116.4709984595117">
        <ele>32.450612431392074</ele>
        <time>2026-08-23T00:58:43.465000Z</time>
      </trkpt>
      <trkpt lat="39.86065273147463" lon="116.47094731259239">
        <ele>32.786183720454574</ele>
        <time>2026-08-23T00:58:55.465000Z</time>
      </trkpt>
      <trkpt lat="39.86050971987745" lon="116.47094030555175">
        <ele>32.878659611567855</ele>
        <time>2026-08-23T00:59:01.465000Z</time>
      </trkpt>
      <trkpt lat="39.860459592049416" lon="116.47089314441192">
        <ele>32.85752618871629</ele>
        <time>2026-08-23T00:59:04.465000Z</time>
      </trkpt>
      <trkpt lat="39.86044642335475" lon="116.47083192885316">
        <ele>32.514027958735824</ele>
        <time>2026-08-23T00:59:07.565000Z</time>
      </trkpt>
      <trkpt lat="39.860555424478825" lon="116.47047264215303">
        <ele>32.733334904536605</ele>
        <time>2026-08-23T00:59:22.565000Z</time>
      </trkpt>
      <trkpt lat="39.860612428126046" lon="116.47011236134952">
        <ele>33.341061955317855</ele>
        <time>2026-08-23T00:59:34.765000Z</time>
      </trkpt>
      <trkpt lat="39.86067847510004" lon="116.46976713543982">
        <ele>32.659352665767074</ele>
        <time>2026-08-23T00:59:46.865000Z</time>
      </trkpt>
      <trkpt lat="39.86073552212363" lon="116.46942090991858">
        <ele>33.267079716548324</ele>
        <time>2026-08-23T00:59:59.165000Z</time>
      </trkpt>
      <trkpt lat="39.860791382346825" lon="116.4690054446302">
        <ele>32.931508427485824</ele>
        <time>2026-08-23T01:00:14.465000Z</time>
      </trkpt>
      <trkpt lat="39.86085834653903" lon="116.4686271119044">
        <ele>33.04776514135301</ele>
        <time>2026-08-23T01:00:26.465000Z</time>
      </trkpt>
      <trkpt lat="39.86091838216291" lon="116.46827387103178">
        <ele>32.543095951899886</ele>
        <time>2026-08-23T01:00:38.565000Z</time>
      </trkpt>
      <trkpt lat="39.86098223253631" lon="116.46785139199005">
        <ele>32.931508427485824</ele>
        <time>2026-08-23T01:00:53.565000Z</time>
      </trkpt>
      <trkpt lat="39.861044319776575" lon="116.46751521688199">
        <ele>32.70162714086473</ele>
        <time>2026-08-23T01:01:05.665000Z</time>
      </trkpt>
      <trkpt lat="39.86105761220602" lon="116.46725330774659">
        <ele>32.786183720454574</ele>
        <time>2026-08-23T01:01:14.765000Z</time>
      </trkpt>
      <trkpt lat="39.86113064373269" lon="116.46689506021237">
        <ele>32.50346124731004</ele>
        <time>2026-08-23T01:01:26.965000Z</time>
      </trkpt>
      <trkpt lat="39.86123772995492" lon="116.46655688086308">
        <ele>32.55630243383348</ele>
        <time>2026-08-23T01:01:39.365000Z</time>
      </trkpt>
      <trkpt lat="39.86127276626183" lon="116.46619764120784">
        <ele>32.55630243383348</ele>
        <time>2026-08-23T01:01:51.465000Z</time>
      </trkpt>
      <trkpt lat="39.861346990537875" lon="116.46590864067878">
        <ele>32.30264795385301</ele>
        <time>2026-08-23T01:02:00.465000Z</time>
      </trkpt>
      <trkpt lat="39.861392897051054" lon="116.46587451805152">
        <ele>32.796750431880355</ele>
        <time>2026-08-23T01:02:03.465000Z</time>
      </trkpt>
      <trkpt lat="39.86168605231668" lon="116.46593870130748">
        <ele>33.486386662349105</ele>
        <time>2026-08-23T01:02:15.465000Z</time>
      </trkpt>
      <trkpt lat="39.8618911224931" lon="116.46595819075377">
        <ele>33.433537846431136</ele>
        <time>2026-08-23T01:02:24.465000Z</time>
      </trkpt>
      <trkpt lat="39.86208770385255" lon="116.46594137970428">
        <ele>33.45467889867723</ele>
        <time>2026-08-23T01:02:33.465000Z</time>
      </trkpt>
      <trkpt lat="39.86227609514136" lon="116.46596672360849">
        <ele>33.11910760961473</ele>
        <time>2026-08-23T01:02:42.465000Z</time>
      </trkpt>
      <trkpt lat="39.86255609064051" lon="116.46597070225407">
        <ele>32.69106042943895</ele>
        <time>2026-08-23T01:02:54.465000Z</time>
      </trkpt>
      <trkpt lat="39.862838088734" lon="116.46597568408832">
        <ele>32.84695184789598</ele>
        <time>2026-08-23T01:03:06.465000Z</time>
      </trkpt>
      <trkpt lat="39.86310800577784" lon="116.4659990074182">
        <ele>33.66605890356004</ele>
        <time>2026-08-23T01:03:18.465000Z</time>
      </trkpt>
      <trkpt lat="39.86328749317634" lon="116.46604851494088">
        <ele>33.267079716548324</ele>
        <time>2026-08-23T01:03:27.465000Z</time>
      </trkpt>
      <trkpt lat="39.86356751926584" lon="116.4660707799338">
        <ele>33.09797418676317</ele>
        <time>2026-08-23T01:03:39.465000Z</time>
      </trkpt>
      <trkpt lat="39.863708787945455" lon="116.46608045726889">
        <ele>32.868092900142074</ele>
        <time>2026-08-23T01:03:45.465000Z</time>
      </trkpt>
      <trkpt lat="39.86377520283925" lon="116.46611153204417">
        <ele>32.63821161352098</ele>
        <time>2026-08-23T01:03:48.465000Z</time>
      </trkpt>
      <trkpt lat="39.86380090006582" lon="116.46629867235659">
        <ele>32.38720071874559</ele>
        <time>2026-08-23T01:03:54.465000Z</time>
      </trkpt>
      <trkpt lat="39.863769899310675" lon="116.46667095747596">
        <ele>32.95264947973192</ele>
        <time>2026-08-23T01:04:06.465000Z</time>
      </trkpt>
      <trkpt lat="39.863772602758985" lon="116.46693286068201">
        <ele>32.807317143306136</ele>
        <time>2026-08-23T01:04:15.465000Z</time>
      </trkpt>
      <trkpt lat="39.86374156107737" lon="116.46728809293135">
        <ele>32.44004571996629</ele>
        <time>2026-08-23T01:04:27.465000Z</time>
      </trkpt>
      <trkpt lat="39.86372166260462" lon="116.46769550822397">
        <ele>32.9632161911577</ele>
        <time>2026-08-23T01:04:42.465000Z</time>
      </trkpt>
      <trkpt lat="39.86370462586048" lon="116.46805074565135">
        <ele>32.157319432124496</ele>
        <time>2026-08-23T01:04:54.465000Z</time>
      </trkpt>
      <trkpt lat="39.86368626712804" lon="116.46828656973996">
        <ele>32.97378290258348</ele>
        <time>2026-08-23T01:05:03.465000Z</time>
      </trkpt>
      <trkpt lat="39.86365286117393" lon="116.46850433399509">
        <ele>32.53516901098192</ele>
        <time>2026-08-23T01:05:09.465000Z</time>
      </trkpt>
      <trkpt lat="39.863642057341586" lon="116.46894286953024">
        <ele>32.89980066381395</ele>
        <time>2026-08-23T01:05:24.465000Z</time>
      </trkpt>
      <trkpt lat="39.86362402963499" lon="116.46929811799852">
        <ele>32.40833795629442</ele>
        <time>2026-08-23T01:05:36.465000Z</time>
      </trkpt>
      <trkpt lat="39.863592010676086" lon="116.46965537829742">
        <ele>32.18902719579637</ele>
        <time>2026-08-23T01:05:48.465000Z</time>
      </trkpt>
      <trkpt lat="39.863556010978684" lon="116.47001866334622">
        <ele>32.26036966405809</ele>
        <time>2026-08-23T01:06:00.465000Z</time>
      </trkpt>
      <trkpt lat="39.86352521289712" lon="116.47045420646354">
        <ele>32.39776743017137</ele>
        <time>2026-08-23T01:06:15.465000Z</time>
      </trkpt>
      <trkpt lat="39.86350220134934" lon="116.47081147518982">
        <ele>32.524594670161605</ele>
        <time>2026-08-23T01:06:27.465000Z</time>
      </trkpt>
      <trkpt lat="39.86347896681868" lon="116.47108745788816">
        <ele>32.16788995824754</ele>
        <time>2026-08-23T01:06:36.465000Z</time>
      </trkpt>
      <trkpt lat="39.863446205083285" lon="116.47117276517464">
        <ele>33.058339482173324</ele>
        <time>2026-08-23T01:06:39.465000Z</time>
      </trkpt>
      <trkpt lat="39.86338428079487" lon="116.47119886569583">
        <ele>31.95650995336473</ele>
        <time>2026-08-23T01:06:42.465000Z</time>
      </trkpt>
      <trkpt lat="39.86309821276596" lon="116.47116879445494">
        <ele>32.50346124731004</ele>
        <time>2026-08-23T01:06:54.565000Z</time>
      </trkpt>
      <trkpt lat="39.86303023036128" lon="116.47117382080185">
        <ele>33.224797612056136</ele>
        <time>2026-08-23T01:06:57.565000Z</time>
      </trkpt>
      <trkpt lat="39.86282817173604" lon="116.47114875690033">
        <ele>33.1719564255327</ele>
        <time>2026-08-23T01:07:06.565000Z</time>
      </trkpt>
      <trkpt lat="39.86249718691234" lon="116.47114779475532">
        <ele>32.11504495702684</ele>
        <time>2026-08-23T01:07:21.665000Z</time>
      </trkpt>
      <trkpt lat="39.86236421918118" lon="116.47115684350184">
        <ele>32.56422937475145</ele>
        <time>2026-08-23T01:07:27.765000Z</time>
      </trkpt>
      <trkpt lat="39.8620801372486" lon="116.4711217542075">
        <ele>32.09390771947801</ele>
        <time>2026-08-23T01:07:40.065000Z</time>
      </trkpt>
      <trkpt lat="39.86179712763098" lon="116.47111275752626">
        <ele>32.50346124731004</ele>
        <time>2026-08-23T01:07:52.465000Z</time>
      </trkpt>
      <trkpt lat="39.86158417820076" lon="116.47112683410776">
        <ele>32.786183720454574</ele>
        <time>2026-08-23T01:08:01.465000Z</time>
      </trkpt>
      <trkpt lat="39.86138708047575" lon="116.47108771968827">
        <ele>33.47581232152879</ele>
        <time>2026-08-23T01:08:10.465000Z</time>
      </trkpt>
      <trkpt lat="39.8611069400663" lon="116.47103155509456">
        <ele>32.85752618871629</ele>
        <time>2026-08-23T01:08:22.465000Z</time>
      </trkpt>
      <trkpt lat="39.8607648698493" lon="116.4709994838483">
        <ele>31.53902948461473</ele>
        <time>2026-08-23T01:08:37.465000Z</time>
      </trkpt>
      <trkpt lat="39.86061280314594" lon="116.4709724066632">
        <ele>32.292077427729964</ele>
        <time>2026-08-23T01:08:43.465000Z</time>
      </trkpt>
      <trkpt lat="39.86050481463676" lon="116.47097442730403">
        <ele>32.00935495458543</ele>
        <time>2026-08-23T01:08:49.465000Z</time>
      </trkpt>
      <trkpt lat="39.86045568672415" lon="116.4709272660031">
        <ele>32.13618219457567</ele>
        <time>2026-08-23T01:08:52.465000Z</time>
      </trkpt>
      <trkpt lat="39.860458489339706" lon="116.47085601279151">
        <ele>31.737199192866683</ele>
        <time>2026-08-23T01:08:55.465000Z</time>
      </trkpt>
      <trkpt lat="39.860519094605344" lon="116.47071450338294">
        <ele>32.26036966405809</ele>
        <time>2026-08-23T01:09:01.465000Z</time>
      </trkpt>
      <trkpt lat="39.86057811310582" lon="116.47036024163826">
        <ele>32.514027958735824</ele>
        <time>2026-08-23T01:09:13.465000Z</time>
      </trkpt>
      <trkpt lat="39.860640937775386" lon="116.46993473091568">
        <ele>31.864030247554183</ele>
        <time>2026-08-23T01:09:28.465000Z</time>
      </trkpt>
      <trkpt lat="39.860687975962804" lon="116.46958549469078">
        <ele>32.292077427729964</ele>
        <time>2026-08-23T01:09:40.465000Z</time>
      </trkpt>
      <trkpt lat="39.860741002466376" lon="116.46923124297737">
        <ele>32.32378519140184</ele>
        <time>2026-08-23T01:09:52.465000Z</time>
      </trkpt>
      <trkpt lat="39.86082287103801" lon="116.46881878686408">
        <ele>31.45447671972215</ele>
        <time>2026-08-23T01:10:07.465000Z</time>
      </trkpt>
      <trkpt lat="39.86089190752819" lon="116.46846654670418">
        <ele>32.39776743017137</ele>
        <time>2026-08-23T01:10:19.465000Z</time>
      </trkpt>
      <trkpt lat="39.860945933743615" lon="116.46810929400628">
        <ele>32.210168248042464</ele>
        <time>2026-08-23T01:10:31.565000Z</time>
      </trkpt>
      <trkpt lat="39.86101280710536" lon="116.4676948442102">
        <ele>32.292077427729964</ele>
        <time>2026-08-23T01:10:46.565000Z</time>
      </trkpt>
      <trkpt lat="39.86102957279639" lon="116.46760854250601">
        <ele>31.3091520126909</ele>
        <time>2026-08-23T01:10:49.665000Z</time>
      </trkpt>
      <trkpt lat="39.86104961264411" lon="116.4672533087492">
        <ele>31.853459721431136</ele>
        <time>2026-08-23T01:11:01.765000Z</time>
      </trkpt>
      <trkpt lat="39.86115249419199" lon="116.46683986698373">
        <ele>32.241872197017074</ele>
        <time>2026-08-23T01:11:16.965000Z</time>
      </trkpt>
      <trkpt lat="39.86123375707787" lon="116.46656691591495">
        <ele>31.90630472265184</ele>
        <time>2026-08-23T01:11:26.165000Z</time>
      </trkpt>
      <trkpt lat="39.86128379785115" lon="116.46620968117428">
        <ele>31.623582249507308</ele>
        <time>2026-08-23T01:11:38.465000Z</time>
      </trkpt>
      <trkpt lat="39.86129148904887" lon="116.46609428410247">
        <ele>32.083337193354964</ele>
        <time>2026-08-23T01:11:41.465000Z</time>
      </trkpt>
      <trkpt lat="39.86135703281082" lon="116.46592469442825">
        <ele>32.00935495458543</ele>
        <time>2026-08-23T01:11:47.465000Z</time>
      </trkpt>
      <trkpt lat="39.86142396224622" lon="116.46589960008703">
        <ele>32.31321466527879</ele>
        <time>2026-08-23T01:11:50.465000Z</time>
      </trkpt>
      <trkpt lat="39.86149504132955" lon="116.46593069775203">
        <ele>32.220734959468246</ele>
        <time>2026-08-23T01:11:53.465000Z</time>
      </trkpt>
      <trkpt lat="39.86179185223064" lon="116.46593921795063">
        <ele>32.514027958735824</ele>
        <time>2026-08-23T01:12:05.465000Z</time>
      </trkpt>
      <trkpt lat="39.86207735821243" lon="116.46594149707651">
        <ele>32.292077427729964</ele>
        <time>2026-08-23T01:12:17.465000Z</time>
      </trkpt>
      <trkpt lat="39.862361100789656" lon="116.46597140943501">
        <ele>32.019921666011214</ele>
        <time>2026-08-23T01:12:29.465000Z</time>
      </trkpt>
      <trkpt lat="39.86264213149319" lon="116.46598774994096">
        <ele>32.64878595434129</ele>
        <time>2026-08-23T01:12:41.465000Z</time>
      </trkpt>
      <trkpt lat="39.86292014855883" lon="116.46599975635893">
        <ele>31.84288919530809</ele>
        <time>2026-08-23T01:12:53.465000Z</time>
      </trkpt>
      <trkpt lat="39.863123402341444" lon="116.46600869288234">
        <ele>32.6276449020952</ele>
        <time>2026-08-23T01:13:02.465000Z</time>
      </trkpt>
      <trkpt lat="39.86325073891541" lon="116.46603957903842">
        <ele>32.11504495702684</ele>
        <time>2026-08-23T01:13:08.465000Z</time>
      </trkpt>
      <trkpt lat="39.86353849983209" lon="116.4660657951889">
        <ele>32.31321466527879</ele>
        <time>2026-08-23T01:13:20.465000Z</time>
      </trkpt>
      <trkpt lat="39.863755455109995" lon="116.46610000592946">
        <ele>32.88923395238817</ele>
        <time>2026-08-23T01:13:29.465000Z</time>
      </trkpt>
      <trkpt lat="39.863896832506484" lon="116.4661318132498">
        <ele>32.241872197017074</ele>
        <time>2026-08-23T01:13:35.565000Z</time>
      </trkpt>
      <trkpt lat="39.86421827407768" lon="116.46607284478792">
        <ele>31.433339482173324</ele>
        <time>2026-08-23T01:13:50.565000Z</time>
      </trkpt>
      <trkpt lat="39.864417228552185" lon="116.46605977508779">
        <ele>32.58537042699754</ele>
        <time>2026-08-23T01:13:59.565000Z</time>
      </trkpt>
      <trkpt lat="39.86474895961639" lon="116.4660777776799">
        <ele>32.514027958735824</ele>
        <time>2026-08-23T01:14:14.565000Z</time>
      </trkpt>
      <trkpt lat="39.86501675006182" lon="116.4661008424642">
        <ele>31.726628666743636</ele>
        <time>2026-08-23T01:14:26.765000Z</time>
      </trkpt>
      <trkpt lat="39.86515711573041" lon="116.46609387987503">
        <ele>31.90630472265184</ele>
        <time>2026-08-23T01:14:32.865000Z</time>
      </trkpt>
      <trkpt lat="39.86547837545478" lon="116.4661359036868">
        <ele>32.10447443090379</ele>
        <time>2026-08-23T01:14:48.165000Z</time>
      </trkpt>
      <trkpt lat="39.86582142152034" lon="116.4661599433332">
        <ele>31.990857487544417</ele>
        <time>2026-08-23T01:15:03.465000Z</time>
      </trkpt>
      <trkpt lat="39.86609169383399" lon="116.4661989756901">
        <ele>32.450612431392074</ele>
        <time>2026-08-23T01:15:15.465000Z</time>
      </trkpt>
      <trkpt lat="39.8661606781851" lon="116.46621566534277">
        <ele>32.50346124731004</ele>
        <time>2026-08-23T01:15:18.465000Z</time>
      </trkpt>
      <trkpt lat="39.86649457351141" lon="116.46623010011888">
        <ele>32.157319432124496</ele>
        <time>2026-08-23T01:15:33.465000Z</time>
      </trkpt>
      <trkpt lat="39.866542756155695" lon="116.46629933196878">
        <ele>31.591874485835433</ele>
        <time>2026-08-23T01:15:36.465000Z</time>
      </trkpt>
      <trkpt lat="39.866559013138016" lon="116.46639566112418">
        <ele>31.5178922470659</ele>
        <time>2026-08-23T01:15:39.465000Z</time>
      </trkpt>
    </trkseg>
  </trk>
</gpx>