<?xml version="1.0" encoding="UTF-8"?>
<gpx xmlns="http://www.topografix.com/GPX/1/1" xmlns:gpxtpx="http://www.garmin.com/xmlschemas/TrackPointExtension/v1" xmlns:xsi="http://www.w3.org/2001/XMLSchema-instance" xsi:schemaLocation="http://www.topografix.com/GPX/1/1 http://www.topografix.com/GPX/1/1/gpx.xsd" version="1.1" creator="gpx.py -- https://github.com/tkrajina/gpxpy">
  <trk>
    <name>gpx from keep</name>
    <type>Run</type>
    <trkseg>
      <trkpt lat="39.89040133336113" lon="116.34106482391674">
        <ele>48.378974051214755</ele>
        <time>2026-09-21T22:12:28.988000Z</time>
      </trkpt>
      <trkpt lat="39.890410483961105" lon="116.34098000450032">
        <ele>48.78588399384171</ele>
        <time>2026-09-21T22:12:31.988000Z</time>
      </trkpt>
      <trkpt lat="39.89039063779895" lon="116.34089419101747">
        <ele>49.731818289496005</ele>
        <time>2026-09-21T22:12:34.988000Z</time>
      </trkpt>
      <trkpt lat="39.890341805558045" lon="116.34080139632242">
        <ele>48.566575140692294</ele>
        <time>2026-09-21T22:12:38.188000Z</time>
      </trkpt>
      <trkpt lat="39.89030999937424" lon="116.3406936317845">
        <ele>49.00255021546036</ele>
        <time>2026-09-21T22:12:46.988000Z</time>
      </trkpt>
      <trkpt lat="39.890303372367946" lon="116.34048508108388">
        <ele>48.981412024237216</ele>
        <time>2026-09-21T22:12:53.088000Z</time>
      </trkpt>
      <trkpt lat="39.890351459378664" lon="116.34043518240689">
        <ele>48.637916655279696</ele>
        <time>2026-09-21T22:12:56.088000Z</time>
      </trkpt>
      <trkpt lat="39.89048735843694" lon="116.34048805139062">
        <ele>48.577144713141024</ele>
        <time>2026-09-21T22:13:05.188000Z</time>
      </trkpt>
      <trkpt lat="39.89068527249229" lon="116.34053093405214">
        <ele>49.221859068609774</ele>
        <time>2026-09-21T22:13:14.488000Z</time>
      </trkpt>
      <trkpt lat="39.89066163584603" lon="116.34088816960998">
        <ele>48.95234784577042</ele>
        <time>2026-09-21T22:13:26.688000Z</time>
      </trkpt>
      <trkpt lat="39.89066697137557" lon="116.34126136962819">
        <ele>49.26413545105606</ele>
        <time>2026-09-21T22:13:38.988000Z</time>
      </trkpt>
      <trkpt lat="39.89067231431807" lon="116.34163157855052">
        <ele>49.04482659790665</ele>
        <time>2026-09-21T22:13:51.088000Z</time>
      </trkpt>
      <trkpt lat="39.89068114429409" lon="116.34172737332034">
        <ele>49.721248717047274</ele>
        <time>2026-09-21T22:13:54.088000Z</time>
      </trkpt>
      <trkpt lat="39.890682669713954" lon="116.34199580209429">
        <ele>50.043606848455966</ele>
        <time>2026-09-21T22:14:03.288000Z</time>
      </trkpt>
      <trkpt lat="39.890718507779596" lon="116.34208660469511">
        <ele>50.075313658453524</ele>
        <time>2026-09-21T22:14:06.388000Z</time>
      </trkpt>
      <trkpt lat="39.890786397261856" lon="116.34214746691396">
        <ele>50.33689889404923</ele>
        <time>2026-09-21T22:14:09.388000Z</time>
      </trkpt>
      <trkpt lat="39.8910614038294" lon="116.34213645543831">
        <ele>50.379175276495516</ele>
        <time>2026-09-21T22:14:21.788000Z</time>
      </trkpt>
      <trkpt lat="39.89135941462765" lon="116.34212244740998">
        <ele>49.67104634735733</ele>
        <time>2026-09-21T22:14:33.888000Z</time>
      </trkpt>
      <trkpt lat="39.89142941138008" lon="116.3421224385603">
        <ele>50.30519208405167</ele>
        <time>2026-09-21T22:14:36.888000Z</time>
      </trkpt>
      <trkpt lat="39.891715350613666" lon="116.34214934523152">
        <ele>50.35803708527237</ele>
        <time>2026-09-21T22:14:48.888000Z</time>
      </trkpt>
      <trkpt lat="39.891852390018606" lon="116.34212338296462">
        <ele>50.26291570160538</ele>
        <time>2026-09-21T22:14:54.888000Z</time>
      </trkpt>
      <trkpt lat="39.89213529775181" lon="116.34216825190822">
        <ele>49.81637105438858</ele>
        <time>2026-09-21T22:15:06.888000Z</time>
      </trkpt>
      <trkpt lat="39.8924123324549" lon="116.34214127404907">
        <ele>50.1070214221254</ele>
        <time>2026-09-21T22:15:18.988000Z</time>
      </trkpt>
      <trkpt lat="39.89261027405724" lon="116.34216918973662">
        <ele>50.21271237824112</ele>
        <time>2026-09-21T22:15:28.188000Z</time>
      </trkpt>
      <trkpt lat="39.89288259073834" lon="116.34198255152876">
        <ele>50.95254907105118</ele>
        <time>2026-09-21T22:15:40.388000Z</time>
      </trkpt>
      <trkpt lat="39.89316562176413" lon="116.34195756876501">
        <ele>51.264336676336825</ele>
        <time>2026-09-21T22:15:52.788000Z</time>
      </trkpt>
      <trkpt lat="39.893459585336956" lon="116.34197050402506">
        <ele>51.034459204413</ele>
        <time>2026-09-21T22:16:04.888000Z</time>
      </trkpt>
      <trkpt lat="39.89351657390763" lon="116.3419754862156">
        <ele>50.920841307379305</ele>
        <time>2026-09-21T22:16:07.888000Z</time>
      </trkpt>
      <trkpt lat="39.89339652832658" lon="116.34200443989991">
        <ele>49.877142996527255</ele>
        <time>2026-09-21T22:16:13.888000Z</time>
      </trkpt>
      <trkpt lat="39.89307959576328" lon="116.34197454358605">
        <ele>46.65092668030411</ele>
        <time>2026-09-21T22:16:29.088000Z</time>
      </trkpt>
      <trkpt lat="39.893044528663324" lon="116.34201346532447">
        <ele>46.85702428314835</ele>
        <time>2026-09-21T22:16:32.088000Z</time>
      </trkpt>
      <trkpt lat="39.89299896752167" lon="116.3423503229084">
        <ele>47.74218568298966</ele>
        <time>2026-09-21T22:16:50.588000Z</time>
      </trkpt>
      <trkpt lat="39.89305265703535" lon="116.34253720755274">
        <ele>48.60885152313858</ele>
        <time>2026-09-21T22:16:59.788000Z</time>
      </trkpt>
      <trkpt lat="39.893172039080994" lon="116.34259260123363">
        <ele>48.733038992621005</ele>
        <time>2026-09-21T22:17:02.788000Z</time>
      </trkpt>
      <trkpt lat="39.89334028912904" lon="116.34270412437101">
        <ele>50.26291570160538</ele>
        <time>2026-09-21T22:17:08.788000Z</time>
      </trkpt>
      <trkpt lat="39.89340517958732" lon="116.3427708160993">
        <ele>51.05559739563614</ele>
        <time>2026-09-21T22:17:11.788000Z</time>
      </trkpt>
      <trkpt lat="39.893338172170786" lon="116.34277681194055">
        <ele>51.88791379425675</ele>
        <time>2026-09-21T22:17:17.788000Z</time>
      </trkpt>
      <trkpt lat="39.893177223313046" lon="116.34275188493474">
        <ele>51.618401617743075</ele>
        <time>2026-09-21T22:17:23.888000Z</time>
      </trkpt>
      <trkpt lat="39.89298122920073" lon="116.3427629329247">
        <ele>51.24319848511368</ele>
        <time>2026-09-21T22:17:32.888000Z</time>
      </trkpt>
      <trkpt lat="39.89291804927108" lon="116.34280249321073">
        <ele>51.232629866339266</ele>
        <time>2026-09-21T22:17:35.888000Z</time>
      </trkpt>
      <trkpt lat="39.892854053796555" lon="116.34287576981495">
        <ele>50.772873968817294</ele>
        <time>2026-09-21T22:17:38.888000Z</time>
      </trkpt>
      <trkpt lat="39.892788723976096" lon="116.34304731159169">
        <ele>51.51271066162735</ele>
        <time>2026-09-21T22:17:44.888000Z</time>
      </trkpt>
      <trkpt lat="39.89259371726446" lon="116.34305631735413">
        <ele>50.6064110705629</ele>
        <time>2026-09-21T22:17:53.988000Z</time>
      </trkpt>
      <trkpt lat="39.89259371726446" lon="116.34305631735413">
        <ele>41.31288040882509</ele>
        <time>2026-09-21T22:17:56.988000Z</time>
      </trkpt>
      <trkpt lat="39.892545398726234" lon="116.34323993742954">
        <ele>39.84145592837887</ele>
        <time>2026-09-21T22:18:27.088000Z</time>
      </trkpt>
      <trkpt lat="39.89281540717715" lon="116.3432279284366">
        <ele>39.09105013995724</ele>
        <time>2026-09-21T22:18:39.388000Z</time>
      </trkpt>
      <trkpt lat="39.89310143233159" lon="116.34320593838844">
        <ele>39.04084681659298</ele>
        <time>2026-09-21T22:18:51.688000Z</time>
      </trkpt>
      <trkpt lat="39.893424480209575" lon="116.34316997303202">
        <ele>38.86381434588986</ele>
        <time>2026-09-21T22:19:03.888000Z</time>
      </trkpt>
      <trkpt lat="39.89371849808249" lon="116.34315197360634">
        <ele>39.069911948734095</ele>
        <time>2026-09-21T22:19:15.888000Z</time>
      </trkpt>
      <trkpt lat="39.8940084917557" lon="116.34314794532105">
        <ele>39.67499255328732</ele>
        <time>2026-09-21T22:19:27.888000Z</time>
      </trkpt>
      <trkpt lat="39.89429051545142" lon="116.34312695371521">
        <ele>39.29978989749508</ele>
        <time>2026-09-21T22:19:39.888000Z</time>
      </trkpt>
      <trkpt lat="39.89460955317591" lon="116.34309697632766">
        <ele>39.466252795749476</ele>
        <time>2026-09-21T22:19:51.888000Z</time>
      </trkpt>
      <trkpt lat="39.89489757316222" lon="116.3430779797856">
        <ele>40.03962659030514</ele>
        <time>2026-09-21T22:20:03.988000Z</time>
      </trkpt>
      <trkpt lat="39.89519260157635" lon="116.34305399286374">
        <ele>39.68556164889889</ele>
        <time>2026-09-21T22:20:16.088000Z</time>
      </trkpt>
      <trkpt lat="39.895465601354026" lon="116.34304697303466">
        <ele>39.44511460452633</ele>
        <time>2026-09-21T22:20:28.288000Z</time>
      </trkpt>
      <trkpt lat="39.89577563436904" lon="116.34301999053139">
        <ele>39.98678063541012</ele>
        <time>2026-09-21T22:20:40.588000Z</time>
      </trkpt>
      <trkpt lat="39.896075694058254" lon="116.34297804082426">
        <ele>39.63271617084103</ele>
        <time>2026-09-21T22:20:52.788000Z</time>
      </trkpt>
      <trkpt lat="39.89635371636862" lon="116.34295804769299">
        <ele>39.310358516269496</ele>
        <time>2026-09-21T22:21:04.788000Z</time>
      </trkpt>
      <trkpt lat="39.89664170331814" lon="116.34295801126699">
        <ele>40.3302764812048</ele>
        <time>2026-09-21T22:21:16.788000Z</time>
      </trkpt>
      <trkpt lat="39.896926856397165" lon="116.3428631749702">
        <ele>39.95507382541256</ele>
        <time>2026-09-21T22:21:28.788000Z</time>
      </trkpt>
      <trkpt lat="39.89716477398846" lon="116.34290405863808">
        <ele>39.22580575137692</ele>
        <time>2026-09-21T22:21:37.788000Z</time>
      </trkpt>
      <trkpt lat="39.89746476044358" lon="116.34290402069347">
        <ele>40.361983768039515</ele>
        <time>2026-09-21T22:21:49.788000Z</time>
      </trkpt>
      <trkpt lat="39.897777800503015" lon="116.34287304629997">
        <ele>39.706699840122035</ele>
        <time>2026-09-21T22:22:04.788000Z</time>
      </trkpt>
      <trkpt lat="39.897856824910036" lon="116.34285706996467">
        <ele>39.65385436206417</ele>
        <time>2026-09-21T22:22:07.788000Z</time>
      </trkpt>
      <trkpt lat="39.89817576685692" lon="116.34288197702915">
        <ele>39.20466756015377</ele>
        <time>2026-09-21T22:22:19.788000Z</time>
      </trkpt>
      <trkpt lat="39.898462816880134" lon="116.34284601645686">
        <ele>39.725195876651576</ele>
        <time>2026-09-21T22:22:31.788000Z</time>
      </trkpt>
      <trkpt lat="39.898529852334704" lon="116.34282405427393">
        <ele>39.37377308993893</ele>
        <time>2026-09-21T22:22:34.788000Z</time>
      </trkpt>
      <trkpt lat="39.89877123359687" lon="116.34260049566342">
        <ele>39.98678063541012</ele>
        <time>2026-09-21T22:22:46.788000Z</time>
      </trkpt>
      <trkpt lat="39.89879032738491" lon="116.34254660716111">
        <ele>39.09105013995724</ele>
        <time>2026-09-21T22:22:49.788000Z</time>
      </trkpt>
      <trkpt lat="39.89867606972608" lon="116.34269630532853">
        <ele>39.63271617084103</ele>
        <time>2026-09-21T22:22:55.788000Z</time>
      </trkpt>
      <trkpt lat="39.898544921615645" lon="116.34278413656762">
        <ele>39.79917954593258</ele>
        <time>2026-09-21T22:23:01.788000Z</time>
      </trkpt>
      <trkpt lat="39.89821686989791" lon="116.34282209807265">
        <ele>39.19674109607296</ele>
        <time>2026-09-21T22:23:13.788000Z</time>
      </trkpt>
      <trkpt lat="39.89793687025776" lon="116.34282911875773">
        <ele>39.862594119602015</ele>
        <time>2026-09-21T22:23:25.788000Z</time>
      </trkpt>
      <trkpt lat="39.8975988033283" lon="116.34287606263037">
        <ele>39.21787928729611</ele>
        <time>2026-09-21T22:23:40.788000Z</time>
      </trkpt>
      <trkpt lat="39.89729270281136" lon="116.34289921012052">
        <ele>39.22580575137692</ele>
        <time>2026-09-21T22:23:52.788000Z</time>
      </trkpt>
      <trkpt lat="39.897006814329714" lon="116.34288511857811">
        <ele>39.363204471164515</ele>
        <time>2026-09-21T22:24:04.888000Z</time>
      </trkpt>
      <trkpt lat="39.89669385820132" lon="116.34286819392202">
        <ele>40.319707385593226</ele>
        <time>2026-09-21T22:24:19.888000Z</time>
      </trkpt>
      <trkpt lat="39.89641474329336" lon="116.34294107570926">
        <ele>39.65385436206417</ele>
        <time>2026-09-21T22:24:34.988000Z</time>
      </trkpt>
      <trkpt lat="39.8961717875037" lon="116.34292214638506">
        <ele>39.820317737155726</ele>
        <time>2026-09-21T22:24:44.088000Z</time>
      </trkpt>
      <trkpt lat="39.89583070344141" lon="116.34297906970983">
        <ele>39.569301597171595</ele>
        <time>2026-09-21T22:24:56.288000Z</time>
      </trkpt>
      <trkpt lat="39.89574972458443" lon="116.34296910096784">
        <ele>39.8308868327673</ele>
        <time>2026-09-21T22:24:59.388000Z</time>
      </trkpt>
      <trkpt lat="39.89569269225626" lon="116.342989066152">
        <ele>39.09105013995724</ele>
        <time>2026-09-21T22:25:02.488000Z</time>
      </trkpt>
      <trkpt lat="39.89539574069261" lon="116.34296914573977">
        <ele>39.310358516269496</ele>
        <time>2026-09-21T22:25:14.788000Z</time>
      </trkpt>
      <trkpt lat="39.89508391850944" lon="116.34297763996183">
        <ele>39.51909827380734</ele>
        <time>2026-09-21T22:25:26.788000Z</time>
      </trkpt>
      <trkpt lat="39.89478169362305" lon="116.34301213305082">
        <ele>39.01970862536984</ele>
        <time>2026-09-21T22:25:38.788000Z</time>
      </trkpt>
      <trkpt lat="39.89445664739483" lon="116.34304710064637">
        <ele>39.63271617084103</ele>
        <time>2026-09-21T22:25:50.788000Z</time>
      </trkpt>
      <trkpt lat="39.894186658006184" lon="116.34304813269341">
        <ele>39.29978989749508</ele>
        <time>2026-09-21T22:26:02.788000Z</time>
      </trkpt>
      <trkpt lat="39.89390160477229" lon="116.34308608895782">
        <ele>39.352634898715785</ele>
        <time>2026-09-21T22:26:14.788000Z</time>
      </trkpt>
      <trkpt lat="39.893613570897955" lon="116.34311306871312">
        <ele>39.65385436206417</ele>
        <time>2026-09-21T22:26:26.788000Z</time>
      </trkpt>
      <trkpt lat="39.89333256288366" lon="116.34312507906962">
        <ele>39.62214707522946</ele>
        <time>2026-09-21T22:26:38.788000Z</time>
      </trkpt>
      <trkpt lat="39.893046551632" lon="116.34313908586506">
        <ele>39.67499255328732</ele>
        <time>2026-09-21T22:26:50.788000Z</time>
      </trkpt>
      <trkpt lat="39.8927545127896" lon="116.34316905986225">
        <ele>39.39226912646847</ele>
        <time>2026-09-21T22:27:02.788000Z</time>
      </trkpt>
      <trkpt lat="39.892465505207504" lon="116.34318107124331">
        <ele>39.455683700137904</ele>
        <time>2026-09-21T22:27:14.788000Z</time>
      </trkpt>
      <trkpt lat="39.892169496226984" lon="116.34319408141535">
        <ele>39.28922032504635</ele>
        <time>2026-09-21T22:27:26.788000Z</time>
      </trkpt>
      <trkpt lat="39.891887463972495" lon="116.34322006256592">
        <ele>39.13332652240353</ele>
        <time>2026-09-21T22:27:38.788000Z</time>
      </trkpt>
      <trkpt lat="39.89160243536889" lon="116.34324404830106">
        <ele>38.810968867831996</ele>
        <time>2026-09-21T22:27:50.888000Z</time>
      </trkpt>
      <trkpt lat="39.89131844854068" lon="116.34324408421575">
        <ele>39.33149670749264</ele>
        <time>2026-09-21T22:28:02.888000Z</time>
      </trkpt>
      <trkpt lat="39.891016479983975" lon="116.3432341433656">
        <ele>39.51909827380734</ele>
        <time>2026-09-21T22:28:14.888000Z</time>
      </trkpt>
      <trkpt lat="39.89072550048567" lon="116.34323018854876">
        <ele>39.352634898715785</ele>
        <time>2026-09-21T22:28:26.988000Z</time>
      </trkpt>
      <trkpt lat="39.89042952820736" lon="116.34322224274881">
        <ele>38.48861169009762</ele>
        <time>2026-09-21T22:28:39.088000Z</time>
      </trkpt>
      <trkpt lat="39.89015955647838" lon="116.34321329575818">
        <ele>38.570522061878016</ele>
        <time>2026-09-21T22:28:51.288000Z</time>
      </trkpt>
      <trkpt lat="39.889846572838835" lon="116.3432123374338">
        <ele>38.89287947803097</ele>
        <time>2026-09-21T22:29:03.488000Z</time>
      </trkpt>
      <trkpt lat="39.88952159849425" lon="116.34320639110875">
        <ele>38.48861169009762</ele>
        <time>2026-09-21T22:29:15.788000Z</time>
      </trkpt>
      <trkpt lat="39.88917764248951" lon="116.34319046815374">
        <ele>39.12275742679196</ele>
        <time>2026-09-21T22:29:30.888000Z</time>
      </trkpt>
      <trkpt lat="39.888893662785904" lon="116.34318651245168">
        <ele>38.73698519855099</ele>
        <time>2026-09-21T22:29:42.888000Z</time>
      </trkpt>
      <trkpt lat="39.888617693181104" lon="116.3431765683202">
        <ele>39.466252795749476</ele>
        <time>2026-09-21T22:29:54.988000Z</time>
      </trkpt>
      <trkpt lat="39.88830372015605" lon="116.34316962270303">
        <ele>39.04877375751095</ele>
        <time>2026-09-21T22:30:10.088000Z</time>
      </trkpt>
      <trkpt lat="39.888007721905424" lon="116.34317664544893">
        <ele>38.94572495608883</ele>
        <time>2026-09-21T22:30:22.288000Z</time>
      </trkpt>
      <trkpt lat="39.88783533558827" lon="116.34315528147857">
        <ele>38.884952537113</ele>
        <time>2026-09-21T22:30:28.388000Z</time>
      </trkpt>
      <trkpt lat="39.88755173646342" lon="116.34318069471631">
        <ele>39.1438956180151</ele>
        <time>2026-09-21T22:30:40.688000Z</time>
      </trkpt>
      <trkpt lat="39.887270777639436" lon="116.34316476379918">
        <ele>38.914017669254115</ele>
        <time>2026-09-21T22:30:52.788000Z</time>
      </trkpt>
      <trkpt lat="39.88695978191336" lon="116.34317079053655">
        <ele>38.90344857364254</ele>
        <time>2026-09-21T22:31:04.788000Z</time>
      </trkpt>
      <trkpt lat="39.886678796986125" lon="116.34316982816114">
        <ele>38.74755429416256</ele>
        <time>2026-09-21T22:31:16.788000Z</time>
      </trkpt>
      <trkpt lat="39.886391810619905" lon="116.34316986444666">
        <ele>38.559952966266444</ele>
        <time>2026-09-21T22:31:28.788000Z</time>
      </trkpt>
      <trkpt lat="39.88606483837818" lon="116.34316292046957">
        <ele>38.966863147311976</ele>
        <time>2026-09-21T22:31:43.788000Z</time>
      </trkpt>
      <trkpt lat="39.885760861579676" lon="116.34315796939008">
        <ele>39.48739098697262</ele>
        <time>2026-09-21T22:31:55.788000Z</time>
      </trkpt>
      <trkpt lat="39.885477864627084" lon="116.34316399258432">
        <ele>38.97743224292355</ele>
        <time>2026-09-21T22:32:07.788000Z</time>
      </trkpt>
      <trkpt lat="39.885191860866456" lon="116.34317400776978">
        <ele>38.84267615466671</ele>
        <time>2026-09-21T22:32:19.788000Z</time>
      </trkpt>
      <trkpt lat="39.88485986804403" lon="116.3431790392569">
        <ele>38.67621301799374</ele>
        <time>2026-09-21T22:32:34.788000Z</time>
      </trkpt>
      <trkpt lat="39.884580888390225" lon="116.34317508291622">
        <ele>39.28922032504635</ele>
        <time>2026-09-21T22:32:46.888000Z</time>
      </trkpt>
      <trkpt lat="39.884307920667766" lon="116.34316414049702">
        <ele>38.87438344150143</ele>
        <time>2026-09-21T22:32:58.888000Z</time>
      </trkpt>
      <trkpt lat="39.88402592028158" lon="116.34317215936942">
        <ele>38.29044102817135</ele>
        <time>2026-09-21T22:33:11.088000Z</time>
      </trkpt>
      <trkpt lat="39.883752926453305" lon="116.34317618549284">
        <ele>38.884952537113</ele>
        <time>2026-09-21T22:33:23.188000Z</time>
      </trkpt>
      <trkpt lat="39.883433933120415" lon="116.34318121533437">
        <ele>38.83210705905514</ele>
        <time>2026-09-21T22:33:38.388000Z</time>
      </trkpt>
      <trkpt lat="39.883283914222964" lon="116.34319620284555">
        <ele>39.23637532382565</ele>
        <time>2026-09-21T22:33:44.588000Z</time>
      </trkpt>
      <trkpt lat="39.88299095103629" lon="116.34318326714134">
        <ele>38.48861169009762</ele>
        <time>2026-09-21T22:33:56.788000Z</time>
      </trkpt>
      <trkpt lat="39.88269995989309" lon="116.34318629763641">
        <ele>38.70527791171627</ele>
        <time>2026-09-21T22:34:08.788000Z</time>
      </trkpt>
      <trkpt lat="39.88235405944476" lon="116.34318657570388">
        <ele>38.655074826770594</ele>
        <time>2026-09-21T22:34:23.788000Z</time>
      </trkpt>
      <trkpt lat="39.8820709973802" lon="116.34318238553402">
        <ele>39.10161923556881</ele>
        <time>2026-09-21T22:34:35.788000Z</time>
      </trkpt>
      <trkpt lat="39.8817520146375" lon="116.34318142795405">
        <ele>38.456904403262904</ele>
        <time>2026-09-21T22:34:50.788000Z</time>
      </trkpt>
      <trkpt lat="39.88160297658867" lon="116.34320739227775">
        <ele>38.509749881320765</ele>
        <time>2026-09-21T22:34:56.788000Z</time>
      </trkpt>
      <trkpt lat="39.88131898346454" lon="116.34321141979132">
        <ele>38.27987193255978</ele>
        <time>2026-09-21T22:35:08.788000Z</time>
      </trkpt>
      <trkpt lat="39.88104798972607" lon="116.34321544566161">
        <ele>38.47804259448605</ele>
        <time>2026-09-21T22:35:20.788000Z</time>
      </trkpt>
      <trkpt lat="39.88076594951526" lon="116.34324641633671">
        <ele>38.414628020816615</ele>
        <time>2026-09-21T22:35:32.788000Z</time>
      </trkpt>
      <trkpt lat="39.88047591669728" lon="116.34327339642195">
        <ele>38.48861169009762</ele>
        <time>2026-09-21T22:35:44.788000Z</time>
      </trkpt>
      <trkpt lat="39.88019491480691" lon="116.34328241308654">
        <ele>38.63393663554745</ele>
        <time>2026-09-21T22:35:56.788000Z</time>
      </trkpt>
      <trkpt lat="39.879904894232105" lon="116.34330240785103">
        <ele>37.89409994273739</ele>
        <time>2026-09-21T22:36:08.788000Z</time>
      </trkpt>
      <trkpt lat="39.879570867150306" lon="116.3433273977155">
        <ele>38.23759555011349</ele>
        <time>2026-09-21T22:36:23.888000Z</time>
      </trkpt>
      <trkpt lat="39.87924083817083" lon="116.34335338499349">
        <ele>37.999790898853114</ele>
        <time>2026-09-21T22:36:38.888000Z</time>
      </trkpt>
      <trkpt lat="39.878962549269104" lon="116.34336799249147">
        <ele>38.27987193255978</ele>
        <time>2026-09-21T22:36:50.988000Z</time>
      </trkpt>
      <trkpt lat="39.878680806687115" lon="116.3433873846142">
        <ele>38.33271741061764</ele>
        <time>2026-09-21T22:37:03.088000Z</time>
      </trkpt>
      <trkpt lat="39.87838378486987" lon="116.34340837821291">
        <ele>37.957514516406825</ele>
        <time>2026-09-21T22:37:15.288000Z</time>
      </trkpt>
      <trkpt lat="39.87810676035232" lon="116.34343036720087">
        <ele>38.23759555011349</ele>
        <time>2026-09-21T22:37:27.488000Z</time>
      </trkpt>
      <trkpt lat="39.877808069352525" lon="116.3434402630265">
        <ele>38.76869248538571</ele>
        <time>2026-09-21T22:37:39.788000Z</time>
      </trkpt>
      <trkpt lat="39.87757467645064" lon="116.34346760984376">
        <ele>38.82153796344357</ele>
        <time>2026-09-21T22:37:48.788000Z</time>
      </trkpt>
      <trkpt lat="39.87729772236406" lon="116.3434753753444">
        <ele>38.73698519855099</ele>
        <time>2026-09-21T22:38:00.788000Z</time>
      </trkpt>
      <trkpt lat="39.877225720739595" lon="116.34347837817212">
        <ele>38.02885579257565</ele>
        <time>2026-09-21T22:38:03.788000Z</time>
      </trkpt>
      <trkpt lat="39.87705362161095" lon="116.34354027032555">
        <ele>38.612798444324305</ele>
        <time>2026-09-21T22:38:12.788000Z</time>
      </trkpt>
      <trkpt lat="39.87677558513652" lon="116.3435692448761">
        <ele>38.17682313113766</ele>
        <time>2026-09-21T22:38:24.788000Z</time>
      </trkpt>
      <trkpt lat="39.87646058526695" lon="116.34357826588943">
        <ele>37.217677823596766</ele>
        <time>2026-09-21T22:38:39.788000Z</time>
      </trkpt>
      <trkpt lat="39.876205554644976" lon="116.34360324590786">
        <ele>36.9375967898901</ele>
        <time>2026-09-21T22:38:51.788000Z</time>
      </trkpt>
      <trkpt lat="39.875929445303385" lon="116.34367413258346">
        <ele>37.508327952915</ele>
        <time>2026-09-21T22:39:03.788000Z</time>
      </trkpt>
      <trkpt lat="39.875611494239635" lon="116.3436552124251">
        <ele>37.09349106937008</ele>
        <time>2026-09-21T22:39:18.788000Z</time>
      </trkpt>
      <trkpt lat="39.87535448809224" lon="116.34366622194936">
        <ele>37.93637632518368</ele>
        <time>2026-09-21T22:39:30.788000Z</time>
      </trkpt>
      <trkpt lat="39.87529954811267" lon="116.34363329777732">
        <ele>37.57174252658444</ele>
        <time>2026-09-21T22:39:33.788000Z</time>
      </trkpt>
      <trkpt lat="39.87496255989997" lon="116.34363633410551">
        <ele>38.258733741336634</ele>
        <time>2026-09-21T22:39:48.788000Z</time>
      </trkpt>
      <trkpt lat="39.874677556945045" lon="116.34364634925048">
        <ele>37.80162047534542</ele>
        <time>2026-09-21T22:40:00.888000Z</time>
      </trkpt>
      <trkpt lat="39.87440049968691" lon="116.34367951271123">
        <ele>38.0077176013525</ele>
        <time>2026-09-21T22:40:12.888000Z</time>
      </trkpt>
      <trkpt lat="39.874111488471264" lon="116.34370230392852">
        <ele>38.07113217502194</ele>
        <time>2026-09-21T22:40:24.988000Z</time>
      </trkpt>
      <trkpt lat="39.873908995973466" lon="116.34369910817672">
        <ele>38.16625403552609</ele>
        <time>2026-09-21T22:40:34.088000Z</time>
      </trkpt>
      <trkpt lat="39.873621139640065" lon="116.34373671051824">
        <ele>37.64572619586544</ele>
        <time>2026-09-21T22:40:46.288000Z</time>
      </trkpt>
      <trkpt lat="39.87333662356497" lon="116.34378030783293">
        <ele>37.812189570956996</ele>
        <time>2026-09-21T22:40:58.588000Z</time>
      </trkpt>
      <trkpt lat="39.873053109097036" lon="116.34379188958572">
        <ele>37.518897048526576</ele>
        <time>2026-09-21T22:41:10.688000Z</time>
      </trkpt>
      <trkpt lat="39.87271232748329" lon="116.34383620138249">
        <ele>37.664222232394984</ele>
        <time>2026-09-21T22:41:25.888000Z</time>
      </trkpt>
      <trkpt lat="39.87243131587967" lon="116.34385120564677">
        <ele>37.320726386600306</ele>
        <time>2026-09-21T22:41:37.888000Z</time>
      </trkpt>
      <trkpt lat="39.872133256707514" lon="116.34389415375786">
        <ele>38.07113217502194</ele>
        <time>2026-09-21T22:41:49.888000Z</time>
      </trkpt>
      <trkpt lat="39.87182420853718" lon="116.34393111578488">
        <ele>37.759344092899134</ele>
        <time>2026-09-21T22:42:04.888000Z</time>
      </trkpt>
      <trkpt lat="39.87154218324253" lon="116.34395410355762">
        <ele>37.164832345538905</ele>
        <time>2026-09-21T22:42:16.888000Z</time>
      </trkpt>
      <trkpt lat="39.87126213885574" lon="116.34398806820619">
        <ele>37.812189570956996</ele>
        <time>2026-09-21T22:42:28.888000Z</time>
      </trkpt>
      <trkpt lat="39.87097677439175" lon="116.34402937922519">
        <ele>37.70649861484127</ele>
        <time>2026-09-21T22:42:40.988000Z</time>
      </trkpt>
      <trkpt lat="39.87069089667928" lon="116.34406042057176">
        <ele>37.57174252658444</ele>
        <time>2026-09-21T22:42:53.288000Z</time>
      </trkpt>
      <trkpt lat="39.870390063417254" lon="116.34409756449884">
        <ele>37.508327952915</ele>
        <time>2026-09-21T22:43:05.588000Z</time>
      </trkpt>
      <trkpt lat="39.87011394764509" lon="116.34413291188575">
        <ele>37.83332776218014</ele>
        <time>2026-09-21T22:43:17.788000Z</time>
      </trkpt>
      <trkpt lat="39.8698180126286" lon="116.34416899919741">
        <ele>37.68536042361813</ele>
        <time>2026-09-21T22:43:29.788000Z</time>
      </trkpt>
      <trkpt lat="39.86953283974408" lon="116.3442128192096">
        <ele>37.35243367343502</ele>
        <time>2026-09-21T22:43:41.788000Z</time>
      </trkpt>
      <trkpt lat="39.86932987446384" lon="116.34419887391937">
        <ele>37.68536042361813</ele>
        <time>2026-09-21T22:43:50.788000Z</time>
      </trkpt>
      <trkpt lat="39.86904079982556" lon="116.34425080253425">
        <ele>38.32214831500607</ele>
        <time>2026-09-21T22:44:02.788000Z</time>
      </trkpt>
      <trkpt lat="39.86876832082591" lon="116.34429830943539">
        <ele>37.55060433536129</ele>
        <time>2026-09-21T22:44:14.788000Z</time>
      </trkpt>
      <trkpt lat="39.86849066997292" lon="116.34434268126698">
        <ele>37.405279151492884</ele>
        <time>2026-09-21T22:44:26.788000Z</time>
      </trkpt>
      <trkpt lat="39.86829266138723" lon="116.34435368349024">
        <ele>37.70649861484127</ele>
        <time>2026-09-21T22:44:35.788000Z</time>
      </trkpt>
      <trkpt lat="39.86847168475129" lon="116.34433470024945">
        <ele>38.22702645450192</ele>
        <time>2026-09-21T22:44:47.788000Z</time>
      </trkpt>
      <trkpt lat="39.86877766013743" lon="116.34433965121737">
        <ele>37.717067710452845</ele>
        <time>2026-09-21T22:44:59.788000Z</time>
      </trkpt>
      <trkpt lat="39.869110739274305" lon="116.34428372523968">
        <ele>37.97865270762997</ele>
        <time>2026-09-21T22:45:14.788000Z</time>
      </trkpt>
      <trkpt lat="39.869433791421784" lon="116.34424376739399">
        <ele>37.89409994273739</ele>
        <time>2026-09-21T22:45:29.888000Z</time>
      </trkpt>
      <trkpt lat="39.86975879177057" lon="116.34423374707198">
        <ele>38.18475007205563</ele>
        <time>2026-09-21T22:45:45.088000Z</time>
      </trkpt>
      <trkpt lat="39.870050842170734" lon="116.34419578903433">
        <ele>37.915238133960536</ele>
        <time>2026-09-21T22:45:57.388000Z</time>
      </trkpt>
      <trkpt lat="39.87032587796627" lon="116.34416681448741">
        <ele>38.13454674869137</ele>
        <time>2026-09-21T22:46:09.788000Z</time>
      </trkpt>
      <trkpt lat="39.87061387859954" lon="116.3441577967802">
        <ele>37.561173430972865</ele>
        <time>2026-09-21T22:46:21.788000Z</time>
      </trkpt>
      <trkpt lat="39.870886890390764" lon="116.34414279343082">
        <ele>37.79105137973385</ele>
        <time>2026-09-21T22:46:33.788000Z</time>
      </trkpt>
      <trkpt lat="39.87115596113071" lon="116.3440938612279">
        <ele>37.14369415431576</ele>
        <time>2026-09-21T22:46:45.888000Z</time>
      </trkpt>
      <trkpt lat="39.87151207239317" lon="116.34401897213985">
        <ele>38.155684939914515</ele>
        <time>2026-09-21T22:47:01.088000Z</time>
      </trkpt>
      <trkpt lat="39.8718010955713" lon="116.34399698137108">
        <ele>38.54145716815548</ele>
        <time>2026-09-21T22:47:13.388000Z</time>
      </trkpt>
      <trkpt lat="39.87194813298295" lon="116.34397101687922">
        <ele>37.6959295192297</ele>
        <time>2026-09-21T22:47:22.688000Z</time>
      </trkpt>
      <trkpt lat="39.87228063801453" lon="116.34395712028923">
        <ele>37.8518235602911</ele>
        <time>2026-09-21T22:47:34.788000Z</time>
      </trkpt>
      <trkpt lat="39.87262120922759" lon="116.34390706502178">
        <ele>37.957514516406825</ele>
        <time>2026-09-21T22:47:49.788000Z</time>
      </trkpt>
      <trkpt lat="39.87290926547949" lon="116.34386611399728">
        <ele>37.90466903834896</ele>
        <time>2026-09-21T22:48:01.788000Z</time>
      </trkpt>
      <trkpt lat="39.87318197846616" lon="116.3438308246568">
        <ele>37.98922180324154</ele>
        <time>2026-09-21T22:48:13.788000Z</time>
      </trkpt>
      <trkpt lat="39.87345869499673" lon="116.34381407352872">
        <ele>38.13454674869137</ele>
        <time>2026-09-21T22:48:25.788000Z</time>
      </trkpt>
      <trkpt lat="39.87374635620663" lon="116.34378916864658">
        <ele>38.559952966266444</ele>
        <time>2026-09-21T22:48:37.788000Z</time>
      </trkpt>
      <trkpt lat="39.87394238263977" lon="116.34376818765068">
        <ele>37.90466903834896</ele>
        <time>2026-09-21T22:48:46.788000Z</time>
      </trkpt>
      <trkpt lat="39.87422639008277" lon="116.3437418580733">
        <ele>37.1251983562048</ele>
        <time>2026-09-21T22:48:58.788000Z</time>
      </trkpt>
      <trkpt lat="39.87451447499558" lon="116.3436982613422">
        <ele>37.80162047534542</ele>
        <time>2026-09-21T22:49:10.788000Z</time>
      </trkpt>
      <trkpt lat="39.874802349950095" lon="116.34369216563488">
        <ele>37.97865270762997</ele>
        <time>2026-09-21T22:49:22.788000Z</time>
      </trkpt>
      <trkpt lat="39.87507450393889" lon="116.34366525942347">
        <ele>37.70649861484127</ele>
        <time>2026-09-21T22:49:34.788000Z</time>
      </trkpt>
      <trkpt lat="39.8753664909571" lon="116.34366422460648">
        <ele>37.58231162219601</ele>
        <time>2026-09-21T22:49:46.788000Z</time>
      </trkpt>
      <trkpt lat="39.87543044264065" lon="116.34369016226576">
        <ele>38.102839461856654</ele>
        <time>2026-09-21T22:49:49.888000Z</time>
      </trkpt>
      <trkpt lat="39.87570146716407" lon="116.34366817392015">
        <ele>37.94694542079525</ele>
        <time>2026-09-21T22:50:01.888000Z</time>
      </trkpt>
      <trkpt lat="39.875898465939706" lon="116.34366315945637">
        <ele>37.114629260593226</ele>
        <time>2026-09-21T22:50:10.888000Z</time>
      </trkpt>
      <trkpt lat="39.87618550358609" lon="116.34363318580019">
        <ele>37.08292197375851</ele>
        <time>2026-09-21T22:50:25.988000Z</time>
      </trkpt>
      <trkpt lat="39.87635448297164" lon="116.3436401498283">
        <ele>36.665442577892115</ele>
        <time>2026-09-21T22:50:34.988000Z</time>
      </trkpt>
      <trkpt lat="39.87651336747255" lon="116.34370200035227">
        <ele>36.905889503055384</ele>
        <time>2026-09-21T22:50:41.088000Z</time>
      </trkpt>
      <trkpt lat="39.87678940396219" lon="116.34367302597504">
        <ele>37.54003523974972</ele>
        <time>2026-09-21T22:50:53.388000Z</time>
      </trkpt>
      <trkpt lat="39.877065504691146" lon="116.34360712886073">
        <ele>38.09227036624508</ele>
        <time>2026-09-21T22:51:05.688000Z</time>
      </trkpt>
      <trkpt lat="39.87730162313798" lon="116.34353225569718">
        <ele>38.03942488818722</ele>
        <time>2026-09-21T22:51:14.788000Z</time>
      </trkpt>
      <trkpt lat="39.87758863490101" lon="116.34351725076971">
        <ele>37.82275866656857</ele>
        <time>2026-09-21T22:51:26.788000Z</time>
      </trkpt>
      <trkpt lat="39.8778676488246" lon="116.34350124894802">
        <ele>37.759344092899134</ele>
        <time>2026-09-21T22:51:38.788000Z</time>
      </trkpt>
      <trkpt lat="39.878150695592595" lon="116.34346628635092">
        <ele>37.05121468692379</ele>
        <time>2026-09-21T22:51:50.788000Z</time>
      </trkpt>
      <trkpt lat="39.87843770396068" lon="116.34345327726055">
        <ele>37.664222232394984</ele>
        <time>2026-09-21T22:52:02.788000Z</time>
      </trkpt>
      <trkpt lat="39.87877673238227" lon="116.34342728879243">
        <ele>37.312799684100916</ele>
        <time>2026-09-21T22:52:17.788000Z</time>
      </trkpt>
      <trkpt lat="39.87907574890805" lon="116.34340928865572">
        <ele>37.164832345538905</ele>
        <time>2026-09-21T22:52:29.788000Z</time>
      </trkpt>
      <trkpt lat="39.87935973663806" lon="116.34340825485108">
        <ele>37.23881601481991</ele>
        <time>2026-09-21T22:52:41.788000Z</time>
      </trkpt>
      <trkpt lat="39.87964180971512" lon="116.34335832384208">
        <ele>36.958734981113246</ele>
        <time>2026-09-21T22:52:53.788000Z</time>
      </trkpt>
      <trkpt lat="39.87991883611069" lon="116.34333533697901">
        <ele>37.83332776218014</ele>
        <time>2026-09-21T22:53:05.888000Z</time>
      </trkpt>
      <trkpt lat="39.88018984542509" lon="116.34332232994441">
        <ele>37.18597053676205</ele>
        <time>2026-09-21T22:53:17.888000Z</time>
      </trkpt>
      <trkpt lat="39.880466840543264" lon="116.34331730540147">
        <ele>37.35243367343502</ele>
        <time>2026-09-21T22:53:30.088000Z</time>
      </trkpt>
      <trkpt lat="39.880737903867875" lon="116.34327336330496">
        <ele>36.77113353400784</ele>
        <time>2026-09-21T22:53:42.388000Z</time>
      </trkpt>
      <trkpt lat="39.88101987615" lon="116.3432813109005">
        <ele>36.9375967898901</ele>
        <time>2026-09-21T22:53:54.788000Z</time>
      </trkpt>
      <trkpt lat="39.88131592090277" lon="116.34324734471996">
        <ele>36.459345213466456</ele>
        <time>2026-09-21T22:54:06.788000Z</time>
      </trkpt>
      <trkpt lat="39.881595898544866" lon="116.34325229884944">
        <ele>37.2810923972662</ele>
        <time>2026-09-21T22:54:18.788000Z</time>
      </trkpt>
      <trkpt lat="39.88166491260009" lon="116.34324231108245">
        <ele>37.019507400089076</ele>
        <time>2026-09-21T22:54:21.788000Z</time>
      </trkpt>
      <trkpt lat="39.881936888913955" lon="116.34324826412663">
        <ele>37.363002769046595</ele>
        <time>2026-09-21T22:54:33.788000Z</time>
      </trkpt>
      <trkpt lat="39.882078894202664" lon="116.34324126084566">
        <ele>37.03007649570065</ele>
        <time>2026-09-21T22:54:39.788000Z</time>
      </trkpt>
      <trkpt lat="39.8823758257971" lon="116.34327215834696">
        <ele>37.518897048526576</ele>
        <time>2026-09-21T22:54:51.788000Z</time>
      </trkpt>
      <trkpt lat="39.88267638559349" lon="116.34327543943179">
        <ele>36.96930407672482</ele>
        <time>2026-09-21T22:55:03.788000Z</time>
      </trkpt>
      <trkpt lat="39.88289040294332" lon="116.34325497760923">
        <ele>37.320726386600306</ele>
        <time>2026-09-21T22:55:12.888000Z</time>
      </trkpt>
      <trkpt lat="39.8831708360635" lon="116.34324411651802">
        <ele>37.19653963237362</ele>
        <time>2026-09-21T22:55:24.888000Z</time>
      </trkpt>
      <trkpt lat="39.88345281373907" lon="116.34324907039121">
        <ele>37.458124629550746</ele>
        <time>2026-09-21T22:55:36.988000Z</time>
      </trkpt>
      <trkpt lat="39.88378580639344" lon="116.34324403877233">
        <ele>36.87418221622067</ele>
        <time>2026-09-21T22:55:52.188000Z</time>
      </trkpt>
      <trkpt lat="39.884055812556106" lon="116.34323302769262">
        <ele>35.79084991603451</ele>
        <time>2026-09-21T22:56:04.488000Z</time>
      </trkpt>
      <trkpt lat="39.88436477680357" lon="116.34324496348005">
        <ele>37.217677823596766</ele>
        <time>2026-09-21T22:56:16.788000Z</time>
      </trkpt>
      <trkpt lat="39.88470779343885" lon="116.34322595993811">
        <ele>37.44755553393917</ele>
        <time>2026-09-21T22:56:31.788000Z</time>
      </trkpt>
      <trkpt lat="39.88498576095976" lon="116.34323690173751">
        <ele>37.82275866656857</ele>
        <time>2026-09-21T22:56:43.788000Z</time>
      </trkpt>
      <trkpt lat="39.88531374352789" lon="116.34323785817435">
        <ele>36.83190583377438</ele>
        <time>2026-09-21T22:56:58.788000Z</time>
      </trkpt>
      <trkpt lat="39.88564874494795" lon="116.34322783678046">
        <ele>36.98780011325436</ele>
        <time>2026-09-21T22:57:13.788000Z</time>
      </trkpt>
      <trkpt lat="39.88591972505828" lon="116.34323179413455">
        <ele>37.68536042361813</ele>
        <time>2026-09-21T22:57:25.788000Z</time>
      </trkpt>
      <trkpt lat="39.88620174472828" lon="116.34321279830787">
        <ele>37.6245880046423</ele>
        <time>2026-09-21T22:57:37.788000Z</time>
      </trkpt>
      <trkpt lat="39.88648503223015" lon="116.34322016728532">
        <ele>37.27052330165463</ele>
        <time>2026-09-21T22:57:49.788000Z</time>
      </trkpt>
      <trkpt lat="39.88682169262534" lon="116.34322569266949">
        <ele>36.98780011325436</ele>
        <time>2026-09-21T22:58:04.788000Z</time>
      </trkpt>
      <trkpt lat="39.8870956935726" lon="116.34321767479578">
        <ele>37.114629260593226</ele>
        <time>2026-09-21T22:58:16.788000Z</time>
      </trkpt>
      <trkpt lat="39.88741967997836" lon="116.34321663592681">
        <ele>36.98780011325436</ele>
        <time>2026-09-21T22:58:31.788000Z</time>
      </trkpt>
      <trkpt lat="39.88769765464472" lon="116.3432235861036">
        <ele>37.83332776218014</ele>
        <time>2026-09-21T22:58:43.788000Z</time>
      </trkpt>
      <trkpt lat="39.88796870980329" lon="116.34318463360391">
        <ele>37.08292197375851</ele>
        <time>2026-09-21T22:58:55.788000Z</time>
      </trkpt>
      <trkpt lat="39.888197711206544" lon="116.34317761932836">
        <ele>36.562393895679286</ele>
        <time>2026-09-21T22:59:07.788000Z</time>
      </trkpt>
      <trkpt lat="39.88849119239372" lon="116.34319484137905">
        <ele>36.91645859866696</ele>
        <time>2026-09-21T22:59:19.888000Z</time>
      </trkpt>
      <trkpt lat="39.88878558249127" lon="116.34323542338232">
        <ele>37.24938511043148</ele>
        <time>2026-09-21T22:59:31.888000Z</time>
      </trkpt>
      <trkpt lat="39.88906854830484" lon="116.34324736244815">
        <ele>36.78170262961941</ele>
        <time>2026-09-21T22:59:43.988000Z</time>
      </trkpt>
      <trkpt lat="39.88933355852218" lon="116.34323435618558">
        <ele>36.958734981113246</ele>
        <time>2026-09-21T22:59:56.088000Z</time>
      </trkpt>
      <trkpt lat="39.889603486667994" lon="116.34326825079225">
        <ele>36.94816588550167</ele>
        <time>2026-09-21T23:00:08.288000Z</time>
      </trkpt>
      <trkpt lat="39.889884449152156" lon="116.34328218592688">
        <ele>36.99836920886593</ele>
        <time>2026-09-21T23:00:20.488000Z</time>
      </trkpt>
      <trkpt lat="39.89021247388406" lon="116.34325919264157">
        <ele>37.22824691920834</ele>
        <time>2026-09-21T23:00:35.688000Z</time>
      </trkpt>
      <trkpt lat="39.89036645973617" lon="116.34326316478572">
        <ele>37.999790898853114</ele>
        <time>2026-09-21T23:00:41.688000Z</time>
      </trkpt>
    </trkseg>
  </trk>
</gpx>