<?xml version="1.0" encoding="UTF-8"?>
<gpx xmlns="http://www.topografix.com/GPX/1/1" xmlns:gpxtpx="http://www.garmin.com/xmlschemas/TrackPointExtension/v1" xmlns:xsi="http://www.w3.org/2001/XMLSchema-instance" xsi:schemaLocation="http://www.topografix.com/GPX/1/1 http://www.topografix.com/GPX/1/1/gpx.xsd" version="1.1" creator="gpx.py -- https://github.com/tkrajina/gpxpy">
  <trk>
    <name>gpx from keep</name>
    <type>Run</type>
    <trkseg>
      <trkpt lat="37.85539344772306" lon="112.56146550225421">
        <ele>780.7570841414854</ele>
        <time>2026-07-24T23:44:45.517000Z</time>
      </trkpt>
      <trkpt lat="37.855382826491336" lon="112.56175494536163">
        <ele>781.3304483992979</ele>
        <time>2026-07-24T23:44:45.617000Z</time>
      </trkpt>
      <trkpt lat="37.85539492930157" lon="112.5618320609148">
        <ele>781.1851236922666</ele>
        <time>2026-07-24T23:44:45.617000Z</time>
      </trkpt>
      <trkpt lat="37.855380065145816" lon="112.56193822310543">
        <ele>781.0054361922666</ele>
        <time>2026-07-24T23:44:45.617000Z</time>
      </trkpt>
      <trkpt lat="37.85538833138923" lon="112.56214252922858">
        <ele>780.9155924422666</ele>
        <time>2026-07-24T23:44:45.717000Z</time>
      </trkpt>
      <trkpt lat="37.85542142222965" lon="112.56220862425253">
        <ele>781.1851236922666</ele>
        <time>2026-07-24T23:44:45.717000Z</time>
      </trkpt>
      <trkpt lat="37.855715483043525" lon="112.56221760364745">
        <ele>778.6670572860166</ele>
        <time>2026-07-24T23:44:45.817000Z</time>
      </trkpt>
      <trkpt lat="37.855991517652505" lon="112.56220855820638">
        <ele>778.4080851180479</ele>
        <time>2026-07-24T23:44:46.017000Z</time>
      </trkpt>
      <trkpt lat="37.85605052495806" lon="112.56220654837807">
        <ele>778.1702921492979</ele>
        <time>2026-07-24T23:44:46.017000Z</time>
      </trkpt>
      <trkpt lat="37.85610745695038" lon="112.56214645191436">
        <ele>777.4410441024229</ele>
        <time>2026-07-24T23:44:46.017000Z</time>
      </trkpt>
      <trkpt lat="37.85622804788102" lon="112.56181594011493">
        <ele>777.8003580672666</ele>
        <time>2026-07-24T23:44:46.117000Z</time>
      </trkpt>
      <trkpt lat="37.856298820993494" lon="112.56163365478461">
        <ele>777.0341227157041</ele>
        <time>2026-07-24T23:44:46.217000Z</time>
      </trkpt>
      <trkpt lat="37.85630571147487" lon="112.56154952546427">
        <ele>777.8320963485166</ele>
        <time>2026-07-24T23:44:46.217000Z</time>
      </trkpt>
      <trkpt lat="37.85628548848057" lon="112.56138327268121">
        <ele>778.0698893172666</ele>
        <time>2026-07-24T23:44:46.317000Z</time>
      </trkpt>
      <trkpt lat="37.85631415097726" lon="112.56112587138581">
        <ele>776.6747477157041</ele>
        <time>2026-07-24T23:44:46.417000Z</time>
      </trkpt>
      <trkpt lat="37.85628167210601" lon="112.56077332417827">
        <ele>777.0235636336729</ele>
        <time>2026-07-24T23:44:46.517000Z</time>
      </trkpt>
      <trkpt lat="37.85625909927284" lon="112.56035466369745">
        <ele>777.0790445907041</ele>
        <time>2026-07-24T23:44:46.617000Z</time>
      </trkpt>
      <trkpt lat="37.85633078949723" lon="112.56012028001025">
        <ele>776.4501993758604</ele>
        <time>2026-07-24T23:44:46.717000Z</time>
      </trkpt>
      <trkpt lat="37.85638277474987" lon="112.56010324659775">
        <ele>776.7091105086729</ele>
        <time>2026-07-24T23:44:46.717000Z</time>
      </trkpt>
      <trkpt lat="37.856673862266334" lon="112.56013125796244">
        <ele>776.2361490828916</ele>
        <time>2026-07-24T23:44:46.917000Z</time>
      </trkpt>
      <trkpt lat="37.8567878455287" lon="112.5601052028741">
        <ele>775.9560587508604</ele>
        <time>2026-07-24T23:44:47.017000Z</time>
      </trkpt>
      <trkpt lat="37.85684145928265" lon="112.5598197351957">
        <ele>775.2241861922666</ele>
        <time>2026-07-24T23:44:47.117000Z</time>
      </trkpt>
      <trkpt lat="37.85684909978942" lon="112.55956131274719">
        <ele>774.9652140242979</ele>
        <time>2026-07-24T23:44:47.217000Z</time>
      </trkpt>
      <trkpt lat="37.85687659771828" lon="112.55920171694486">
        <ele>775.2796671492979</ele>
        <time>2026-07-24T23:44:47.317000Z</time>
      </trkpt>
      <trkpt lat="37.856899269763524" lon="112.55896832595204">
        <ele>775.0339396102354</ele>
        <time>2026-07-24T23:44:47.417000Z</time>
      </trkpt>
      <trkpt lat="37.85686216913492" lon="112.55890221970937">
        <ele>775.0682413680479</ele>
        <time>2026-07-24T23:44:47.417000Z</time>
      </trkpt>
      <trkpt lat="37.856674902325196" lon="112.55873796571402">
        <ele>775.0444986922666</ele>
        <time>2026-07-24T23:44:47.517000Z</time>
      </trkpt>
      <trkpt lat="37.85651857885797" lon="112.55853163546493">
        <ele>774.6851236922666</ele>
        <time>2026-07-24T23:44:47.617000Z</time>
      </trkpt>
      <trkpt lat="37.856530473652704" lon="112.55845750838336">
        <ele>774.0668375594541</ele>
        <time>2026-07-24T23:44:47.617000Z</time>
      </trkpt>
      <trkpt lat="37.85671703290878" lon="112.55813293290242">
        <ele>771.9213297469541</ele>
        <time>2026-07-24T23:44:47.717000Z</time>
      </trkpt>
      <trkpt lat="37.856905967957736" lon="112.55806679748169">
        <ele>772.8091471297666</ele>
        <time>2026-07-24T23:44:47.817000Z</time>
      </trkpt>
      <trkpt lat="37.85717084799016" lon="112.55795457360122">
        <ele>771.9080851180479</ele>
        <time>2026-07-24T23:44:48.017000Z</time>
      </trkpt>
      <trkpt lat="37.8574316869945" lon="112.55781530268177">
        <ele>771.9318888289854</ele>
        <time>2026-07-24T23:44:48.117000Z</time>
      </trkpt>
      <trkpt lat="37.85763754561393" lon="112.55769607194061">
        <ele>772.3123819930479</ele>
        <time>2026-07-24T23:44:48.217000Z</time>
      </trkpt>
      <trkpt lat="37.857826133917605" lon="112.55739752868973">
        <ele>771.9318888289854</ele>
        <time>2026-07-24T23:44:48.317000Z</time>
      </trkpt>
      <trkpt lat="37.85795989882518" lon="112.55722521007952">
        <ele>772.4471476180479</ele>
        <time>2026-07-24T23:44:48.417000Z</time>
      </trkpt>
      <trkpt lat="37.85802683348596" lon="112.55717411214077">
        <ele>772.3704874617979</ele>
        <time>2026-07-24T23:44:48.417000Z</time>
      </trkpt>
      <trkpt lat="37.85814281696489" lon="112.55715005620617">
        <ele>772.5501749617979</ele>
        <time>2026-07-24T23:44:48.517000Z</time>
      </trkpt>
      <trkpt lat="37.85832686309649" lon="112.557160052568">
        <ele>772.7642252547666</ele>
        <time>2026-07-24T23:44:48.617000Z</time>
      </trkpt>
      <trkpt lat="37.85859682291869" lon="112.55710292026713">
        <ele>773.3137858016416</ele>
        <time>2026-07-24T23:44:48.717000Z</time>
      </trkpt>
      <trkpt lat="37.85865779404413" lon="112.55707686707123">
        <ele>773.6731608016416</ele>
        <time>2026-07-24T23:44:48.717000Z</time>
      </trkpt>
      <trkpt lat="37.85870270506142" lon="112.55701274817052">
        <ele>774.1461222274229</ele>
        <time>2026-07-24T23:44:48.717000Z</time>
      </trkpt>
      <trkpt lat="37.85879229416245" lon="112.55673123601282">
        <ele>774.2227213485166</ele>
        <time>2026-07-24T23:44:48.817000Z</time>
      </trkpt>
      <trkpt lat="37.858806142568596" lon="112.55663005302755">
        <ele>773.8634073836729</ele>
        <time>2026-07-24T23:44:48.917000Z</time>
      </trkpt>
      <trkpt lat="37.85875785593917" lon="112.55644773041575">
        <ele>773.4696695907041</ele>
        <time>2026-07-24T23:44:48.917000Z</time>
      </trkpt>
      <trkpt lat="37.85876241791616" lon="112.5561622123905">
        <ele>772.8646280867979</ele>
        <time>2026-07-24T23:44:49.017000Z</time>
      </trkpt>
      <trkpt lat="37.8587446323082" lon="112.55565829061126">
        <ele>772.9095499617979</ele>
        <time>2026-07-24T23:44:49.217000Z</time>
      </trkpt>
      <trkpt lat="37.858648267297724" lon="112.55543588979616">
        <ele>773.7973063094541</ele>
        <time>2026-07-24T23:44:49.317000Z</time>
      </trkpt>
      <trkpt lat="37.85867187301459" lon="112.55518341623912">
        <ele>774.5397989852354</ele>
        <time>2026-07-24T23:44:49.417000Z</time>
      </trkpt>
      <trkpt lat="37.858622620013655" lon="112.55502913258543">
        <ele>773.8871500594541</ele>
        <time>2026-07-24T23:44:49.417000Z</time>
      </trkpt>
      <trkpt lat="37.85851841745594" lon="112.5549129258868">
        <ele>773.8184855086729</ele>
        <time>2026-07-24T23:44:49.517000Z</time>
      </trkpt>
      <trkpt lat="37.85851227575511" lon="112.55482476015072">
        <ele>773.7418253524229</ele>
        <time>2026-07-24T23:44:49.517000Z</time>
      </trkpt>
      <trkpt lat="37.85857890179317" lon="112.55458429640485">
        <ele>774.1777994735166</ele>
        <time>2026-07-24T23:44:49.617000Z</time>
      </trkpt>
      <trkpt lat="37.858637669775334" lon="112.55443400304402">
        <ele>773.9875528914854</ele>
        <time>2026-07-24T23:44:49.717000Z</time>
      </trkpt>
      <trkpt lat="37.85865453025359" lon="112.55434583243532">
        <ele>773.8079264266416</ele>
        <time>2026-07-24T23:44:49.717000Z</time>
      </trkpt>
      <trkpt lat="37.85863024533569" lon="112.55417250251892">
        <ele>772.6505777938291</ele>
        <time>2026-07-24T23:44:49.817000Z</time>
      </trkpt>
      <trkpt lat="37.85848173858852" lon="112.5538769487734">
        <ele>773.8079264266416</ele>
        <time>2026-07-24T23:44:49.917000Z</time>
      </trkpt>
      <trkpt lat="37.858403610579295" lon="112.55380682168854">
        <ele>773.6070597274229</ele>
        <time>2026-07-24T23:44:49.917000Z</time>
      </trkpt>
      <trkpt lat="37.858112505570965" lon="112.5537727892487">
        <ele>773.2451212508604</ele>
        <time>2026-07-24T23:44:50.017000Z</time>
      </trkpt>
      <trkpt lat="37.85783939538011" lon="112.55373374490809">
        <ele>773.2001993758604</ele>
        <time>2026-07-24T23:44:50.217000Z</time>
      </trkpt>
      <trkpt lat="37.85755535735888" lon="112.55373978957304">
        <ele>772.1010172469541</ele>
        <time>2026-07-24T23:44:50.317000Z</time>
      </trkpt>
      <trkpt lat="37.8572893503606" lon="112.55376286528546">
        <ele>772.0084879500791</ele>
        <time>2026-07-24T23:44:50.417000Z</time>
      </trkpt>
      <trkpt lat="37.85709037107908" lon="112.55379595266797">
        <ele>772.0217325789854</ele>
        <time>2026-07-24T23:44:50.517000Z</time>
      </trkpt>
      <trkpt lat="37.857019347638015" lon="112.55378894727687">
        <ele>772.0877726180479</ele>
        <time>2026-07-24T23:44:50.517000Z</time>
      </trkpt>
      <trkpt lat="37.85679198842149" lon="112.55359359286355">
        <ele>772.3361246688291</ele>
        <time>2026-07-24T23:44:50.617000Z</time>
      </trkpt>
      <trkpt lat="37.85651858846528" lon="112.55337920442082">
        <ele>771.6174357039854</ele>
        <time>2026-07-24T23:44:50.817000Z</time>
      </trkpt>
      <trkpt lat="37.85631640342772" lon="112.55328804849555">
        <ele>772.0560953719541</ele>
        <time>2026-07-24T23:44:50.917000Z</time>
      </trkpt>
      <trkpt lat="37.856034314555814" lon="112.55326303187499">
        <ele>771.8076822860166</ele>
        <time>2026-07-24T23:44:51.017000Z</time>
      </trkpt>
      <trkpt lat="37.8557452445071" lon="112.55325003974335">
        <ele>772.2357218367979</ele>
        <time>2026-07-24T23:44:51.117000Z</time>
      </trkpt>
      <trkpt lat="37.85543020343821" lon="112.55325709013196">
        <ele>771.7072794539854</ele>
        <time>2026-07-24T23:44:51.317000Z</time>
      </trkpt>
      <trkpt lat="37.85517418559285" lon="112.55327214946527">
        <ele>772.3704874617979</ele>
        <time>2026-07-24T23:44:51.417000Z</time>
      </trkpt>
      <trkpt lat="37.85509013162857" lon="112.55324811181755">
        <ele>772.1115763289854</ele>
        <time>2026-07-24T23:44:51.417000Z</time>
      </trkpt>
      <trkpt lat="37.854949124720186" lon="112.55325814793548">
        <ele>772.2225382430479</ele>
        <time>2026-07-24T23:44:51.517000Z</time>
      </trkpt>
      <trkpt lat="37.854676192207" lon="112.55332631380053">
        <ele>771.5487711532041</ele>
        <time>2026-07-24T23:44:51.617000Z</time>
      </trkpt>
      <trkpt lat="37.85434717389607" lon="112.5533483953445">
        <ele>771.9979288680479</ele>
        <time>2026-07-24T23:44:51.817000Z</time>
      </trkpt>
      <trkpt lat="37.85403417654414" lon="112.55338149666329">
        <ele>772.3123819930479</ele>
        <time>2026-07-24T23:44:51.917000Z</time>
      </trkpt>
      <trkpt lat="37.85376107803226" lon="112.55334946532564">
        <ele>772.4920694930479</ele>
        <time>2026-07-24T23:44:52.017000Z</time>
      </trkpt>
      <trkpt lat="37.853699059425" lon="112.55334446266934">
        <ele>772.5501749617979</ele>
        <time>2026-07-24T23:44:52.117000Z</time>
      </trkpt>
      <trkpt lat="37.85355308495805" lon="112.55337453870548">
        <ele>771.9873697860166</ele>
        <time>2026-07-24T23:44:52.117000Z</time>
      </trkpt>
      <trkpt lat="37.853490054581165" lon="112.55336252238592">
        <ele>771.8076822860166</ele>
        <time>2026-07-24T23:44:52.117000Z</time>
      </trkpt>
      <trkpt lat="37.85344293881493" lon="112.55329739970932">
        <ele>771.7627604110166</ele>
        <time>2026-07-24T23:44:52.217000Z</time>
      </trkpt>
      <trkpt lat="37.85341535176106" lon="112.55294771114102">
        <ele>772.2463419539854</ele>
        <time>2026-07-24T23:44:52.317000Z</time>
      </trkpt>
      <trkpt lat="37.85337392632473" lon="112.5526982185513">
        <ele>771.7971232039854</ele>
        <time>2026-07-24T23:44:52.417000Z</time>
      </trkpt>
      <trkpt lat="37.85338534249302" lon="112.55235152076715">
        <ele>771.5831339461729</ele>
        <time>2026-07-24T23:44:52.517000Z</time>
      </trkpt>
      <trkpt lat="37.85336273967751" lon="112.55199981059098">
        <ele>771.6729166610166</ele>
        <time>2026-07-24T23:44:52.617000Z</time>
      </trkpt>
      <trkpt lat="37.85337731070526" lon="112.5517482953124">
        <ele>771.6042521102354</ele>
        <time>2026-07-24T23:44:52.717000Z</time>
      </trkpt>
      <trkpt lat="37.853341974899024" lon="112.55155690644327">
        <ele>771.2131998641416</ele>
        <time>2026-07-24T23:44:52.817000Z</time>
      </trkpt>
      <trkpt lat="37.85323355072157" lon="112.55132243505813">
        <ele>772.2569010360166</ele>
        <time>2026-07-24T23:44:52.917000Z</time>
      </trkpt>
      <trkpt lat="37.85317344148056" lon="112.55126532372425">
        <ele>771.5831339461729</ele>
        <time>2026-07-24T23:44:52.917000Z</time>
      </trkpt>
      <trkpt lat="37.85307035813505" lon="112.5512272567251">
        <ele>771.6042521102354</ele>
        <time>2026-07-24T23:44:52.917000Z</time>
      </trkpt>
      <trkpt lat="37.85274937119879" lon="112.55126537295425">
        <ele>770.8750040633604</ele>
        <time>2026-07-24T23:44:53.017000Z</time>
      </trkpt>
      <trkpt lat="37.85249133371588" lon="112.55126840914018">
        <ele>770.7269938094541</ele>
        <time>2026-07-24T23:44:53.217000Z</time>
      </trkpt>
      <trkpt lat="37.852233107826" lon="112.55116322076063">
        <ele>771.4932901961729</ele>
        <time>2026-07-24T23:44:53.317000Z</time>
      </trkpt>
      <trkpt lat="37.85195797848688" lon="112.55111515269397">
        <ele>771.0308878524229</ele>
        <time>2026-07-24T23:44:53.417000Z</time>
      </trkpt>
      <trkpt lat="37.85176576469257" lon="112.55101095792841">
        <ele>771.3902018172666</ele>
        <time>2026-07-24T23:44:53.517000Z</time>
      </trkpt>
      <trkpt lat="37.85159749469031" lon="112.55087268857062">
        <ele>771.8631632430479</ele>
        <time>2026-07-24T23:44:53.617000Z</time>
      </trkpt>
      <trkpt lat="37.8513023915365" lon="112.55084165780147">
        <ele>771.1101114852354</ele>
        <time>2026-07-24T23:44:53.717000Z</time>
      </trkpt>
      <trkpt lat="37.85102826896034" lon="112.55079759724349">
        <ele>772.1221354110166</ele>
        <time>2026-07-24T23:44:53.817000Z</time>
      </trkpt>
      <trkpt lat="37.850752239414426" lon="112.55080664819226">
        <ele>771.8526041610166</ele>
        <time>2026-07-24T23:44:53.917000Z</time>
      </trkpt>
      <trkpt lat="37.85047319181159" lon="112.55080567848664">
        <ele>771.3796427352354</ele>
        <time>2026-07-24T23:44:54.117000Z</time>
      </trkpt>
      <trkpt lat="37.85019918733218" lon="112.55082875858805">
        <ele>772.2912638289854</ele>
        <time>2026-07-24T23:44:54.217000Z</time>
      </trkpt>
      <trkpt lat="37.8499051672858" lon="112.5508448262988">
        <ele>770.8855631453916</ele>
        <time>2026-07-24T23:44:54.317000Z</time>
      </trkpt>
      <trkpt lat="37.8496141583271" lon="112.55086690623027">
        <ele>770.6265909774229</ele>
        <time>2026-07-24T23:44:54.417000Z</time>
      </trkpt>
      <trkpt lat="37.849468166085295" lon="112.55088496091813">
        <ele>771.2686808211729</ele>
        <time>2026-07-24T23:44:54.517000Z</time>
      </trkpt>
      <trkpt lat="37.84920930985751" lon="112.55099121288386">
        <ele>771.1444742782041</ele>
        <time>2026-07-24T23:44:54.617000Z</time>
      </trkpt>
      <trkpt lat="37.848914608151" lon="112.55118966009118">
        <ele>771.8182413680479</ele>
        <time>2026-07-24T23:44:54.817000Z</time>
      </trkpt>
      <trkpt lat="37.848643870619284" lon="112.55136605695559">
        <ele>772.3810465438291</ele>
        <time>2026-07-24T23:44:54.917000Z</time>
      </trkpt>
      <trkpt lat="37.84846909037235" lon="112.55150937300166">
        <ele>772.2119791610166</ele>
        <time>2026-07-24T23:44:55.017000Z</time>
      </trkpt>
      <trkpt lat="37.84837928343272" lon="112.55162963081193">
        <ele>771.8975260360166</ele>
        <time>2026-07-24T23:44:55.017000Z</time>
      </trkpt>
      <trkpt lat="37.84835941143898" lon="112.55170578941735">
        <ele>772.2912638289854</ele>
        <time>2026-07-24T23:44:55.117000Z</time>
      </trkpt>
      <trkpt lat="37.8483790537358" lon="112.55207854792866">
        <ele>772.7166178328916</ele>
        <time>2026-07-24T23:44:55.217000Z</time>
      </trkpt>
      <trkpt lat="37.84835277118324" lon="112.55250340947994">
        <ele>773.9769938094541</ele>
        <time>2026-07-24T23:44:55.317000Z</time>
      </trkpt>
      <trkpt lat="37.848464320901705" lon="112.55281902836109">
        <ele>773.3798258407041</ele>
        <time>2026-07-24T23:44:55.517000Z</time>
      </trkpt>
      <trkpt lat="37.84860184251996" lon="112.55311760542587">
        <ele>773.6626017196104</ele>
        <time>2026-07-24T23:44:55.617000Z</time>
      </trkpt>
      <trkpt lat="37.84873336457916" lon="112.5534191845003">
        <ele>774.0457193953916</ele>
        <time>2026-07-24T23:44:55.717000Z</time>
      </trkpt>
      <trkpt lat="37.84884790819138" lon="112.55373779401329">
        <ele>772.9650309188291</ele>
        <time>2026-07-24T23:44:55.817000Z</time>
      </trkpt>
      <trkpt lat="37.84900655600213" lon="112.55411851294609">
        <ele>773.2133829696104</ele>
        <time>2026-07-24T23:44:56.017000Z</time>
      </trkpt>
      <trkpt lat="37.849040691760976" lon="112.55419866325678">
        <ele>774.1566813094541</ele>
        <time>2026-07-24T23:44:56.017000Z</time>
      </trkpt>
      <trkpt lat="37.849077283579035" lon="112.55456135290802">
        <ele>772.8751871688291</ele>
        <time>2026-07-24T23:44:56.117000Z</time>
      </trkpt>
      <trkpt lat="37.84908384281274" lon="112.5549100127411">
        <ele>772.8989298446104</ele>
        <time>2026-07-24T23:44:56.217000Z</time>
      </trkpt>
      <trkpt lat="37.8491111276783" lon="112.55508634125063">
        <ele>772.2912638289854</ele>
        <time>2026-07-24T23:44:56.317000Z</time>
      </trkpt>
      <trkpt lat="37.84919453111794" lon="112.55533279243869">
        <ele>772.2119791610166</ele>
        <time>2026-07-24T23:44:56.417000Z</time>
      </trkpt>
      <trkpt lat="37.84924117041949" lon="112.55573553327909">
        <ele>773.6282389266416</ele>
        <time>2026-07-24T23:44:56.517000Z</time>
      </trkpt>
      <trkpt lat="37.849211809220776" lon="112.55615029627961">
        <ele>773.3481485946104</ele>
        <time>2026-07-24T23:44:56.717000Z</time>
      </trkpt>
      <trkpt lat="37.849185065547516" lon="112.55631960684589">
        <ele>773.5383951766416</ele>
        <time>2026-07-24T23:44:56.817000Z</time>
      </trkpt>
      <trkpt lat="37.84922459596125" lon="112.55666221982827">
        <ele>773.7418253524229</ele>
        <time>2026-07-24T23:44:56.917000Z</time>
      </trkpt>
      <trkpt lat="37.849296992282426" lon="112.55691566428236">
        <ele>774.1566813094541</ele>
        <time>2026-07-24T23:44:57.017000Z</time>
      </trkpt>
      <trkpt lat="37.84937921130864" lon="112.55705189676786">
        <ele>774.0457193953916</ele>
        <time>2026-07-24T23:44:57.017000Z</time>
      </trkpt>
      <trkpt lat="37.84949136527664" lon="112.55714204338163">
        <ele>774.0773966414854</ele>
        <time>2026-07-24T23:44:57.117000Z</time>
      </trkpt>
      <trkpt lat="37.84976552441107" lon="112.55721814604905">
        <ele>773.6519816024229</ele>
        <time>2026-07-24T23:44:57.217000Z</time>
      </trkpt>
      <trkpt lat="37.850102627684045" lon="112.55725016348813">
        <ele>773.1129801375791</ele>
        <time>2026-07-24T23:44:57.417000Z</time>
      </trkpt>
      <trkpt lat="37.850456703777745" lon="112.55726214362129">
        <ele>772.8197062117979</ele>
        <time>2026-07-24T23:44:57.517000Z</time>
      </trkpt>
      <trkpt lat="37.850728773962246" lon="112.5572791420729">
        <ele>772.4708902938291</ele>
        <time>2026-07-24T23:44:57.617000Z</time>
      </trkpt>
      <trkpt lat="37.85087976428559" lon="112.55725608398697">
        <ele>773.5595133407041</ele>
        <time>2026-07-24T23:44:57.717000Z</time>
      </trkpt>
      <trkpt lat="37.85109280383122" lon="112.55725906458397">
        <ele>772.3916666610166</ele>
        <time>2026-07-24T23:44:57.817000Z</time>
      </trkpt>
      <trkpt lat="37.8512347746672" lon="112.55722398632132">
        <ele>773.2001993758604</ele>
        <time>2026-07-24T23:44:57.817000Z</time>
      </trkpt>
      <trkpt lat="37.85145641479522" lon="112.55696049411898">
        <ele>772.6162150008604</ele>
        <time>2026-07-24T23:44:58.017000Z</time>
      </trkpt>
      <trkpt lat="37.851506320066555" lon="112.55689236711416">
        <ele>772.3361246688291</ele>
        <time>2026-07-24T23:44:58.017000Z</time>
      </trkpt>
      <trkpt lat="37.85156626322858" lon="112.55684828159701">
        <ele>772.3704874617979</ele>
        <time>2026-07-24T23:44:58.017000Z</time>
      </trkpt>
      <trkpt lat="37.85175725526406" lon="112.556822212978">
        <ele>772.1115763289854</ele>
        <time>2026-07-24T23:44:58.117000Z</time>
      </trkpt>
      <trkpt lat="37.852032375024436" lon="112.55687126863639">
        <ele>772.4708902938291</ele>
        <time>2026-07-24T23:44:58.217000Z</time>
      </trkpt>
      <trkpt lat="37.85223447206081" lon="112.5569133201515">
        <ele>772.3229410750791</ele>
        <time>2026-07-24T23:44:58.317000Z</time>
      </trkpt>
      <trkpt lat="37.85246778107817" lon="112.55709261146397">
        <ele>772.1907999617979</ele>
        <time>2026-07-24T23:44:58.417000Z</time>
      </trkpt>
      <trkpt lat="37.852602896796206" lon="112.55715470567065">
        <ele>772.1432535750791</ele>
        <time>2026-07-24T23:44:58.517000Z</time>
      </trkpt>
      <trkpt lat="37.85287392361563" lon="112.55714265299763">
        <ele>772.0666544539854</ele>
        <time>2026-07-24T23:44:58.617000Z</time>
      </trkpt>
      <trkpt lat="37.85301492741194" lon="112.55712961362">
        <ele>772.0666544539854</ele>
        <time>2026-07-24T23:44:58.717000Z</time>
      </trkpt>
      <trkpt lat="37.85324008956948" lon="112.55721273439133">
        <ele>771.5038492782041</ele>
        <time>2026-07-24T23:44:58.817000Z</time>
      </trkpt>
      <trkpt lat="37.85330710519429" lon="112.55721573192325">
        <ele>772.0772135360166</ele>
        <time>2026-07-24T23:44:58.817000Z</time>
      </trkpt>
      <trkpt lat="37.85338007222414" lon="112.55718567042211">
        <ele>772.6162150008604</ele>
        <time>2026-07-24T23:44:58.817000Z</time>
      </trkpt>
      <trkpt lat="37.853633723605455" lon="112.55692618108982">
        <ele>772.6611368758604</ele>
        <time>2026-07-24T23:44:59.017000Z</time>
      </trkpt>
      <trkpt lat="37.853839616840965" lon="112.55683299119585">
        <ele>771.6940958602354</ele>
        <time>2026-07-24T23:44:59.017000Z</time>
      </trkpt>
      <trkpt lat="37.85398163135008" lon="112.55682696400169">
        <ele>772.8302652938291</ele>
        <time>2026-07-24T23:44:59.117000Z</time>
      </trkpt>
      <trkpt lat="37.854252799311276" lon="112.55690807720894">
        <ele>772.8540690047666</ele>
        <time>2026-07-24T23:44:59.217000Z</time>
      </trkpt>
      <trkpt lat="37.854500094401146" lon="112.55707634743504">
        <ele>772.0560953719541</ele>
        <time>2026-07-24T23:44:59.317000Z</time>
      </trkpt>
      <trkpt lat="37.85473044402963" lon="112.55728368694182">
        <ele>771.3136026961729</ele>
        <time>2026-07-24T23:44:59.517000Z</time>
      </trkpt>
      <trkpt lat="37.854987760624574" lon="112.55746697895442">
        <ele>770.5473063094541</ele>
        <time>2026-07-24T23:44:59.617000Z</time>
      </trkpt>
      <trkpt lat="37.855230083746" lon="112.55765728311965">
        <ele>770.5816691024229</ele>
        <time>2026-07-24T23:44:59.717000Z</time>
      </trkpt>
      <trkpt lat="37.85546445126856" lon="112.55787964171498">
        <ele>769.7625773055479</ele>
        <time>2026-07-24T23:44:59.817000Z</time>
      </trkpt>
      <trkpt lat="37.85566188085985" lon="112.55815008443419">
        <ele>770.1325113875791</ele>
        <time>2026-07-24T23:45:00.017000Z</time>
      </trkpt>
      <trkpt lat="37.855938236369525" lon="112.55836241523461">
        <ele>771.0652506453916</ele>
        <time>2026-07-24T23:45:00.117000Z</time>
      </trkpt>
      <trkpt lat="37.856164085391775" lon="112.55858410770865">
        <ele>770.5261881453916</ele>
        <time>2026-07-24T23:45:00.217000Z</time>
      </trkpt>
      <trkpt lat="37.85621728724793" lon="112.55862470063516">
        <ele>770.7507975203916</ele>
        <time>2026-07-24T23:45:00.317000Z</time>
      </trkpt>
      <trkpt lat="37.856280256393056" lon="112.55863984286117">
        <ele>771.7284586532041</ele>
        <time>2026-07-24T23:45:00.317000Z</time>
      </trkpt>
      <trkpt lat="37.85635581456881" lon="112.5586291576985">
        <ele>771.9873697860166</ele>
        <time>2026-07-24T23:45:00.317000Z</time>
      </trkpt>
      <trkpt lat="37.85649300938583" lon="112.55856303683493">
        <ele>770.9859659774229</ele>
        <time>2026-07-24T23:45:00.417000Z</time>
      </trkpt>
      <trkpt lat="37.85667720449102" lon="112.55825514673369">
        <ele>770.3914225203916</ele>
        <time>2026-07-24T23:45:00.517000Z</time>
      </trkpt>
      <trkpt lat="37.85673410014308" lon="112.55817700647022">
        <ele>770.0215494735166</ele>
        <time>2026-07-24T23:45:00.517000Z</time>
      </trkpt>
      <trkpt lat="37.856986933151326" lon="112.55803373124864">
        <ele>770.6847574813291</ele>
        <time>2026-07-24T23:45:00.617000Z</time>
      </trkpt>
      <trkpt lat="37.85724580614017" lon="112.55791750094686">
        <ele>769.7070963485166</ele>
        <time>2026-07-24T23:45:00.817000Z</time>
      </trkpt>
      <trkpt lat="37.85751764975255" lon="112.55778023194877">
        <ele>769.9422648055479</ele>
        <time>2026-07-24T23:45:00.917000Z</time>
      </trkpt>
      <trkpt lat="37.857746338205324" lon="112.55754379398041">
        <ele>770.8855631453916</ele>
        <time>2026-07-24T23:45:01.017000Z</time>
      </trkpt>
      <trkpt lat="37.85782610102432" lon="112.55737549001353">
        <ele>770.5473063094541</ele>
        <time>2026-07-24T23:45:01.117000Z</time>
      </trkpt>
      <trkpt lat="37.85797585194203" lon="112.55719214989587">
        <ele>770.4707071883604</ele>
        <time>2026-07-24T23:45:01.117000Z</time>
      </trkpt>
      <trkpt lat="37.85803781428332" lon="112.55716008608867">
        <ele>770.2672770125791</ele>
        <time>2026-07-24T23:45:01.217000Z</time>
      </trkpt>
      <trkpt lat="37.85834084890986" lon="112.55714903146968">
        <ele>771.1339151961729</ele>
        <time>2026-07-24T23:45:01.317000Z</time>
      </trkpt>
      <trkpt lat="37.85864678011782" lon="112.557068854149">
        <ele>770.2117960555479</ele>
        <time>2026-07-24T23:45:01.517000Z</time>
      </trkpt>
      <trkpt lat="37.85870369465506" lon="112.55700573560739">
        <ele>771.0758097274229</ele>
        <time>2026-07-24T23:45:01.517000Z</time>
      </trkpt>
      <trkpt lat="37.8587942518603" lon="112.5567031855569">
        <ele>771.2131998641416</ele>
        <time>2026-07-24T23:45:01.617000Z</time>
      </trkpt>
      <trkpt lat="37.85880010185041" lon="112.5566040069486">
        <ele>771.3452799422666</ele>
        <time>2026-07-24T23:45:01.617000Z</time>
      </trkpt>
      <trkpt lat="37.858758751700314" lon="112.55637960723102">
        <ele>772.2357218367979</ele>
        <time>2026-07-24T23:45:01.717000Z</time>
      </trkpt>
      <trkpt lat="37.85877732608626" lon="112.55610109933873">
        <ele>770.8961222274229</ele>
        <time>2026-07-24T23:45:01.817000Z</time>
      </trkpt>
      <trkpt lat="37.858752749468074" lon="112.55573242642276">
        <ele>771.3136026961729</ele>
        <time>2026-07-24T23:45:01.917000Z</time>
      </trkpt>
      <trkpt lat="37.85874459783606" lon="112.55563624990313">
        <ele>771.7072794539854</ele>
        <time>2026-07-24T23:45:01.917000Z</time>
      </trkpt>
      <trkpt lat="37.85863522096636" lon="112.5554078391618">
        <ele>772.1221354110166</ele>
        <time>2026-07-24T23:45:02.017000Z</time>
      </trkpt>
      <trkpt lat="37.85863508521725" lon="112.55532167875063">
        <ele>771.4932901961729</ele>
        <time>2026-07-24T23:45:02.017000Z</time>
      </trkpt>
      <trkpt lat="37.85867183176777" lon="112.55515736747708">
        <ele>772.5052530867979</ele>
        <time>2026-07-24T23:45:02.117000Z</time>
      </trkpt>
      <trkpt lat="37.85864269500381" lon="112.55507421494086">
        <ele>771.9873697860166</ele>
        <time>2026-07-24T23:45:02.117000Z</time>
      </trkpt>
      <trkpt lat="37.85853546024092" lon="112.55493797112184">
        <ele>772.2014200789854</ele>
        <time>2026-07-24T23:45:02.217000Z</time>
      </trkpt>
      <trkpt lat="37.85851731660043" lon="112.55484980689373">
        <ele>771.2581217391416</ele>
        <time>2026-07-24T23:45:02.217000Z</time>
      </trkpt>
      <trkpt lat="37.858530166664195" lon="112.55475462538237">
        <ele>772.3018229110166</ele>
        <time>2026-07-24T23:45:02.217000Z</time>
      </trkpt>
      <trkpt lat="37.85864165105268" lon="112.55442197960785">
        <ele>772.0322916610166</ele>
        <time>2026-07-24T23:45:02.417000Z</time>
      </trkpt>
      <trkpt lat="37.85864249581633" lon="112.55432579544527">
        <ele>771.5382120711729</ele>
        <time>2026-07-24T23:45:02.417000Z</time>
      </trkpt>
      <trkpt lat="37.858609166900024" lon="112.55412641622932">
        <ele>771.4483683211729</ele>
        <time>2026-07-24T23:45:02.417000Z</time>
      </trkpt>
      <trkpt lat="37.858449667589596" lon="112.55383687472549">
        <ele>772.0560953719541</ele>
        <time>2026-07-24T23:45:02.617000Z</time>
      </trkpt>
      <trkpt lat="37.858390585393614" lon="112.55379279593924">
        <ele>771.4140055282041</ele>
        <time>2026-07-24T23:45:02.617000Z</time>
      </trkpt>
      <trkpt lat="37.85817350272698" lon="112.55376476657949">
        <ele>772.2014200789854</ele>
        <time>2026-07-24T23:45:02.717000Z</time>
      </trkpt>
      <trkpt lat="37.85810853282243" lon="112.55378982282846">
        <ele>772.2569010360166</ele>
        <time>2026-07-24T23:45:02.717000Z</time>
      </trkpt>
      <trkpt lat="37.857802428599044" lon="112.55375779599801">
        <ele>771.8076822860166</ele>
        <time>2026-07-24T23:45:02.817000Z</time>
      </trkpt>
      <trkpt lat="37.857505363731086" lon="112.5537488129253">
        <ele>771.8526041610166</ele>
        <time>2026-07-24T23:45:03.017000Z</time>
      </trkpt>
      <trkpt lat="37.85735835376204" lon="112.55375784753173">
        <ele>770.2117960555479</ele>
        <time>2026-07-24T23:45:03.017000Z</time>
      </trkpt>
      <trkpt lat="37.857221399694474" lon="112.55379994525197">
        <ele>771.5038492782041</ele>
        <time>2026-07-24T23:45:03.117000Z</time>
      </trkpt>
      <trkpt lat="37.85701233989037" lon="112.55378494029868">
        <ele>770.3253824813291</ele>
        <time>2026-07-24T23:45:03.217000Z</time>
      </trkpt>
      <trkpt lat="37.85678701563085" lon="112.55361062671689">
        <ele>769.8735392196104</ele>
        <time>2026-07-24T23:45:03.317000Z</time>
      </trkpt>
      <trkpt lat="37.85663168702674" lon="112.55342728574594">
        <ele>770.0981485946104</ele>
        <time>2026-07-24T23:45:03.417000Z</time>
      </trkpt>
      <trkpt lat="37.856311452448885" lon="112.55331810825675">
        <ele>770.4152262313291</ele>
        <time>2026-07-24T23:45:03.517000Z</time>
      </trkpt>
      <trkpt lat="37.856017356609165" lon="112.5532900871478">
        <ele>770.9410441024229</ele>
        <time>2026-07-24T23:45:03.617000Z</time>
      </trkpt>
      <trkpt lat="37.855665252743364" lon="112.5532630747051">
        <ele>771.1550333602354</ele>
        <time>2026-07-24T23:45:03.817000Z</time>
      </trkpt>
      <trkpt lat="37.85538722286312" lon="112.55327312671712">
        <ele>771.1444742782041</ele>
        <time>2026-07-24T23:45:03.917000Z</time>
      </trkpt>
      <trkpt lat="37.85511619086944" lon="112.55328117396348">
        <ele>770.2011759383604</ele>
        <time>2026-07-24T23:45:04.017000Z</time>
      </trkpt>
      <trkpt lat="37.85482321507239" lon="112.55332529476769">
        <ele>770.2672770125791</ele>
        <time>2026-07-24T23:45:04.117000Z</time>
      </trkpt>
      <trkpt lat="37.85455220142116" lon="112.5533443636702">
        <ele>770.9093058211729</ele>
        <time>2026-07-24T23:45:04.317000Z</time>
      </trkpt>
      <trkpt lat="37.854239205694434" lon="112.55337846696513">
        <ele>770.5711100203916</ele>
        <time>2026-07-24T23:45:04.417000Z</time>
      </trkpt>
      <trkpt lat="37.853961157761965" lon="112.55337749726074">
        <ele>771.1788370711729</ele>
        <time>2026-07-24T23:45:04.517000Z</time>
      </trkpt>
      <trkpt lat="37.85367105643179" lon="112.55334546788943">
        <ele>771.2897989852354</ele>
        <time>2026-07-24T23:45:04.617000Z</time>
      </trkpt>
      <trkpt lat="37.85352706238611" lon="112.55336352006138">
        <ele>771.1101114852354</ele>
        <time>2026-07-24T23:45:04.717000Z</time>
      </trkpt>
      <trkpt lat="37.853454010420506" lon="112.5533394812502">
        <ele>771.7522013289854</ele>
        <time>2026-07-24T23:45:04.717000Z</time>
      </trkpt>
      <trkpt lat="37.85343086697246" lon="112.55325531819322">
        <ele>771.2343180282041</ele>
        <time>2026-07-24T23:45:04.717000Z</time>
      </trkpt>
      <trkpt lat="37.85342527962731" lon="112.55290362232789">
        <ele>770.6715128524229</ele>
        <time>2026-07-24T23:45:04.917000Z</time>
      </trkpt>
      <trkpt lat="37.853412127966415" lon="112.5528144462346">
        <ele>771.5144083602354</ele>
        <time>2026-07-24T23:45:04.917000Z</time>
      </trkpt>
      <trkpt lat="37.85345584375981" lon="112.55264109473319">
        <ele>770.9542276961729</ele>
        <time>2026-07-24T23:45:04.917000Z</time>
      </trkpt>
      <trkpt lat="37.8535232429035" lon="112.55227935906107">
        <ele>770.5367472274229</ele>
        <time>2026-07-24T23:45:05.117000Z</time>
      </trkpt>
      <trkpt lat="37.853582772785025" lon="112.55199778097163">
        <ele>770.6265909774229</ele>
        <time>2026-07-24T23:45:05.217000Z</time>
      </trkpt>
      <trkpt lat="37.853540299837064" lon="112.5517262312238">
        <ele>770.3808634383604</ele>
        <time>2026-07-24T23:45:05.217000Z</time>
      </trkpt>
      <trkpt lat="37.85336068834051" lon="112.55138955915648">
        <ele>770.5949137313291</ele>
        <time>2026-07-24T23:45:05.417000Z</time>
      </trkpt>
      <trkpt lat="37.85329954426458" lon="112.55131240665243">
        <ele>770.7613566024229</ele>
        <time>2026-07-24T23:45:05.417000Z</time>
      </trkpt>
      <trkpt lat="37.85321543624652" lon="112.55125830430816">
        <ele>770.8961222274229</ele>
        <time>2026-07-24T23:45:05.417000Z</time>
      </trkpt>
      <trkpt lat="37.85310235471884" lon="112.55122224261484">
        <ele>770.3015787703916</ele>
        <time>2026-07-24T23:45:05.517000Z</time>
      </trkpt>
      <trkpt lat="37.8527943402973" lon="112.55124332202573">
        <ele>770.6953165633604</ele>
        <time>2026-07-24T23:45:05.617000Z</time>
      </trkpt>
      <trkpt lat="37.8525853353285" lon="112.55126038161077">
        <ele>770.5605509383604</ele>
        <time>2026-07-24T23:45:05.617000Z</time>
      </trkpt>
      <trkpt lat="37.852276163835846" lon="112.55119127404531">
        <ele>770.0532267196104</ele>
        <time>2026-07-24T23:45:05.817000Z</time>
      </trkpt>
      <trkpt lat="37.8519899522851" lon="112.55109711144988">
        <ele>770.8300821883604</ele>
        <time>2026-07-24T23:45:05.917000Z</time>
      </trkpt>
      <trkpt lat="37.851785810053656" lon="112.55103500574519">
        <ele>770.9199259383604</ele>
        <time>2026-07-24T23:45:06.017000Z</time>
      </trkpt>
      <trkpt lat="37.85172272779061" lon="112.55099392738839">
        <ele>771.1893961532041</ele>
        <time>2026-07-24T23:45:06.017000Z</time>
      </trkpt>
      <trkpt lat="37.85162651529735" lon="112.55088170407168">
        <ele>771.0097086532041</ele>
        <time>2026-07-24T23:45:06.117000Z</time>
      </trkpt>
      <trkpt lat="37.851342406924104" lon="112.55084666364772">
        <ele>770.4575235946104</ele>
        <time>2026-07-24T23:45:06.217000Z</time>
      </trkpt>
      <trkpt lat="37.851055319185896" lon="112.550823648704">
        <ele>770.5816691024229</ele>
        <time>2026-07-24T23:45:06.317000Z</time>
      </trkpt>
      <trkpt lat="37.85076325354888" lon="112.55081366161396">
        <ele>770.8643839461729</ele>
        <time>2026-07-24T23:45:06.417000Z</time>
      </trkpt>
      <trkpt lat="37.85047219516938" lon="112.55080768280277">
        <ele>771.6940958602354</ele>
        <time>2026-07-24T23:45:06.517000Z</time>
      </trkpt>
      <trkpt lat="37.85019118777993" lon="112.55082976161577">
        <ele>770.7058756453916</ele>
        <time>2026-07-24T23:45:06.717000Z</time>
      </trkpt>
      <trkpt lat="37.84989917861826" lon="112.55085184168074">
        <ele>770.3465006453916</ele>
        <time>2026-07-24T23:45:06.817000Z</time>
      </trkpt>
      <trkpt lat="37.84962715869637" lon="112.55086590262394">
        <ele>771.7284586532041</ele>
        <time>2026-07-24T23:45:06.917000Z</time>
      </trkpt>
      <trkpt lat="37.84935529162288" lon="112.5509671457428">
        <ele>769.8867838485166</ele>
        <time>2026-07-24T23:45:07.017000Z</time>
      </trkpt>
      <trkpt lat="37.84905150820545" lon="112.55111949841796">
        <ele>771.2581217391416</ele>
        <time>2026-07-24T23:45:07.217000Z</time>
      </trkpt>
      <trkpt lat="37.84877172436684" lon="112.55126984298003">
        <ele>772.1907999617979</ele>
        <time>2026-07-24T23:45:07.317000Z</time>
      </trkpt>
      <trkpt lat="37.848517001062454" lon="112.55145325174274">
        <ele>772.6954996688291</ele>
        <time>2026-07-24T23:45:07.417000Z</time>
      </trkpt>
      <trkpt lat="37.848397165261694" lon="112.55155948451646">
        <ele>772.0428507430479</ele>
        <time>2026-07-24T23:45:07.517000Z</time>
      </trkpt>
      <trkpt lat="37.84836330675182" lon="112.55164466353796">
        <ele>772.6505777938291</ele>
        <time>2026-07-24T23:45:07.517000Z</time>
      </trkpt>
      <trkpt lat="37.84836302203832" lon="112.55206151517595">
        <ele>773.2900431258604</ele>
        <time>2026-07-24T23:45:07.617000Z</time>
      </trkpt>
      <trkpt lat="37.84835045678163" lon="112.55231803630019">
        <ele>772.7853434188291</ele>
        <time>2026-07-24T23:45:07.717000Z</time>
      </trkpt>
      <trkpt lat="37.84833458336639" lon="112.55239419177128">
        <ele>773.2900431258604</ele>
        <time>2026-07-24T23:45:07.817000Z</time>
      </trkpt>
      <trkpt lat="37.848350825045614" lon="112.55253547412391">
        <ele>772.9306681258604</ele>
        <time>2026-07-24T23:45:07.817000Z</time>
      </trkpt>
      <trkpt lat="37.84849340461072" lon="112.5528661188209">
        <ele>773.3481485946104</ele>
        <time>2026-07-24T23:45:07.917000Z</time>
      </trkpt>
      <trkpt lat="37.84867715793119" lon="112.55329995661243">
        <ele>774.2808878524229</ele>
        <time>2026-07-24T23:45:08.117000Z</time>
      </trkpt>
      <trkpt lat="37.848817717201904" lon="112.55362457680683">
        <ele>773.1684610946104</ele>
        <time>2026-07-24T23:45:08.217000Z</time>
      </trkpt>
      <trkpt lat="37.84893126947955" lon="112.55395019662589">
        <ele>773.7286417586729</ele>
        <time>2026-07-24T23:45:08.417000Z</time>
      </trkpt>
      <trkpt lat="37.84904581927904" lon="112.55427681275405">
        <ele>773.2345011336729</ele>
        <time>2026-07-24T23:45:08.517000Z</time>
      </trkpt>
      <trkpt lat="37.84907923232455" lon="112.5545292916192">
        <ele>772.4154093367979</ele>
        <time>2026-07-24T23:45:08.617000Z</time>
      </trkpt>
      <trkpt lat="37.84908993954455" lon="112.55497012528747">
        <ele>773.1340983016416</ele>
        <time>2026-07-24T23:45:08.717000Z</time>
      </trkpt>
      <trkpt lat="37.84919250234735" lon="112.55531475906048">
        <ele>773.0205118758604</ele>
        <time>2026-07-24T23:45:08.817000Z</time>
      </trkpt>
      <trkpt lat="37.84922677443637" lon="112.55548407000687">
        <ele>772.6162150008604</ele>
        <time>2026-07-24T23:45:08.917000Z</time>
      </trkpt>
      <trkpt lat="37.849234443789214" lon="112.55591185808804">
        <ele>773.1790201766416</ele>
        <time>2026-07-24T23:45:09.017000Z</time>
      </trkpt>
      <trkpt lat="37.84920884273954" lon="112.55617233673446">
        <ele>773.0099527938291</ele>
        <time>2026-07-24T23:45:09.117000Z</time>
      </trkpt>
      <trkpt lat="37.849209368856876" lon="112.55651495691103">
        <ele>773.7630045516416</ele>
        <time>2026-07-24T23:45:09.317000Z</time>
      </trkpt>
      <trkpt lat="37.8492859268291" lon="112.55687359062519">
        <ele>774.0562784774229</ele>
        <time>2026-07-24T23:45:09.417000Z</time>
      </trkpt>
      <trkpt lat="37.84932305557578" lon="112.55695473076374">
        <ele>774.6058390242979</ele>
        <time>2026-07-24T23:45:09.417000Z</time>
      </trkpt>
      <trkpt lat="37.84942626726439" lon="112.55708394811451">
        <ele>773.9215128524229</ele>
        <time>2026-07-24T23:45:09.517000Z</time>
      </trkpt>
      <trkpt lat="37.849617423515056" lon="112.55716707302908">
        <ele>774.1461222274229</ele>
        <time>2026-07-25T00:24:56.917000Z</time>
      </trkpt>
      <trkpt lat="37.849925540105104" lon="112.55721111512842">
        <ele>772.8302652938291</ele>
        <time>2026-07-25T00:25:09.017000Z</time>
      </trkpt>
      <trkpt lat="37.8502406503186" lon="112.55725014748758">
        <ele>773.0205118758604</ele>
        <time>2026-07-25T00:25:24.117000Z</time>
      </trkpt>
      <trkpt lat="37.850524711943734" lon="112.55726013220769">
        <ele>773.2583048446104</ele>
        <time>2026-07-25T00:25:36.017000Z</time>
      </trkpt>
      <trkpt lat="37.850823753576194" lon="112.55725508871522">
        <ele>773.3137858016416</ele>
        <time>2026-07-25T00:25:48.117000Z</time>
      </trkpt>
      <trkpt lat="37.85097275556798" lon="112.55724004495895">
        <ele>773.2688639266416</ele>
        <time>2026-07-25T00:25:54.117000Z</time>
      </trkpt>
      <trkpt lat="37.85110779729653" lon="112.5572530522555">
        <ele>773.9215128524229</ele>
        <time>2026-07-25T00:26:00.117000Z</time>
      </trkpt>
      <trkpt lat="37.85124978164309" lon="112.55722698988154">
        <ele>773.2688639266416</ele>
        <time>2026-07-25T00:26:06.117000Z</time>
      </trkpt>
      <trkpt lat="37.85130769800386" lon="112.55716487353526">
        <ele>773.0310709578916</ele>
        <time>2026-07-25T00:26:09.117000Z</time>
      </trkpt>
      <trkpt lat="37.851498362685064" lon="112.55692141976317">
        <ele>772.9861490828916</ele>
        <time>2026-07-25T00:26:21.117000Z</time>
      </trkpt>
      <trkpt lat="37.851572293043" lon="112.55686731483733">
        <ele>773.3032267196104</ele>
        <time>2026-07-25T00:26:24.117000Z</time>
      </trkpt>
      <trkpt lat="37.85177024981574" lon="112.55681720252977">
        <ele>773.2345011336729</ele>
        <time>2026-07-25T00:26:33.117000Z</time>
      </trkpt>
      <trkpt lat="37.85204133403138" lon="112.55684321758059">
        <ele>773.2794230086729</ele>
        <time>2026-07-25T00:26:45.117000Z</time>
      </trkpt>
      <trkpt lat="37.85222044398895" lon="112.5568962914535">
        <ele>773.0205118758604</ele>
        <time>2026-07-25T00:26:54.117000Z</time>
      </trkpt>
      <trkpt lat="37.85252089400694" lon="112.55708312763092">
        <ele>772.8197062117979</ele>
        <time>2026-07-25T00:27:09.117000Z</time>
      </trkpt>
      <trkpt lat="37.85265192286505" lon="112.5571395256214">
        <ele>772.4603312117979</ele>
        <time>2026-07-25T00:27:15.117000Z</time>
      </trkpt>
      <trkpt lat="37.85293486609262" lon="112.55712448748652">
        <ele>773.2688639266416</ele>
        <time>2026-07-25T00:27:27.117000Z</time>
      </trkpt>
      <trkpt lat="37.853007650868896" lon="112.55711196527737">
        <ele>772.9544718367979</ele>
        <time>2026-07-25T00:27:30.117000Z</time>
      </trkpt>
      <trkpt lat="37.85328048734271" lon="112.55718090800661">
        <ele>772.7959025008604</ele>
        <time>2026-07-25T00:27:42.217000Z</time>
      </trkpt>
      <trkpt lat="37.85335089777098" lon="112.5571929167882">
        <ele>773.5383951766416</ele>
        <time>2026-07-25T00:27:45.217000Z</time>
      </trkpt>
      <trkpt lat="37.853421833238116" lon="112.55717405097784">
        <ele>772.5501749617979</ele>
        <time>2026-07-25T00:27:48.117000Z</time>
      </trkpt>
      <trkpt lat="37.85366374675872" lon="112.55693819899689">
        <ele>772.7642252547666</ele>
        <time>2026-07-25T00:28:00.217000Z</time>
      </trkpt>
      <trkpt lat="37.85371767999285" lon="112.55688810357455">
        <ele>771.9873697860166</ele>
        <time>2026-07-25T00:28:03.217000Z</time>
      </trkpt>
      <trkpt lat="37.853926098540995" lon="112.55681725273621">
        <ele>772.0322916610166</ele>
        <time>2026-07-25T00:28:12.117000Z</time>
      </trkpt>
      <trkpt lat="37.854131517049574" lon="112.5568578224337">
        <ele>773.5727579696104</ele>
        <time>2026-07-25T00:28:21.217000Z</time>
      </trkpt>
      <trkpt lat="37.854392982990746" lon="112.55701424972162">
        <ele>772.9650309188291</ele>
        <time>2026-07-25T00:28:33.117000Z</time>
      </trkpt>
      <trkpt lat="37.85463328972597" lon="112.55719153572687">
        <ele>772.4259684188291</ele>
        <time>2026-07-25T00:28:45.217000Z</time>
      </trkpt>
      <trkpt lat="37.854865610311144" lon="112.55737984033121">
        <ele>771.6729166610166</ele>
        <time>2026-07-25T00:28:57.217000Z</time>
      </trkpt>
      <trkpt lat="37.85512057249943" lon="112.55756199594624">
        <ele>771.5487711532041</ele>
        <time>2026-07-25T00:29:09.117000Z</time>
      </trkpt>
      <trkpt lat="37.85536214306063" lon="112.55775430829108">
        <ele>771.0308878524229</ele>
        <time>2026-07-25T00:29:21.217000Z</time>
      </trkpt>
      <trkpt lat="37.855473248330725" lon="112.5578471032159">
        <ele>770.4469034774229</ele>
        <time>2026-07-25T00:29:27.317000Z</time>
      </trkpt>
      <trkpt lat="37.85561929018088" lon="112.55810350109041">
        <ele>770.6265909774229</ele>
        <time>2026-07-25T00:29:39.517000Z</time>
      </trkpt>
      <trkpt lat="37.85574806034785" lon="112.55826326814439">
        <ele>771.5487711532041</ele>
        <time>2026-07-25T00:29:48.617000Z</time>
      </trkpt>
      <trkpt lat="37.85601134450571" lon="112.55842851922412">
        <ele>771.6279947860166</ele>
        <time>2026-07-25T00:30:00.917000Z</time>
      </trkpt>
      <trkpt lat="37.856239615912564" lon="112.55858976612153">
        <ele>771.5936930282041</ele>
        <time>2026-07-25T00:30:12.917000Z</time>
      </trkpt>
      <trkpt lat="37.856302649594774" lon="112.55860578590406">
        <ele>771.7522013289854</ele>
        <time>2026-07-25T00:30:15.917000Z</time>
      </trkpt>
      <trkpt lat="37.85638662323424" lon="112.55857772875281">
        <ele>772.3916666610166</ele>
        <time>2026-07-25T00:30:19.017000Z</time>
      </trkpt>
      <trkpt lat="37.85661819422035" lon="112.55841615639275">
        <ele>770.8300821883604</ele>
        <time>2026-07-25T00:30:28.217000Z</time>
      </trkpt>
      <trkpt lat="37.85673533114175" lon="112.55823154875978">
        <ele>770.7613566024229</ele>
        <time>2026-07-25T00:30:34.217000Z</time>
      </trkpt>
      <trkpt lat="37.8567881140504" lon="112.55816276940871">
        <ele>770.0426676375791</ele>
        <time>2026-07-25T00:30:37.217000Z</time>
      </trkpt>
      <trkpt lat="37.85684895995363" lon="112.5581205001422">
        <ele>770.1879923446104</ele>
        <time>2026-07-25T00:30:40.217000Z</time>
      </trkpt>
      <trkpt lat="37.85713795096357" lon="112.55793554949688">
        <ele>770.0875895125791</ele>
        <time>2026-07-25T00:30:55.317000Z</time>
      </trkpt>
      <trkpt lat="37.857206731321625" lon="112.55792640079908">
        <ele>770.1219523055479</ele>
        <time>2026-07-25T00:30:58.317000Z</time>
      </trkpt>
      <trkpt lat="37.85741373564252" lon="112.55785036546293">
        <ele>770.4812662703916</ele>
        <time>2026-07-25T00:31:07.317000Z</time>
      </trkpt>
      <trkpt lat="37.85760456820684" lon="112.5577151088454">
        <ele>771.2343180282041</ele>
        <time>2026-07-25T00:31:16.417000Z</time>
      </trkpt>
      <trkpt lat="37.857800201229054" lon="112.55744561599971">
        <ele>770.7058756453916</ele>
        <time>2026-07-25T00:31:28.717000Z</time>
      </trkpt>
      <trkpt lat="37.857933903447666" lon="112.55723122369395">
        <ele>771.0203287703916</ele>
        <time>2026-07-25T00:31:37.917000Z</time>
      </trkpt>
      <trkpt lat="37.85798883910197" lon="112.55718213070143">
        <ele>770.5949137313291</ele>
        <time>2026-07-25T00:31:41.017000Z</time>
      </trkpt>
      <trkpt lat="37.85828094191513" lon="112.55710581787707">
        <ele>771.4140055282041</ele>
        <time>2026-07-25T00:31:56.017000Z</time>
      </trkpt>
      <trkpt lat="37.85835793307052" lon="112.55711036883842">
        <ele>771.6940958602354</ele>
        <time>2026-07-25T00:31:59.017000Z</time>
      </trkpt>
      <trkpt lat="37.8585997782" lon="112.55707286670015">
        <ele>772.1776163680479</ele>
        <time>2026-07-25T00:32:08.117000Z</time>
      </trkpt>
      <trkpt lat="37.85865074156401" lon="112.5570428075174">
        <ele>772.4920694930479</ele>
        <time>2026-07-25T00:32:11.017000Z</time>
      </trkpt>
      <trkpt lat="37.85873055246744" lon="112.55690855972452">
        <ele>771.6386149032041</ele>
        <time>2026-07-25T00:32:17.017000Z</time>
      </trkpt>
      <trkpt lat="37.85883157800269" lon="112.5567052310896">
        <ele>772.3704874617979</ele>
        <time>2026-07-25T00:32:26.017000Z</time>
      </trkpt>
      <trkpt lat="37.85877289681524" lon="112.55647277385971">
        <ele>771.2686808211729</ele>
        <time>2026-07-25T00:32:32.117000Z</time>
      </trkpt>
      <trkpt lat="37.85875972112496" lon="112.55635957087156">
        <ele>771.9318888289854</ele>
        <time>2026-07-25T00:32:35.117000Z</time>
      </trkpt>
      <trkpt lat="37.85884759592466" lon="112.55626839548654">
        <ele>772.4365885360166</ele>
        <time>2026-07-25T00:32:41.217000Z</time>
      </trkpt>
      <trkpt lat="37.858909649565454" lon="112.55629643916407">
        <ele>771.7284586532041</ele>
        <time>2026-07-25T00:32:44.117000Z</time>
      </trkpt>
      <trkpt lat="37.85895877480303" lon="112.55637257134623">
        <ele>771.8076822860166</ele>
        <time>2026-07-25T00:32:47.117000Z</time>
      </trkpt>
      <trkpt lat="37.858979048081316" lon="112.55654888711791">
        <ele>772.1115763289854</ele>
        <time>2026-07-25T00:32:53.117000Z</time>
      </trkpt>
      <trkpt lat="37.85897030603078" lon="112.55671919384503">
        <ele>771.6174357039854</ele>
        <time>2026-07-25T00:32:59.217000Z</time>
      </trkpt>
      <trkpt lat="37.858990829300154" lon="112.55706280359622">
        <ele>770.8406412703916</ele>
        <time>2026-07-25T00:33:11.117000Z</time>
      </trkpt>
      <trkpt lat="37.85900935631119" lon="112.557412417836">
        <ele>771.9635660750791</ele>
        <time>2026-07-25T00:33:23.117000Z</time>
      </trkpt>
      <trkpt lat="37.859030866922204" lon="112.5577540112995">
        <ele>771.6279947860166</ele>
        <time>2026-07-25T00:33:35.117000Z</time>
      </trkpt>
      <trkpt lat="37.85904735864063" lon="112.55808658361707">
        <ele>771.9213297469541</ele>
        <time>2026-07-25T00:33:47.217000Z</time>
      </trkpt>
      <trkpt lat="37.8590375924259" lon="112.55824786108097">
        <ele>771.1101114852354</ele>
        <time>2026-07-25T00:33:53.117000Z</time>
      </trkpt>
      <trkpt lat="37.859098112199646" lon="112.55859945165643">
        <ele>771.3796427352354</ele>
        <time>2026-07-25T00:34:05.217000Z</time>
      </trkpt>
      <trkpt lat="37.859078214148184" lon="112.55867257741349">
        <ele>772.3361246688291</ele>
        <time>2026-07-25T00:34:08.117000Z</time>
      </trkpt>
      <trkpt lat="37.85910471049465" lon="112.55901615052899">
        <ele>772.3018229110166</ele>
        <time>2026-07-25T00:34:20.217000Z</time>
      </trkpt>
      <trkpt lat="37.85912320900435" lon="112.5593657281082">
        <ele>771.9768107039854</ele>
        <time>2026-07-25T00:34:32.217000Z</time>
      </trkpt>
      <trkpt lat="37.85914580913931" lon="112.5597914225214">
        <ele>771.7839396102354</ele>
        <time>2026-07-25T00:34:47.217000Z</time>
      </trkpt>
      <trkpt lat="37.85915004069048" lon="112.55995769161368">
        <ele>771.4483683211729</ele>
        <time>2026-07-25T00:34:53.217000Z</time>
      </trkpt>
      <trkpt lat="37.85913516283238" lon="112.5600478388695">
        <ele>772.2912638289854</ele>
        <time>2026-07-25T00:34:56.217000Z</time>
      </trkpt>
      <trkpt lat="37.85909725727334" lon="112.56012096098057">
        <ele>772.2119791610166</ele>
        <time>2026-07-25T00:34:59.317000Z</time>
      </trkpt>
      <trkpt lat="37.85893036543365" lon="112.56022013950387">
        <ele>772.3018229110166</ele>
        <time>2026-07-25T00:35:08.417000Z</time>
      </trkpt>
      <trkpt lat="37.85864932612824" lon="112.56022618170792">
        <ele>772.5158121688291</ele>
        <time>2026-07-25T00:35:20.517000Z</time>
      </trkpt>
      <trkpt lat="37.85857134319419" lon="112.56024822603958">
        <ele>771.7284586532041</ele>
        <time>2026-07-25T00:35:23.617000Z</time>
      </trkpt>
      <trkpt lat="37.85824625387095" lon="112.56022322361083">
        <ele>772.1907999617979</ele>
        <time>2026-07-25T00:35:38.917000Z</time>
      </trkpt>
      <trkpt lat="37.858030288891484" lon="112.56027533202702">
        <ele>772.0666544539854</ele>
        <time>2026-07-25T00:35:51.217000Z</time>
      </trkpt>
      <trkpt lat="37.85773524598803" lon="112.5602803742325">
        <ele>772.3467447860166</ele>
        <time>2026-07-25T00:36:06.217000Z</time>
      </trkpt>
      <trkpt lat="37.85756321424502" lon="112.56027839096696">
        <ele>773.0786173446104</ele>
        <time>2026-07-25T00:36:12.217000Z</time>
      </trkpt>
      <trkpt lat="37.85743724930144" lon="112.56031947120078">
        <ele>772.6849405867979</ele>
        <time>2026-07-25T00:36:18.217000Z</time>
      </trkpt>
      <trkpt lat="37.85715111188101" lon="112.56025440026572">
        <ele>772.5819132430479</ele>
        <time>2026-07-25T00:36:30.217000Z</time>
      </trkpt>
      <trkpt lat="37.85686400996226" lon="112.5602153709708">
        <ele>774.6058390242979</ele>
        <time>2026-07-25T00:36:45.217000Z</time>
      </trkpt>
      <trkpt lat="37.85665681937412" lon="112.56010221322529">
        <ele>773.4379923446104</ele>
        <time>2026-07-25T00:36:51.217000Z</time>
      </trkpt>
      <trkpt lat="37.8565547566407" lon="112.56006917184291">
        <ele>773.0205118758604</ele>
        <time>2026-07-25T00:36:54.217000Z</time>
      </trkpt>
      <trkpt lat="37.856422741392336" lon="112.56007419520924">
        <ele>772.8751871688291</ele>
        <time>2026-07-25T00:37:00.217000Z</time>
      </trkpt>
      <trkpt lat="37.856422741392336" lon="112.56007419520924">
        <ele>774.2660498374642</ele>
        <time>2026-07-25T00:37:02.217000Z</time>
      </trkpt>
    </trkseg>
  </trk>
</gpx>