<?xml version="1.0" encoding="UTF-8"?>
<gpx xmlns="http://www.topografix.com/GPX/1/1" xmlns:gpxtpx="http://www.garmin.com/xmlschemas/TrackPointExtension/v1" xmlns:xsi="http://www.w3.org/2001/XMLSchema-instance" xsi:schemaLocation="http://www.topografix.com/GPX/1/1 http://www.topografix.com/GPX/1/1/gpx.xsd" version="1.1" creator="gpx.py -- https://github.com/tkrajina/gpxpy">
  <trk>
    <name>gpx from keep</name>
    <type>Run</type>
    <trkseg>
      <trkpt lat="39.890382359113225" lon="116.3410508562397">
        <ele>58.16739204246551</ele>
        <time>2026-09-15T22:14:31.349000Z</time>
      </trkpt>
      <trkpt lat="39.890383485219715" lon="116.34098000791262">
        <ele>58.24137618858367</ele>
        <time>2026-09-15T22:14:34.349000Z</time>
      </trkpt>
      <trkpt lat="39.89028211651312" lon="116.3406287747006">
        <ele>58.27044036705047</ele>
        <time>2026-09-15T22:14:52.649000Z</time>
      </trkpt>
      <trkpt lat="39.89027026150495" lon="116.34054795000604">
        <ele>57.95865180809051</ele>
        <time>2026-09-15T22:14:55.749000Z</time>
      </trkpt>
      <trkpt lat="39.890313730734924" lon="116.34047791416833">
        <ele>58.57430198509246</ele>
        <time>2026-09-15T22:14:58.749000Z</time>
      </trkpt>
      <trkpt lat="39.89036302958737" lon="116.3404621201908">
        <ele>58.896659162826836</ele>
        <time>2026-09-15T22:15:01.749000Z</time>
      </trkpt>
      <trkpt lat="39.890462339972444" lon="116.34049903093063">
        <ele>58.48974922019988</ele>
        <time>2026-09-15T22:15:04.749000Z</time>
      </trkpt>
      <trkpt lat="39.89066226999514" lon="116.34053293266554">
        <ele>58.02206733543426</ele>
        <time>2026-09-15T22:15:13.749000Z</time>
      </trkpt>
      <trkpt lat="39.89070114512373" lon="116.34060177966856">
        <ele>57.91637542564422</ele>
        <time>2026-09-15T22:15:16.749000Z</time>
      </trkpt>
      <trkpt lat="39.89068682686782" lon="116.34078039770465">
        <ele>57.79218986351043</ele>
        <time>2026-09-15T22:15:22.749000Z</time>
      </trkpt>
      <trkpt lat="39.890726083913094" lon="116.34119650089387">
        <ele>58.4712536605075</ele>
        <time>2026-09-15T22:15:37.949000Z</time>
      </trkpt>
      <trkpt lat="39.89073750934404" lon="116.34151980865673">
        <ele>58.84645774681121</ele>
        <time>2026-09-15T22:15:50.049000Z</time>
      </trkpt>
      <trkpt lat="39.890706229681854" lon="116.34167847431117">
        <ele>59.24279716331512</ele>
        <time>2026-09-15T22:15:56.149000Z</time>
      </trkpt>
      <trkpt lat="39.89070276746811" lon="116.34193991831903">
        <ele>59.90072181541473</ele>
        <time>2026-09-15T22:16:05.449000Z</time>
      </trkpt>
      <trkpt lat="39.89071760819274" lon="116.34202972559832">
        <ele>58.71962669212371</ele>
        <time>2026-09-15T22:16:08.449000Z</time>
      </trkpt>
      <trkpt lat="39.8907114905025" lon="116.34209658439744">
        <ele>59.752757337875664</ele>
        <time>2026-09-15T22:16:11.449000Z</time>
      </trkpt>
      <trkpt lat="39.89063645351327" lon="116.34211954516613">
        <ele>58.439545896835625</ele>
        <time>2026-09-15T22:16:14.449000Z</time>
      </trkpt>
      <trkpt lat="39.890320435763144" lon="116.34327813917338">
        <ele>40.076865138166305</ele>
        <time>2026-09-15T22:18:54.149000Z</time>
      </trkpt>
      <trkpt lat="39.89022850796857" lon="116.34323923253253">
        <ele>39.94210904990947</ele>
        <time>2026-09-15T22:19:00.249000Z</time>
      </trkpt>
      <trkpt lat="39.890053430812195" lon="116.3432881519864">
        <ele>40.53662008201396</ele>
        <time>2026-09-15T22:19:09.449000Z</time>
      </trkpt>
      <trkpt lat="39.8899012160129" lon="116.34328484965052">
        <ele>40.380724848859664</ele>
        <time>2026-09-15T22:19:15.649000Z</time>
      </trkpt>
      <trkpt lat="39.88966427280332" lon="116.34322519245038">
        <ele>40.005522669904586</ele>
        <time>2026-09-15T22:19:21.649000Z</time>
      </trkpt>
      <trkpt lat="39.889321646195064" lon="116.343184462527">
        <ele>40.34901899253642</ele>
        <time>2026-09-15T22:19:33.649000Z</time>
      </trkpt>
      <trkpt lat="39.888990689601634" lon="116.34316853793453">
        <ele>40.1719865218333</ele>
        <time>2026-09-15T22:19:45.649000Z</time>
      </trkpt>
      <trkpt lat="39.88870471000562" lon="116.34316458248658">
        <ele>39.82849019920146</ele>
        <time>2026-09-15T22:19:57.649000Z</time>
      </trkpt>
      <trkpt lat="39.88842086563021" lon="116.34317364024943">
        <ele>40.1719865218333</ele>
        <time>2026-09-15T22:20:09.649000Z</time>
      </trkpt>
      <trkpt lat="39.88810872760034" lon="116.34317064526155">
        <ele>39.40044301902568</ele>
        <time>2026-09-15T22:20:24.749000Z</time>
      </trkpt>
      <trkpt lat="39.88782371315995" lon="116.34318664774368">
        <ele>39.93153852378642</ele>
        <time>2026-09-15T22:20:33.749000Z</time>
      </trkpt>
      <trkpt lat="39.88751873802331" lon="116.3431806988887">
        <ele>40.150847376935836</ele>
        <time>2026-09-15T22:20:45.849000Z</time>
      </trkpt>
      <trkpt lat="39.887222336776915" lon="116.3431754473144">
        <ele>39.77564519798076</ele>
        <time>2026-09-15T22:20:57.949000Z</time>
      </trkpt>
      <trkpt lat="39.886937108717305" lon="116.34317520150769">
        <ele>40.005522669904586</ele>
        <time>2026-09-15T22:21:10.149000Z</time>
      </trkpt>
      <trkpt lat="39.88664838615676" lon="116.34317039001257">
        <ele>39.93153852378642</ele>
        <time>2026-09-15T22:21:22.349000Z</time>
      </trkpt>
      <trkpt lat="39.88632778767767" lon="116.34315363133328">
        <ele>39.61974996482646</ele>
        <time>2026-09-15T22:21:34.549000Z</time>
      </trkpt>
      <trkpt lat="39.88604384635026" lon="116.34315893151397">
        <ele>39.28418249046123</ele>
        <time>2026-09-15T22:21:46.649000Z</time>
      </trkpt>
      <trkpt lat="39.88575187421078" lon="116.34315098521023">
        <ele>39.765076579206344</ele>
        <time>2026-09-15T22:21:58.649000Z</time>
      </trkpt>
      <trkpt lat="39.885396889413" lon="116.3431520279934">
        <ele>40.24332708274638</ele>
        <time>2026-09-15T22:22:13.649000Z</time>
      </trkpt>
      <trkpt lat="39.88509124452406" lon="116.34317167981004">
        <ele>39.701661051862594</ele>
        <time>2026-09-15T22:22:25.649000Z</time>
      </trkpt>
      <trkpt lat="39.88480183771424" lon="116.34319800675077">
        <ele>39.368735255353805</ele>
        <time>2026-09-15T22:22:37.649000Z</time>
      </trkpt>
      <trkpt lat="39.884498251674266" lon="116.34318345768946">
        <ele>39.63032049094951</ele>
        <time>2026-09-15T22:22:49.649000Z</time>
      </trkpt>
      <trkpt lat="39.88427611696832" lon="116.3431673384061">
        <ele>39.98438543235576</ele>
        <time>2026-09-15T22:22:58.649000Z</time>
      </trkpt>
      <trkpt lat="39.88399071992622" lon="116.3431754726887">
        <ele>39.492920817487594</ele>
        <time>2026-09-15T22:23:10.649000Z</time>
      </trkpt>
      <trkpt lat="39.883689180632075" lon="116.3431615300942">
        <ele>39.94210904990947</ele>
        <time>2026-09-15T22:23:22.649000Z</time>
      </trkpt>
      <trkpt lat="39.883409930793256" lon="116.34318321417459">
        <ele>39.411011637800094</ele>
        <time>2026-09-15T22:23:34.649000Z</time>
      </trkpt>
      <trkpt lat="39.883136042819835" lon="116.34317660988945">
        <ele>39.305319728010055</ele>
        <time>2026-09-15T22:23:46.649000Z</time>
      </trkpt>
      <trkpt lat="39.88283903682683" lon="116.34313838073257">
        <ele>39.14942640220439</ele>
        <time>2026-09-15T22:23:58.749000Z</time>
      </trkpt>
      <trkpt lat="39.882555407627585" lon="116.34313620425384">
        <ele>39.50349134361064</ele>
        <time>2026-09-15T22:24:10.749000Z</time>
      </trkpt>
      <trkpt lat="39.88248123297335" lon="116.34315217934126">
        <ele>39.50349134361064</ele>
        <time>2026-09-15T22:24:13.749000Z</time>
      </trkpt>
      <trkpt lat="39.88226665248466" lon="116.3431633443623">
        <ele>39.202271403425094</ele>
        <time>2026-09-15T22:24:22.849000Z</time>
      </trkpt>
      <trkpt lat="39.88218904296314" lon="116.3431505490665">
        <ele>39.56690496360576</ele>
        <time>2026-09-15T22:24:25.849000Z</time>
      </trkpt>
      <trkpt lat="39.88190899654274" lon="116.34318739552793">
        <ele>39.84962934409892</ele>
        <time>2026-09-15T22:24:37.849000Z</time>
      </trkpt>
      <trkpt lat="39.88161682057561" lon="116.34318328930742">
        <ele>39.93153852378642</ele>
        <time>2026-09-15T22:24:49.949000Z</time>
      </trkpt>
      <trkpt lat="39.88126947914128" lon="116.34320279257996">
        <ele>38.91954893028056</ele>
        <time>2026-09-15T22:25:05.149000Z</time>
      </trkpt>
      <trkpt lat="39.88097565256514" lon="116.34322481450677">
        <ele>39.33702749168193</ele>
        <time>2026-09-15T22:25:17.249000Z</time>
      </trkpt>
      <trkpt lat="39.88074246836236" lon="116.34322745822998">
        <ele>39.84962934409892</ele>
        <time>2026-09-15T22:25:26.449000Z</time>
      </trkpt>
      <trkpt lat="39.880426966116055" lon="116.34324645918625">
        <ele>39.53519719993388</ele>
        <time>2026-09-15T22:25:38.549000Z</time>
      </trkpt>
      <trkpt lat="39.88013584880295" lon="116.34328554134689">
        <ele>39.78621381675517</ele>
        <time>2026-09-15T22:25:50.649000Z</time>
      </trkpt>
      <trkpt lat="39.87983402093448" lon="116.34330825417237">
        <ele>39.42158025657451</ele>
        <time>2026-09-15T22:26:02.649000Z</time>
      </trkpt>
      <trkpt lat="39.87954388414279" lon="116.34331841997349">
        <ele>39.19170278465068</ele>
        <time>2026-09-15T22:26:14.649000Z</time>
      </trkpt>
      <trkpt lat="39.87926585433702" lon="116.3433434027676">
        <ele>39.63032049094951</ele>
        <time>2026-09-15T22:26:26.649000Z</time>
      </trkpt>
      <trkpt lat="39.878980952042916" lon="116.34335190423052">
        <ele>39.659384669416305</ele>
        <time>2026-09-15T22:26:38.649000Z</time>
      </trkpt>
      <trkpt lat="39.878688201938374" lon="116.34338389300243">
        <ele>39.556336344831344</ele>
        <time>2026-09-15T22:26:50.649000Z</time>
      </trkpt>
      <trkpt lat="39.878393791330204" lon="116.34340438531781">
        <ele>39.202271403425094</ele>
        <time>2026-09-15T22:27:02.649000Z</time>
      </trkpt>
      <trkpt lat="39.878113798901126" lon="116.34342794822786">
        <ele>39.58804410850322</ele>
        <time>2026-09-15T22:27:14.649000Z</time>
      </trkpt>
      <trkpt lat="39.87783735613919" lon="116.34343259254004">
        <ele>39.21284002219951</ele>
        <time>2026-09-15T22:27:26.649000Z</time>
      </trkpt>
      <trkpt lat="39.87753812704181" lon="116.34344450864627">
        <ele>39.45328802024638</ele>
        <time>2026-09-15T22:27:38.649000Z</time>
      </trkpt>
      <trkpt lat="39.87719332843006" lon="116.34349195707468">
        <ele>39.88926214134013</ele>
        <time>2026-09-15T22:27:53.649000Z</time>
      </trkpt>
      <trkpt lat="39.87706113630135" lon="116.34352791563258">
        <ele>40.068938197248336</ele>
        <time>2026-09-15T22:27:59.649000Z</time>
      </trkpt>
      <trkpt lat="39.87678362641062" lon="116.34354529400348">
        <ele>39.651457728498336</ele>
        <time>2026-09-15T22:28:11.649000Z</time>
      </trkpt>
      <trkpt lat="39.876455557742474" lon="116.34359423310528">
        <ele>39.09658140098369</ele>
        <time>2026-09-15T22:28:26.749000Z</time>
      </trkpt>
      <trkpt lat="39.876238650309126" lon="116.3436024763681">
        <ele>38.47036260520732</ele>
        <time>2026-09-15T22:28:38.849000Z</time>
      </trkpt>
      <trkpt lat="39.876022692306485" lon="116.34352942361495">
        <ele>39.21284002219951</ele>
        <time>2026-09-15T22:28:47.949000Z</time>
      </trkpt>
      <trkpt lat="39.87571883788337" lon="116.34357978845536">
        <ele>39.117718638532516</ele>
        <time>2026-09-15T22:29:00.149000Z</time>
      </trkpt>
      <trkpt lat="39.875646299727045" lon="116.34360422255571">
        <ele>39.78621381675517</ele>
        <time>2026-09-15T22:29:03.149000Z</time>
      </trkpt>
      <trkpt lat="39.875577773602295" lon="116.34361639698483">
        <ele>39.13885778342998</ele>
        <time>2026-09-15T22:29:06.249000Z</time>
      </trkpt>
      <trkpt lat="39.875373372181855" lon="116.34364899902134">
        <ele>39.25247472678935</ele>
        <time>2026-09-15T22:29:15.449000Z</time>
      </trkpt>
      <trkpt lat="39.87512557944053" lon="116.34362034690712">
        <ele>39.1071500197581</ele>
        <time>2026-09-15T22:29:27.549000Z</time>
      </trkpt>
      <trkpt lat="39.8748136580537" lon="116.34363975630542">
        <ele>39.82849019920146</ele>
        <time>2026-09-15T22:29:39.649000Z</time>
      </trkpt>
      <trkpt lat="39.87451715307707" lon="116.3436551837021">
        <ele>39.42158025657451</ele>
        <time>2026-09-15T22:29:51.649000Z</time>
      </trkpt>
      <trkpt lat="39.87423252395796" lon="116.34367833870836">
        <ele>39.29475110923564</ele>
        <time>2026-09-15T22:30:03.649000Z</time>
      </trkpt>
      <trkpt lat="39.873888527185514" lon="116.34370866195127">
        <ele>38.951254786603805</ele>
        <time>2026-09-15T22:30:18.649000Z</time>
      </trkpt>
      <trkpt lat="39.87358682006468" lon="116.34372850832634">
        <ele>39.06487363731181</ele>
        <time>2026-09-15T22:30:30.649000Z</time>
      </trkpt>
      <trkpt lat="39.87325509190136" lon="116.34377997764413">
        <ele>39.202271403425094</ele>
        <time>2026-09-15T22:30:45.649000Z</time>
      </trkpt>
      <trkpt lat="39.87294206108826" lon="116.3438044194257">
        <ele>39.223410548322555</ele>
        <time>2026-09-15T22:30:57.649000Z</time>
      </trkpt>
      <trkpt lat="39.87264945577896" lon="116.34382976945466">
        <ele>39.326458872907516</ele>
        <time>2026-09-15T22:31:09.649000Z</time>
      </trkpt>
      <trkpt lat="39.8723667049351" lon="116.3438593115302">
        <ele>39.25247472678935</ele>
        <time>2026-09-15T22:31:21.649000Z</time>
      </trkpt>
      <trkpt lat="39.872078231838415" lon="116.34391012739796">
        <ele>39.61974996482646</ele>
        <time>2026-09-15T22:31:33.649000Z</time>
      </trkpt>
      <trkpt lat="39.871781442151004" lon="116.3439525866217">
        <ele>39.347596110456344</ele>
        <time>2026-09-15T22:31:48.649000Z</time>
      </trkpt>
      <trkpt lat="39.87145917367553" lon="116.34396209740065">
        <ele>38.8984097853831</ele>
        <time>2026-09-15T22:32:00.649000Z</time>
      </trkpt>
      <trkpt lat="39.87118786812118" lon="116.34399053126144">
        <ele>39.0543050185374</ele>
        <time>2026-09-15T22:32:12.649000Z</time>
      </trkpt>
      <trkpt lat="39.87090380135124" lon="116.344032664328">
        <ele>38.86670202171123</ele>
        <time>2026-09-15T22:32:24.649000Z</time>
      </trkpt>
      <trkpt lat="39.870602625806114" lon="116.34406444148522">
        <ele>38.81649869834697</ele>
        <time>2026-09-15T22:32:36.649000Z</time>
      </trkpt>
      <trkpt lat="39.870320649386215" lon="116.34408047870716">
        <ele>39.13885778342998</ele>
        <time>2026-09-15T22:32:48.649000Z</time>
      </trkpt>
      <trkpt lat="39.86998698064424" lon="116.34415042172098">
        <ele>39.17056363975322</ele>
        <time>2026-09-15T22:33:03.649000Z</time>
      </trkpt>
      <trkpt lat="39.86970538636598" lon="116.3441866637684">
        <ele>39.25247472678935</ele>
        <time>2026-09-15T22:33:15.749000Z</time>
      </trkpt>
      <trkpt lat="39.86941455891702" lon="116.34424101690443">
        <ele>38.67910093223369</ele>
        <time>2026-09-15T22:33:27.749000Z</time>
      </trkpt>
      <trkpt lat="39.8691333577043" lon="116.34426669780731">
        <ele>39.1071500197581</ele>
        <time>2026-09-15T22:33:39.849000Z</time>
      </trkpt>
      <trkpt lat="39.86884484049122" lon="116.34427995193437">
        <ele>38.61568731223857</ele>
        <time>2026-09-15T22:33:51.949000Z</time>
      </trkpt>
      <trkpt lat="39.8685567061528" lon="116.34431972060221">
        <ele>39.00410169517314</ele>
        <time>2026-09-15T22:34:04.249000Z</time>
      </trkpt>
      <trkpt lat="39.86829764906642" lon="116.34436066835237">
        <ele>39.50349134361064</ele>
        <time>2026-09-15T22:34:16.449000Z</time>
      </trkpt>
      <trkpt lat="39.868277970382955" lon="116.34438685474707">
        <ele>38.70024007713115</ele>
        <time>2026-09-15T22:34:22.549000Z</time>
      </trkpt>
      <trkpt lat="39.8685795998577" lon="116.3443805912765">
        <ele>39.07544225608623</ele>
        <time>2026-09-15T22:34:31.649000Z</time>
      </trkpt>
      <trkpt lat="39.86889064045297" lon="116.34434762035694">
        <ele>38.8455647841624</ele>
        <time>2026-09-15T22:34:43.649000Z</time>
      </trkpt>
      <trkpt lat="39.869224693685396" lon="116.34430666314027">
        <ele>38.81649869834697</ele>
        <time>2026-09-15T22:34:58.649000Z</time>
      </trkpt>
      <trkpt lat="39.86951172528621" lon="116.3442796828611">
        <ele>39.0543050185374</ele>
        <time>2026-09-15T22:35:10.649000Z</time>
      </trkpt>
      <trkpt lat="39.86979273999119" lon="116.34426268261119">
        <ele>38.877272547834274</ele>
        <time>2026-09-15T22:35:22.649000Z</time>
      </trkpt>
      <trkpt lat="39.87006982048055" lon="116.34420776172597">
        <ele>38.57605260764873</ele>
        <time>2026-09-15T22:35:34.649000Z</time>
      </trkpt>
      <trkpt lat="39.87036187092433" lon="116.34416980370906">
        <ele>38.85613340293681</ele>
        <time>2026-09-15T22:35:46.649000Z</time>
      </trkpt>
      <trkpt lat="39.87063494139377" lon="116.34412087097284">
        <ele>38.91954893028056</ele>
        <time>2026-09-15T22:35:58.649000Z</time>
      </trkpt>
      <trkpt lat="39.87090397931053" lon="116.34409089930772">
        <ele>38.993531169050094</ele>
        <time>2026-09-15T22:36:10.649000Z</time>
      </trkpt>
      <trkpt lat="39.87120998080375" lon="116.34408088141812">
        <ele>39.3158902541331</ele>
        <time>2026-09-15T22:36:22.649000Z</time>
      </trkpt>
      <trkpt lat="39.871489028639694" lon="116.3440449209874">
        <ele>38.877272547834274</ele>
        <time>2026-09-15T22:36:34.649000Z</time>
      </trkpt>
      <trkpt lat="39.87177210570568" lon="116.34399199543583">
        <ele>38.96182531272685</ele>
        <time>2026-09-15T22:36:46.649000Z</time>
      </trkpt>
      <trkpt lat="39.87189311851278" lon="116.34398100302616">
        <ele>39.38987249290263</ele>
        <time>2026-09-15T22:36:52.649000Z</time>
      </trkpt>
      <trkpt lat="39.871937090318276" lon="116.34399596626402">
        <ele>38.58662122642314</ele>
        <time>2026-09-15T22:36:55.649000Z</time>
      </trkpt>
      <trkpt lat="39.87223117555098" lon="116.34393804978212">
        <ele>38.53377622520244</ele>
        <time>2026-09-15T22:37:07.749000Z</time>
      </trkpt>
      <trkpt lat="39.872512207880014" lon="116.34391107046967">
        <ele>39.0543050185374</ele>
        <time>2026-09-15T22:37:19.749000Z</time>
      </trkpt>
      <trkpt lat="39.872797250425144" lon="116.34387810316093">
        <ele>38.98296255027568</ele>
        <time>2026-09-15T22:37:31.749000Z</time>
      </trkpt>
      <trkpt lat="39.873085287664324" lon="116.34384812924638">
        <ele>39.13885778342998</ele>
        <time>2026-09-15T22:37:43.849000Z</time>
      </trkpt>
      <trkpt lat="39.87337131638429" lon="116.3438231451851">
        <ele>38.93011754905498</ele>
        <time>2026-09-15T22:37:55.949000Z</time>
      </trkpt>
      <trkpt lat="39.873657350334966" lon="116.343795167389">
        <ele>39.014670313947555</ele>
        <time>2026-09-15T22:38:08.249000Z</time>
      </trkpt>
      <trkpt lat="39.87394137575929" lon="116.34377217943837">
        <ele>38.70024007713115</ele>
        <time>2026-09-15T22:38:20.549000Z</time>
      </trkpt>
      <trkpt lat="39.87424539846852" lon="116.34375018688586">
        <ele>38.51263708030498</ele>
        <time>2026-09-15T22:38:32.649000Z</time>
      </trkpt>
      <trkpt lat="39.87453042737345" lon="116.34372520300113">
        <ele>38.417515696637984</ele>
        <time>2026-09-15T22:38:44.649000Z</time>
      </trkpt>
      <trkpt lat="39.87482445759091" lon="116.3436992200779">
        <ele>38.272190989606734</ele>
        <time>2026-09-15T22:38:56.649000Z</time>
      </trkpt>
      <trkpt lat="39.87510045406569" lon="116.34369319771359">
        <ele>39.21284002219951</ele>
        <time>2026-09-15T22:39:08.649000Z</time>
      </trkpt>
      <trkpt lat="39.87539146888415" lon="116.34367619640574">
        <ele>38.77422231590068</ele>
        <time>2026-09-15T22:39:20.649000Z</time>
      </trkpt>
      <trkpt lat="39.87545842389038" lon="116.34370013786443">
        <ele>39.223410548322555</ele>
        <time>2026-09-15T22:39:23.649000Z</time>
      </trkpt>
      <trkpt lat="39.87578846452644" lon="116.34366716501138">
        <ele>38.70024007713115</ele>
        <time>2026-09-15T22:39:38.649000Z</time>
      </trkpt>
      <trkpt lat="39.876061443882136" lon="116.34367112216049">
        <ele>39.00410169517314</ele>
        <time>2026-09-15T22:39:50.649000Z</time>
      </trkpt>
      <trkpt lat="39.87639145162574" lon="116.34365710966897">
        <ele>38.229914607160445</ele>
        <time>2026-09-15T22:40:08.649000Z</time>
      </trkpt>
      <trkpt lat="39.876455450155966" lon="116.34365610366712">
        <ele>37.815077723615524</ele>
        <time>2026-09-15T22:40:11.649000Z</time>
      </trkpt>
      <trkpt lat="39.87654461645097" lon="116.34368593478332">
        <ele>38.417515696637984</ele>
        <time>2026-09-15T22:40:14.649000Z</time>
      </trkpt>
      <trkpt lat="39.87683745360514" lon="116.34364308251978">
        <ele>38.523207606428024</ele>
        <time>2026-09-15T22:40:26.649000Z</time>
      </trkpt>
      <trkpt lat="39.877110481620406" lon="116.34361909811739">
        <ele>38.88784116660869</ele>
        <time>2026-09-15T22:40:38.649000Z</time>
      </trkpt>
      <trkpt lat="39.87718249017734" lon="116.34361210363262">
        <ele>39.43214887534892</ele>
        <time>2026-09-15T22:40:41.649000Z</time>
      </trkpt>
      <trkpt lat="39.87745059834819" lon="116.34354221596963">
        <ele>39.77564519798076</ele>
        <time>2026-09-15T22:40:53.649000Z</time>
      </trkpt>
      <trkpt lat="39.87774763220429" lon="116.3435142369433">
        <ele>39.0543050185374</ele>
        <time>2026-09-15T22:41:05.649000Z</time>
      </trkpt>
      <trkpt lat="39.878031644154895" lon="116.34349923240013">
        <ele>39.3158902541331</ele>
        <time>2026-09-15T22:41:17.649000Z</time>
      </trkpt>
      <trkpt lat="39.878321659308604" lon="116.34348223128427">
        <ele>38.972393931501266</ele>
        <time>2026-09-15T22:41:29.649000Z</time>
      </trkpt>
      <trkpt lat="39.8786116953461" lon="116.34345325526785">
        <ele>38.6077603713206</ele>
        <time>2026-09-15T22:41:41.649000Z</time>
      </trkpt>
      <trkpt lat="39.87890570340604" lon="116.34344024529568">
        <ele>38.91954893028056</ele>
        <time>2026-09-15T22:41:53.649000Z</time>
      </trkpt>
      <trkpt lat="39.87919074671072" lon="116.34340727830448">
        <ele>39.368735255353805</ele>
        <time>2026-09-15T22:42:05.649000Z</time>
      </trkpt>
      <trkpt lat="39.879472746720836" lon="116.3433992593987">
        <ele>39.60918134605205</ele>
        <time>2026-09-15T22:42:17.649000Z</time>
      </trkpt>
      <trkpt lat="39.87976079168237" lon="116.34336529414865">
        <ele>38.6896695510081</ele>
        <time>2026-09-15T22:42:29.649000Z</time>
      </trkpt>
      <trkpt lat="39.88003079754864" lon="116.34335428304588">
        <ele>39.14942640220439</ele>
        <time>2026-09-15T22:42:41.649000Z</time>
      </trkpt>
      <trkpt lat="39.880311841180266" lon="116.34332131661755">
        <ele>38.62889760886943</ele>
        <time>2026-09-15T22:42:53.649000Z</time>
      </trkpt>
      <trkpt lat="39.88059984621154" lon="116.343310303249">
        <ele>39.13885778342998</ele>
        <time>2026-09-15T22:43:05.649000Z</time>
      </trkpt>
      <trkpt lat="39.88087986558365" lon="116.34329130764995">
        <ele>38.993531169050094</ele>
        <time>2026-09-15T22:43:17.649000Z</time>
      </trkpt>
      <trkpt lat="39.88115086626931" lon="116.34328329015206">
        <ele>38.73194593345439</ele>
        <time>2026-09-15T22:43:29.749000Z</time>
      </trkpt>
      <trkpt lat="39.88143287514427" lon="116.34327028173963">
        <ele>38.93011754905498</ele>
        <time>2026-09-15T22:43:41.749000Z</time>
      </trkpt>
      <trkpt lat="39.88171982111815" lon="116.34329319728045">
        <ele>38.62889760886943</ele>
        <time>2026-09-15T22:43:53.849000Z</time>
      </trkpt>
      <trkpt lat="39.88204683654977" lon="116.34327519365077">
        <ele>39.326458872907516</ele>
        <time>2026-09-15T22:44:08.949000Z</time>
      </trkpt>
      <trkpt lat="39.88235784060043" lon="116.34326417738316">
        <ele>38.763653697126266</ele>
        <time>2026-09-15T22:44:21.049000Z</time>
      </trkpt>
      <trkpt lat="39.882640870416495" lon="116.3432391939949">
        <ele>38.94068616782939</ele>
        <time>2026-09-15T22:44:33.249000Z</time>
      </trkpt>
      <trkpt lat="39.88292683741142" lon="116.34325013478966">
        <ele>38.6368245497874</ele>
        <time>2026-09-15T22:44:45.349000Z</time>
      </trkpt>
      <trkpt lat="39.88323383998653" lon="116.34324011693653">
        <ele>38.96182531272685</ele>
        <time>2026-09-15T22:44:57.549000Z</time>
      </trkpt>
      <trkpt lat="39.88351382298761" lon="116.34324207734896">
        <ele>39.159995020978805</ele>
        <time>2026-09-15T22:45:09.649000Z</time>
      </trkpt>
      <trkpt lat="39.88381481196338" lon="116.34324004348889">
        <ele>39.29475110923564</ele>
        <time>2026-09-15T22:45:21.749000Z</time>
      </trkpt>
      <trkpt lat="39.88408582156442" lon="116.34322703647555">
        <ele>38.71080869590556</ele>
        <time>2026-09-15T22:45:33.749000Z</time>
      </trkpt>
      <trkpt lat="39.88435977878535" lon="116.34324396620778">
        <ele>39.04373449241435</ele>
        <time>2026-09-15T22:45:45.849000Z</time>
      </trkpt>
      <trkpt lat="39.88462976234356" lon="116.34324592788273">
        <ele>38.5549153700999</ele>
        <time>2026-09-15T22:45:57.849000Z</time>
      </trkpt>
      <trkpt lat="39.88491676948909" lon="116.34323391674823">
        <ele>38.53377622520244</ele>
        <time>2026-09-15T22:46:09.949000Z</time>
      </trkpt>
      <trkpt lat="39.88520572604998" lon="116.34325084458469">
        <ele>39.1071500197581</ele>
        <time>2026-09-15T22:46:22.149000Z</time>
      </trkpt>
      <trkpt lat="39.88548871426748" lon="116.34324981090158">
        <ele>38.94068616782939</ele>
        <time>2026-09-15T22:46:34.449000Z</time>
      </trkpt>
      <trkpt lat="39.88577771092615" lon="116.34324378693768">
        <ele>38.74251645957744</ele>
        <time>2026-09-15T22:46:46.549000Z</time>
      </trkpt>
      <trkpt lat="39.88607971046995" lon="116.34323576552224">
        <ele>39.17056363975322</ele>
        <time>2026-09-15T22:46:58.649000Z</time>
      </trkpt>
      <trkpt lat="39.886336733080256" lon="116.3432157749509">
        <ele>39.202271403425094</ele>
        <time>2026-09-15T22:47:10.649000Z</time>
      </trkpt>
      <trkpt lat="39.88649513915691" lon="116.34323783544878">
        <ele>39.33702749168193</ele>
        <time>2026-09-15T22:47:16.649000Z</time>
      </trkpt>
      <trkpt lat="39.8867896627911" lon="116.34324365898914">
        <ele>38.972393931501266</ele>
        <time>2026-09-15T22:47:28.649000Z</time>
      </trkpt>
      <trkpt lat="39.887079664717646" lon="116.34323464118538">
        <ele>39.223410548322555</ele>
        <time>2026-09-15T22:47:40.649000Z</time>
      </trkpt>
      <trkpt lat="39.88735964101106" lon="116.34324059320805">
        <ele>38.8984097853831</ele>
        <time>2026-09-15T22:47:52.649000Z</time>
      </trkpt>
      <trkpt lat="39.88764862386473" lon="116.34324255247587">
        <ele>38.86670202171123</ele>
        <time>2026-09-15T22:48:04.649000Z</time>
      </trkpt>
      <trkpt lat="39.887937617188015" lon="116.34323852431805">
        <ele>39.56690496360576</ele>
        <time>2026-09-15T22:48:16.649000Z</time>
      </trkpt>
      <trkpt lat="39.88824361321375" lon="116.3432324982026">
        <ele>38.409588755720016</ele>
        <time>2026-09-15T22:48:31.649000Z</time>
      </trkpt>
      <trkpt lat="39.88855259902466" lon="116.34324266498743">
        <ele>38.77422231590068</ele>
        <time>2026-09-15T22:48:43.649000Z</time>
      </trkpt>
      <trkpt lat="39.88885756691723" lon="116.34324239960713">
        <ele>39.3158902541331</ele>
        <time>2026-09-15T22:48:55.649000Z</time>
      </trkpt>
      <trkpt lat="39.889139527559415" lon="116.34325733251423">
        <ele>38.98296255027568</ele>
        <time>2026-09-15T22:49:07.649000Z</time>
      </trkpt>
      <trkpt lat="39.88941750059938" lon="116.34326528059799">
        <ele>38.96182531272685</ele>
        <time>2026-09-15T22:49:19.649000Z</time>
      </trkpt>
      <trkpt lat="39.88970046123643" lon="116.34328021338418">
        <ele>39.02523893272197</ele>
        <time>2026-09-15T22:49:31.749000Z</time>
      </trkpt>
      <trkpt lat="39.88998543224692" lon="116.34328915849032">
        <ele>39.24190610801494</ele>
        <time>2026-09-15T22:49:43.849000Z</time>
      </trkpt>
      <trkpt lat="39.89025642482008" lon="116.34328613050607">
        <ele>39.202271403425094</ele>
        <time>2026-09-15T22:49:55.949000Z</time>
      </trkpt>
      <trkpt lat="39.89041643128745" lon="116.34327812703367">
        <ele>39.159995020978805</ele>
        <time>2026-09-15T22:50:01.949000Z</time>
      </trkpt>
      <trkpt lat="39.89070938630343" lon="116.34329605227259">
        <ele>39.25247472678935</ele>
        <time>2026-09-15T22:50:14.049000Z</time>
      </trkpt>
      <trkpt lat="39.89099034190169" lon="116.34331397903472">
        <ele>39.1071500197581</ele>
        <time>2026-09-15T22:50:26.249000Z</time>
      </trkpt>
      <trkpt lat="39.89127333223673" lon="116.34331194743528">
        <ele>38.877272547834274</ele>
        <time>2026-09-15T22:50:38.549000Z</time>
      </trkpt>
      <trkpt lat="39.89159631725431" lon="116.34331190658799">
        <ele>38.827069224470016</ele>
        <time>2026-09-15T22:50:50.649000Z</time>
      </trkpt>
      <trkpt lat="39.891904316913575" lon="116.34330388439375">
        <ele>39.159995020978805</ele>
        <time>2026-09-15T22:51:02.649000Z</time>
      </trkpt>
      <trkpt lat="39.892195324343525" lon="116.34329187272984">
        <ele>39.3158902541331</ele>
        <time>2026-09-15T22:51:14.749000Z</time>
      </trkpt>
      <trkpt lat="39.892488363043334" lon="116.34326189853176">
        <ele>40.03458684837138</ele>
        <time>2026-09-15T22:51:26.749000Z</time>
      </trkpt>
      <trkpt lat="39.89278136171892" lon="116.34325487614606">
        <ele>39.305319728010055</ele>
        <time>2026-09-15T22:51:38.849000Z</time>
      </trkpt>
      <trkpt lat="39.89306936064396" lon="116.34324785439333">
        <ele>39.77564519798076</ele>
        <time>2026-09-15T22:51:50.949000Z</time>
      </trkpt>
      <trkpt lat="39.89336237851732" lon="116.34322985506577">
        <ele>39.263043345563766</ele>
        <time>2026-09-15T22:52:03.249000Z</time>
      </trkpt>
      <trkpt lat="39.89365041929345" lon="116.34319888363383">
        <ele>39.88926214134013</ele>
        <time>2026-09-15T22:52:15.449000Z</time>
      </trkpt>
      <trkpt lat="39.893941459965596" lon="116.34316791184176">
        <ele>38.993531169050094</ele>
        <time>2026-09-15T22:52:27.649000Z</time>
      </trkpt>
      <trkpt lat="39.89425247186359" lon="116.34315290397286">
        <ele>39.84962934409892</ele>
        <time>2026-09-15T22:52:39.649000Z</time>
      </trkpt>
      <trkpt lat="39.89453852503087" lon="116.34311494753071">
        <ele>39.680523814313766</ele>
        <time>2026-09-15T22:52:51.649000Z</time>
      </trkpt>
      <trkpt lat="39.89482553110079" lon="116.34310393431764">
        <ele>39.765076579206344</ele>
        <time>2026-09-15T22:53:03.649000Z</time>
      </trkpt>
      <trkpt lat="39.89509755880467" lon="116.34308094819295">
        <ele>40.31731122886455</ele>
        <time>2026-09-15T22:53:15.649000Z</time>
      </trkpt>
      <trkpt lat="39.895398583467205" lon="116.34305895631125">
        <ele>40.16141790305888</ele>
        <time>2026-09-15T22:53:27.649000Z</time>
      </trkpt>
      <trkpt lat="39.89570160667277" lon="116.34304749627162">
        <ele>39.659384669416305</ele>
        <time>2026-09-15T22:53:39.649000Z</time>
      </trkpt>
      <trkpt lat="39.896023614374414" lon="116.3430249486629">
        <ele>39.45328802024638</ele>
        <time>2026-09-15T22:53:54.649000Z</time>
      </trkpt>
      <trkpt lat="39.89630068035638" lon="116.34298000816416">
        <ele>39.326458872907516</ele>
        <time>2026-09-15T22:54:06.649000Z</time>
      </trkpt>
      <trkpt lat="39.89649868884094" lon="116.34297000413476">
        <ele>39.680523814313766</ele>
        <time>2026-09-15T22:54:15.649000Z</time>
      </trkpt>
      <trkpt lat="39.89655564784696" lon="116.34299195069826">
        <ele>39.77564519798076</ele>
        <time>2026-09-15T22:54:18.649000Z</time>
      </trkpt>
      <trkpt lat="39.896878748482855" lon="116.3429260485555">
        <ele>40.20369237815654</ele>
        <time>2026-09-15T22:54:33.649000Z</time>
      </trkpt>
      <trkpt lat="39.89717668435866" lon="116.34295494990461">
        <ele>39.73336881553447</ele>
        <time>2026-09-15T22:54:45.649000Z</time>
      </trkpt>
      <trkpt lat="39.89746272035177" lon="116.34292697258772">
        <ele>39.868124903791305</ele>
        <time>2026-09-15T22:54:57.649000Z</time>
      </trkpt>
      <trkpt lat="39.89777273607311" lon="116.3429099691201">
        <ele>39.305319728010055</ele>
        <time>2026-09-15T22:55:12.649000Z</time>
      </trkpt>
      <trkpt lat="39.89806709110594" lon="116.3429016506744">
        <ele>39.701661051862594</ele>
        <time>2026-09-15T22:55:24.649000Z</time>
      </trkpt>
      <trkpt lat="39.89837176328777" lon="116.34287895854756">
        <ele>39.722800196760055</ele>
        <time>2026-09-15T22:55:36.649000Z</time>
      </trkpt>
      <trkpt lat="39.89856683493702" lon="116.34283303065529">
        <ele>40.42300123130595</ele>
        <time>2026-09-15T22:55:45.749000Z</time>
      </trkpt>
      <trkpt lat="39.8986919832473" lon="116.34274520009075">
        <ele>40.11913961326396</ele>
        <time>2026-09-15T22:55:51.749000Z</time>
      </trkpt>
      <trkpt lat="39.898799227084396" lon="116.34260348579578">
        <ele>39.97381490623271</ele>
        <time>2026-09-15T22:55:57.749000Z</time>
      </trkpt>
      <trkpt lat="39.8987531835984" lon="116.34262943679443">
        <ele>40.18255514060771</ele>
        <time>2026-09-15T22:56:03.749000Z</time>
      </trkpt>
      <trkpt lat="39.89861295180001" lon="116.34276516796834">
        <ele>39.92096990501201</ele>
        <time>2026-09-15T22:56:09.849000Z</time>
      </trkpt>
      <trkpt lat="39.89829285249268" lon="116.34283007162513">
        <ele>39.88926214134013</ele>
        <time>2026-09-15T22:56:21.949000Z</time>
      </trkpt>
      <trkpt lat="39.898009835501824" lon="116.34284707165081">
        <ele>40.224831523054</ele>
        <time>2026-09-15T22:56:33.949000Z</time>
      </trkpt>
      <trkpt lat="39.89769281482033" lon="116.34286706967178">
        <ele>39.66995328819072</ele>
        <time>2026-09-15T22:56:49.249000Z</time>
      </trkpt>
      <trkpt lat="39.8975587806661" lon="116.34289003824493">
        <ele>39.680523814313766</ele>
        <time>2026-09-15T22:56:55.349000Z</time>
      </trkpt>
      <trkpt lat="39.897233512058285" lon="116.34290184129574">
        <ele>39.368735255353805</ele>
        <time>2026-09-15T22:57:07.549000Z</time>
      </trkpt>
      <trkpt lat="39.89693077932434" lon="116.34290708192633">
        <ele>39.347596110456344</ele>
        <time>2026-09-15T22:57:19.649000Z</time>
      </trkpt>
      <trkpt lat="39.896714789098006" lon="116.34290710924587">
        <ele>41.35043996726787</ele>
        <time>2026-09-15T22:57:31.649000Z</time>
      </trkpt>
      <trkpt lat="39.89638668344075" lon="116.34297600569211">
        <ele>39.659384669416305</ele>
        <time>2026-09-15T22:57:46.649000Z</time>
      </trkpt>
      <trkpt lat="39.89629461778351" lon="116.34301593329099">
        <ele>39.651457728498336</ele>
        <time>2026-09-15T22:57:49.649000Z</time>
      </trkpt>
      <trkpt lat="39.89600367463069" lon="116.3429910226157">
        <ele>39.09658140098369</ele>
        <time>2026-09-15T22:58:01.649000Z</time>
      </trkpt>
      <trkpt lat="39.89569871118865" lon="116.34297808850589">
        <ele>39.35816472923076</ele>
        <time>2026-09-15T22:58:13.649000Z</time>
      </trkpt>
      <trkpt lat="39.89561273780013" lon="116.34296512670083">
        <ele>38.834996165387984</ele>
        <time>2026-09-15T22:58:16.649000Z</time>
      </trkpt>
      <trkpt lat="39.89546404112815" lon="116.34298408672223">
        <ele>39.117718638532516</ele>
        <time>2026-09-15T22:58:22.649000Z</time>
      </trkpt>
      <trkpt lat="39.89535474081375" lon="116.34297014882375">
        <ele>38.71080869590556</ele>
        <time>2026-09-15T22:58:28.649000Z</time>
      </trkpt>
      <trkpt lat="39.89505609138381" lon="116.34299938905968">
        <ele>39.17056363975322</ele>
        <time>2026-09-15T22:58:40.649000Z</time>
      </trkpt>
      <trkpt lat="39.89475566339479" lon="116.3430300985321">
        <ele>39.42158025657451</ele>
        <time>2026-09-15T22:58:52.649000Z</time>
      </trkpt>
      <trkpt lat="39.894393590959886" lon="116.34308103723018">
        <ele>39.659384669416305</ele>
        <time>2026-09-15T22:59:07.649000Z</time>
      </trkpt>
      <trkpt lat="39.89405059619839" lon="116.34308706801484">
        <ele>39.84962934409892</ele>
        <time>2026-09-15T22:59:22.649000Z</time>
      </trkpt>
      <trkpt lat="39.893775593109744" lon="116.34309608390315">
        <ele>39.35816472923076</ele>
        <time>2026-09-15T22:59:34.649000Z</time>
      </trkpt>
      <trkpt lat="39.89348897500928" lon="116.34311154469485">
        <ele>39.411011637800094</ele>
        <time>2026-09-15T22:59:46.649000Z</time>
      </trkpt>
      <trkpt lat="39.89319549771018" lon="116.3431660103829">
        <ele>39.60918134605205</ele>
        <time>2026-09-15T22:59:58.649000Z</time>
      </trkpt>
      <trkpt lat="39.892907534616334" lon="116.34318416155243">
        <ele>39.19170278465068</ele>
        <time>2026-09-15T23:00:10.749000Z</time>
      </trkpt>
      <trkpt lat="39.89260870475844" lon="116.34320190068442">
        <ele>39.52462858115947</ele>
        <time>2026-09-15T23:00:22.749000Z</time>
      </trkpt>
      <trkpt lat="39.892323011981844" lon="116.34321850176967">
        <ele>39.33702749168193</ele>
        <time>2026-09-15T23:00:34.949000Z</time>
      </trkpt>
      <trkpt lat="39.89202244901595" lon="116.34322503501204">
        <ele>38.8455647841624</ele>
        <time>2026-09-15T23:00:47.149000Z</time>
      </trkpt>
      <trkpt lat="39.891720511159136" lon="116.34326353815467">
        <ele>38.64739316856181</ele>
        <time>2026-09-15T23:00:59.349000Z</time>
      </trkpt>
      <trkpt lat="39.89150367590986" lon="116.34327663142898">
        <ele>39.223410548322555</ele>
        <time>2026-09-15T23:01:08.549000Z</time>
      </trkpt>
      <trkpt lat="39.89129532509035" lon="116.34325555237247">
        <ele>38.64739316856181</ele>
        <time>2026-09-15T23:01:17.649000Z</time>
      </trkpt>
      <trkpt lat="39.89099767936679" lon="116.34323641025975">
        <ele>39.04373449241435</ele>
        <time>2026-09-15T23:01:29.649000Z</time>
      </trkpt>
      <trkpt lat="39.89069249157079" lon="116.34323618014552">
        <ele>39.24190610801494</ele>
        <time>2026-09-15T23:01:41.649000Z</time>
      </trkpt>
      <trkpt lat="39.890403505032914" lon="116.34323621669098">
        <ele>39.54576772605693</ele>
        <time>2026-09-15T23:01:53.649000Z</time>
      </trkpt>
      <trkpt lat="39.89006151924625" lon="116.34323725784199">
        <ele>39.09658140098369</ele>
        <time>2026-09-15T23:02:08.649000Z</time>
      </trkpt>
      <trkpt lat="39.889749717991876" lon="116.34323223443904">
        <ele>39.556336344831344</ele>
        <time>2026-09-15T23:02:20.649000Z</time>
      </trkpt>
      <trkpt lat="39.88943957445957" lon="116.34322236793533">
        <ele>39.40044301902568</ele>
        <time>2026-09-15T23:02:32.649000Z</time>
      </trkpt>
      <trkpt lat="39.88915161408818" lon="116.34320743579768">
        <ele>38.98296255027568</ele>
        <time>2026-09-15T23:02:44.649000Z</time>
      </trkpt>
      <trkpt lat="39.88885965218478" lon="116.34319350207278">
        <ele>38.94068616782939</ele>
        <time>2026-09-15T23:02:56.649000Z</time>
      </trkpt>
      <trkpt lat="39.88858667546946" lon="116.34318754917284">
        <ele>38.36731237327373</ele>
        <time>2026-09-15T23:03:08.649000Z</time>
      </trkpt>
      <trkpt lat="39.88827673362811" lon="116.34316264079811">
        <ele>38.827069224470016</ele>
        <time>2026-09-15T23:03:23.649000Z</time>
      </trkpt>
      <trkpt lat="39.88797873895863" lon="116.34316766799033">
        <ele>39.368735255353805</ele>
        <time>2026-09-15T23:03:35.649000Z</time>
      </trkpt>
      <trkpt lat="39.88767870432407" lon="116.34319564720596">
        <ele>39.21284002219951</ele>
        <time>2026-09-15T23:03:47.649000Z</time>
      </trkpt>
      <trkpt lat="39.887379728913004" lon="116.3431896975911">
        <ele>38.77422231590068</ele>
        <time>2026-09-15T23:03:59.649000Z</time>
      </trkpt>
      <trkpt lat="39.88709375116494" lon="116.3431847442358">
        <ele>39.27361196433818</ele>
        <time>2026-09-15T23:04:11.649000Z</time>
      </trkpt>
      <trkpt lat="39.886802778901895" lon="116.34317679780371">
        <ele>39.231337489240524</ele>
        <time>2026-09-15T23:04:23.649000Z</time>
      </trkpt>
      <trkpt lat="39.88651182931883" lon="116.34315587863767">
        <ele>39.1071500197581</ele>
        <time>2026-09-15T23:04:35.649000Z</time>
      </trkpt>
      <trkpt lat="39.88623580409634" lon="116.34317786739281">
        <ele>39.07544225608623</ele>
        <time>2026-09-15T23:04:47.649000Z</time>
      </trkpt>
      <trkpt lat="39.885932448396204" lon="116.34318982052837">
        <ele>38.26162237083232</ele>
        <time>2026-09-15T23:04:59.649000Z</time>
      </trkpt>
      <trkpt lat="39.885643861931776" lon="116.34316097788974">
        <ele>38.6368245497874</ele>
        <time>2026-09-15T23:05:11.649000Z</time>
      </trkpt>
      <trkpt lat="39.88555686085506" lon="116.34316398259679">
        <ele>40.005522669904586</ele>
        <time>2026-09-15T23:05:32.749000Z</time>
      </trkpt>
      <trkpt lat="39.88587674104278" lon="116.34322381633909">
        <ele>39.231337489240524</ele>
        <time>2026-09-15T23:05:41.749000Z</time>
      </trkpt>
      <trkpt lat="39.88615372262395" lon="116.34322677502998">
        <ele>39.09658140098369</ele>
        <time>2026-09-15T23:05:53.849000Z</time>
      </trkpt>
      <trkpt lat="39.88643273722717" lon="116.34321077329511">
        <ele>39.231337489240524</ele>
        <time>2026-09-15T23:06:06.049000Z</time>
      </trkpt>
      <trkpt lat="39.88672669887485" lon="116.34322470677677">
        <ele>38.877272547834274</ele>
        <time>2026-09-15T23:06:18.249000Z</time>
      </trkpt>
      <trkpt lat="39.88701267485968" lon="116.34323065804034">
        <ele>39.60918134605205</ele>
        <time>2026-09-15T23:06:30.549000Z</time>
      </trkpt>
      <trkpt lat="39.88730067341403" lon="116.3432236362993">
        <ele>39.223410548322555</ele>
        <time>2026-09-15T23:06:42.549000Z</time>
      </trkpt>
      <trkpt lat="39.88759064402269" lon="116.34323258076799">
        <ele>39.77564519798076</ele>
        <time>2026-09-15T23:06:54.749000Z</time>
      </trkpt>
      <trkpt lat="39.887886631786806" lon="116.343231545438">
        <ele>39.54576772605693</ele>
        <time>2026-09-15T23:07:06.749000Z</time>
      </trkpt>
      <trkpt lat="39.888190615710634" lon="116.34323250490401">
        <ele>39.82849019920146</ele>
        <time>2026-09-15T23:07:21.949000Z</time>
      </trkpt>
      <trkpt lat="39.88838956279831" lon="116.34325742734843">
        <ele>38.668532313459274</ele>
        <time>2026-09-15T23:07:31.149000Z</time>
      </trkpt>
      <trkpt lat="39.88865986641421" lon="116.34326653422623">
        <ele>39.04373449241435</ele>
        <time>2026-09-15T23:07:40.349000Z</time>
      </trkpt>
      <trkpt lat="39.88895453972257" lon="116.34325536009803">
        <ele>38.47036260520732</ele>
        <time>2026-09-15T23:07:52.549000Z</time>
      </trkpt>
      <trkpt lat="39.8892575063548" lon="116.34326629873449">
        <ele>38.3461751357249</ele>
        <time>2026-09-15T23:08:04.649000Z</time>
      </trkpt>
      <trkpt lat="39.88956148166874" lon="116.3432722477221">
        <ele>39.263043345563766</ele>
        <time>2026-09-15T23:08:16.649000Z</time>
      </trkpt>
      <trkpt lat="39.88985545224844" lon="116.34328119168906">
        <ele>39.1071500197581</ele>
        <time>2026-09-15T23:08:28.649000Z</time>
      </trkpt>
      <trkpt lat="39.89009243943707" lon="116.34328215962462">
        <ele>39.25247472678935</ele>
        <time>2026-09-15T23:08:37.649000Z</time>
      </trkpt>
      <trkpt lat="39.89026047686902" lon="116.3432561928584">
        <ele>38.56548398887431</ele>
        <time>2026-09-15T23:08:46.649000Z</time>
      </trkpt>
    </trkseg>
  </trk>
</gpx>